{"type":"FeatureCollection","features":[{"type":"Feature","properties":{"code":"98711","nom":"Anaa","region":"987","territory":"PF","subdivision_code":"987-S5","subdivision_name":"Subdivision des Tuamotu Gambier"},"geometry":{"type":"Polygon","coordinates":[[[2.259442056159863,40.712309198603734],[2.253333335055643,40.715906159137184],[2.2520266870034114,40.71854440304276],[2.2609075797865605,40.73992676570605],[2.2794977092782522,40.737404916704705],[2.2945612085877016,40.727745813191035],[2.294615331569147,40.72562867620825],[2.292576182777621,40.7222598243918],[2.259442056159863,40.712309198603734]]]}},{"type":"Feature","properties":{"code":"98712","nom":"Arue","region":"987","territory":"PF","subdivision_code":"987-S1","subdivision_name":"Subdivision des Iles Du Vent"},"geometry":{"type":"Polygon","coordinates":[[[1.939033083577833,40.735244393393955],[1.9400382074535976,40.7301475664688],[1.9358439242572867,40.73383630798722],[1.9266926527014197,40.77492675171252],[1.928930629598067,40.78078407517338],[1.9326872982459606,40.782937232159526],[1.9388320855112817,40.78148698817504],[1.940980657739382,40.776865834244624],[1.939033083577833,40.735244393393955]]]}},{"type":"Feature","properties":{"code":"98713","nom":"Arutua","region":"987","territory":"PF","subdivision_code":"987-S5","subdivision_name":"Subdivision des Tuamotu Gambier"},"geometry":{"type":"Polygon","coordinates":[[[2.2222583351222913,40.74820582458275],[2.2146190933216685,40.75018792864919],[2.206674068946471,40.75452866672486],[2.201792304943036,40.76013990130349],[2.199533993780289,40.766382118163165],[2.1992075230445476,40.78098954250612],[2.2008991650263026,40.78772879259875],[2.207696851916838,40.795747207210226],[2.215056070557249,40.79897215944636],[2.22045534125963,40.7988689453424],[2.242709578433175,40.79349781979464],[2.2482598556051197,40.789171603395886],[2.251588891191793,40.78181220898889],[2.250073138250495,40.76923490505757],[2.2462768746990567,40.761936339234346],[2.2348927890338373,40.75046711239366],[2.2293507302281776,40.74855018066221],[2.2222583351222913,40.74820582458275]]]}},{"type":"Feature","properties":{"code":"98714","nom":"Bora Bora","region":"987","territory":"PF","subdivision_code":"987-S2","subdivision_name":"Subdivision des Iles Sous Le Vent"},"geometry":{"type":"Polygon","coordinates":[[[1.7330628290217374,40.75642621551828],[1.72524203675369,40.75890586534537],[1.7193556353257362,40.764609383038554],[1.71710437491266,40.77035110348169],[1.714306872456644,40.787299094193116],[1.7152867040454156,40.794113454933886],[1.718783993694464,40.80000563412255],[1.7245242794586588,40.80427102056605],[1.7307228816392672,40.80575499224001],[1.7396374841332527,40.803895898577345],[1.7463186590368336,40.7989020410031],[1.7538000504818803,40.78303269287731],[1.7550291999004952,40.77755903816259],[1.75421829365852,40.768788730833435],[1.749799516697144,40.76153119643895],[1.742539620121734,40.75695524873543],[1.7330628290217374,40.75642621551828]]]}},{"type":"Feature","properties":{"code":"98715","nom":"Faaa","region":"987","territory":"PF","subdivision_code":"987-S1","subdivision_name":"Subdivision des Iles Du Vent"},"geometry":{"type":"Polygon","coordinates":[[[1.9145222302397238,40.728180627402644],[1.9146787409481938,40.73543567506977],[1.9185214152025103,40.74213515845146],[1.9257138996632113,40.74649555865761],[1.9333958931054918,40.747409618246735],[1.9399776164779634,40.74499335148937],[1.949560955836907,40.736048366381446],[1.9524616419280643,40.73140902585497],[1.9533625964877932,40.7260121988982],[1.952126205784553,40.72068220843395],[1.9485608092399047,40.71588390588283],[1.943045226556121,40.712794080707695],[1.936699049115615,40.71206171608906],[1.920531643531073,40.71849404964034],[1.9167144549225563,40.72239517584083],[1.9145222302397238,40.728180627402644]]]}},{"type":"Feature","properties":{"code":"98716","nom":"Fakarava","region":"987","territory":"PF","subdivision_code":"987-S5","subdivision_name":"Subdivision des Tuamotu Gambier"},"geometry":{"type":"Polygon","coordinates":[[[2.2570410782996504,40.74101273649332],[2.229290405167741,40.75260506243684],[2.228307963040691,40.75552436816817],[2.2345576534429346,40.7650470398083],[2.255185938741732,40.77730197716767],[2.2846395486254236,40.76847113990197],[2.2854398214952294,40.7661671532651],[2.28031068524533,40.75250044952426],[2.2782987118029547,40.749780918311515],[2.2570410782996504,40.74101273649332]]]}},{"type":"Feature","properties":{"code":"98717","nom":"Fangatau","region":"987","territory":"PF","subdivision_code":"987-S5","subdivision_name":"Subdivision des Tuamotu Gambier"},"geometry":{"type":"Polygon","coordinates":[[[2.418165298753179,40.743391465625656],[2.392320674938609,40.74898451720587],[2.385105191787047,40.75304752301593],[2.3817613094495416,40.757608766161816],[2.380179338899448,40.76361788451189],[2.381141706849473,40.77006439898001],[2.384048572449155,40.77494421716011],[2.3895645907379177,40.77900730307521],[2.3992020900823006,40.780834795665356],[2.424606321506604,40.77521195476435],[2.431006801523012,40.77148100012332],[2.4339640837942373,40.7675987663171],[2.4355675566418387,40.7631734103995],[2.4357753113308305,40.75815286769086],[2.4343175382809044,40.75308480788762],[2.431746481265856,40.749217566727346],[2.4276434675109146,40.74581764271337],[2.4230556556809253,40.74390185606155],[2.418165298753179,40.743391465625656]]]}},{"type":"Feature","properties":{"code":"98718","nom":"Fatu Hiva","region":"987","territory":"PF","subdivision_code":"987-S3","subdivision_name":"Subdivision des Marquises"},"geometry":{"type":"Polygon","coordinates":[[[2.5417182723294016,40.90451001811281],[2.533238362560745,40.906862870730556],[2.528147116927927,40.910760127660666],[2.524885257696473,40.91510829242709],[2.5225421486064685,40.92438316571004],[2.522994366164834,40.93256524932104],[2.524629780551093,40.937587017753934],[2.529422739003956,40.94341017306846],[2.5356596369326776,40.946542364969204],[2.555172989535954,40.95108448331325],[2.5643211348823596,40.949544718620196],[2.5703606335778844,40.94486552879097],[2.5735679168977956,40.93907003919604],[2.5743733882270567,40.93179001105179],[2.572506179221323,40.92556802097358],[2.5685098678255542,40.920423253862864],[2.553381565046963,40.90848955508592],[2.547657599110642,40.90546899492615],[2.5417182723294016,40.90451001811281]]]}},{"type":"Feature","properties":{"code":"98719","nom":"Gambier","region":"987","territory":"PF","subdivision_code":"987-S5","subdivision_name":"Subdivision des Tuamotu Gambier"},"geometry":{"type":"Polygon","coordinates":[[[2.5093983353597933,40.54068423550337],[2.5077810964645217,40.54163138755786],[2.507475631546048,40.543339275550615],[2.519321792201359,40.599519991862074],[2.5214615306559938,40.60100623482342],[2.5584651755861976,40.59554990502734],[2.561055825037848,40.594118901856675],[2.592219831303054,40.53714336797398],[2.589667959585815,40.53488779889386],[2.5093983353597933,40.54068423550337]]]}},{"type":"Feature","properties":{"code":"98720","nom":"Hao","region":"987","territory":"PF","subdivision_code":"987-S5","subdivision_name":"Subdivision des Tuamotu Gambier"},"geometry":{"type":"Polygon","coordinates":[[[2.3308997821257904,40.61527124470283],[2.272848311886708,40.63953090824671],[2.270251713498282,40.64278103199739],[2.27158257485906,40.64453269656258],[2.361388609450962,40.68581604029008],[2.362913357641524,40.689264316967666],[2.3635076023563246,40.735425319163156],[2.365344366522955,40.735949813721504],[2.4049398312909296,40.7080875211555],[2.4131106267473363,40.648742891161795],[2.4116798965348853,40.64717842951383],[2.3308997821257904,40.61527124470283]]]}},{"type":"Feature","properties":{"code":"98721","nom":"Hikueru","region":"987","territory":"PF","subdivision_code":"987-S5","subdivision_name":"Subdivision des Tuamotu Gambier"},"geometry":{"type":"Polygon","coordinates":[[[2.357208577127265,40.68752128247873],[2.328173404759774,40.702354179843404],[2.3285826496122377,40.70465473318053],[2.3443132900909034,40.721495393641824],[2.347080611008168,40.72056654063006],[2.358237363258807,40.700671587206884],[2.3610077797360693,40.69076889645139],[2.357208577127265,40.68752128247873]]]}},{"type":"Feature","properties":{"code":"98722","nom":"Hitiaa O Te Ra","region":"987","territory":"PF","subdivision_code":"987-S1","subdivision_name":"Subdivision des Iles Du Vent"},"geometry":{"type":"Polygon","coordinates":[[[1.9272816739483647,40.72838239743297],[1.9289977027402803,40.73309164777627],[1.9295976415598337,40.74105520543835],[1.9321541741919637,40.745778481856476],[1.938444362755023,40.75024155918411],[1.946716975250723,40.751552180202445],[1.9535165863810067,40.74947699795258],[1.963771600352584,40.742829685062055],[1.9692078678732947,40.73499801047455],[1.9703827436871375,40.725818348991076],[1.9680040932312053,40.71694278681835],[1.9635290656905717,40.71202598057408],[1.9586150872404098,40.70994325383906],[1.9417458034445692,40.707876898802645],[1.935342690130368,40.70961073187531],[1.9301246160088483,40.71418857901162],[1.9270925375508223,40.72116265166204],[1.9272816739483647,40.72838239743297]]]}},{"type":"Feature","properties":{"code":"98723","nom":"Hiva Oa","region":"987","territory":"PF","subdivision_code":"987-S3","subdivision_name":"Subdivision des Marquises"},"geometry":{"type":"Polygon","coordinates":[[[2.5327977977640357,40.95119104103484],[2.529744561366148,40.95256186393885],[2.517899286263731,40.96326558890545],[2.5103514474244952,40.9641249538495],[2.507524636727445,40.96914589767643],[2.5079575687031266,40.971462511894174],[2.5213592715645174,40.9940181637484],[2.5241467845107683,40.996417014252884],[2.52724846376249,40.995726844931454],[2.5301314581417453,40.991951411876805],[2.536508485350385,40.97221312979818],[2.536375468812929,40.95336904534357],[2.53510102841715,40.95171286588951],[2.5327977977640357,40.95119104103484]]]}},{"type":"Feature","properties":{"code":"98724","nom":"Huahine","region":"987","territory":"PF","subdivision_code":"987-S2","subdivision_name":"Subdivision des Iles Sous Le Vent"},"geometry":{"type":"Polygon","coordinates":[[[1.7557146070985896,40.76549592096705],[1.7579844382472116,40.772165406526724],[1.763129782159392,40.778104655167006],[1.7694101138294915,40.780506046358916],[1.776741447037818,40.7802781860039],[1.7822882584863509,40.777265997757354],[1.7860494676859373,40.772744471646945],[1.7892177938958265,40.76524620809067],[1.789146436389646,40.757940941969906],[1.7865949166707797,40.7524938792843],[1.781599277901041,40.74780217913966],[1.7757966614128522,40.74543794117184],[1.7692244936273918,40.74552852532019],[1.7640249863615856,40.74793599280031],[1.7579392413896986,40.75387245075997],[1.7557216609606152,40.7588146036733],[1.7557146070985896,40.76549592096705]]]}},{"type":"Feature","properties":{"code":"98725","nom":"Mahina","region":"987","territory":"PF","subdivision_code":"987-S1","subdivision_name":"Subdivision des Iles Du Vent"},"geometry":{"type":"Polygon","coordinates":[[[1.9249455673806528,40.73869983745224],[1.92836163584404,40.74590138008507],[1.934372628435891,40.75021897934355],[1.9419591093417699,40.751159554117095],[1.947820446570531,40.750019752231076],[1.951393464728178,40.74805098036637],[1.955543184265351,40.74301241823784],[1.9574514589142906,40.7340064312941],[1.9571771641117752,40.72762676333006],[1.9534413118016645,40.718416211505264],[1.949047897012122,40.714576324652874],[1.9427334239138638,40.71230927237769],[1.936565184059266,40.71289952549668],[1.9314667817830444,40.71551149198446],[1.9281351887000027,40.7190021485827],[1.9262125393625833,40.72315596231738],[1.9249455673806528,40.73869983745224]]]}},{"type":"Feature","properties":{"code":"98726","nom":"Makemo","region":"987","territory":"PF","subdivision_code":"987-S5","subdivision_name":"Subdivision des Tuamotu Gambier"},"geometry":{"type":"Polygon","coordinates":[[[2.3182489182695614,40.71266732974999],[2.2921870432699296,40.73307927645437],[2.286740908393767,40.746728704187085],[2.2869716797973307,40.74884780231334],[2.2892440037945128,40.750607990858065],[2.3597815517944762,40.76872185096666],[2.3602211809615,40.766218617908955],[2.332702156124259,40.72195673422189],[2.3206120297460084,40.713341954619274],[2.3182489182695614,40.71266732974999]]]}},{"type":"Feature","properties":{"code":"98727","nom":"Manihi","region":"987","territory":"PF","subdivision_code":"987-S5","subdivision_name":"Subdivision des Tuamotu Gambier"},"geometry":{"type":"Polygon","coordinates":[[[2.2289010691472986,40.786911286495716],[2.2205794612895446,40.78993556636576],[2.2152479891282573,40.796760360939885],[2.2142421372098466,40.80530650705696],[2.218087236952348,40.814783537444754],[2.2255529243902057,40.82072594836982],[2.2426894893197966,40.82505561695515],[2.249911342880242,40.82487832721411],[2.2556017551585565,40.822149238129356],[2.2597674749559915,40.817505965486795],[2.26224764852063,40.810992543832036],[2.2618351945300543,40.804373734371275],[2.258967112633993,40.79874960664625],[2.254969929635476,40.79483124182017],[2.2494978233801826,40.79168902673888],[2.2289010691472986,40.786911286495716]]]}},{"type":"Feature","properties":{"code":"98728","nom":"Maupiti","region":"987","territory":"PF","subdivision_code":"987-S2","subdivision_name":"Subdivision des Iles Sous Le Vent"},"geometry":{"type":"Polygon","coordinates":[[[1.6251349039698164,40.755598123010266],[1.5870734078236708,40.76874327613808],[1.5853032480573594,40.77020769465543],[1.5851230632087254,40.775627377952084],[1.5943624743943676,40.810459611980235],[1.5964542405673008,40.81290148303508],[1.598772333854282,40.81310441743375],[1.7112074772261565,40.782481112130334],[1.7140413784888604,40.7797353522299],[1.7137266746198865,40.77575364295967],[1.711772560747806,40.773897071134215],[1.6251349039698164,40.755598123010266]]]}},{"type":"Feature","properties":{"code":"98729","nom":"Moorea Maiao","region":"987","territory":"PF","subdivision_code":"987-S1","subdivision_name":"Subdivision des Iles Du Vent"},"geometry":{"type":"Polygon","coordinates":[[[1.8470136101811168,40.71678581979031],[1.8429132247851439,40.71802228733168],[1.840185760492452,40.72192041231869],[1.8414945327163814,40.726399700421815],[1.8451198270304745,40.729567908336506],[1.9130125237297473,40.74274718727196],[1.9186988323195204,40.74238941430144],[1.922751574276815,40.738088746951036],[1.9216059939939454,40.73103033410154],[1.9180303018040763,40.72486424885835],[1.9154826900917523,40.72340958688053],[1.8470136101811168,40.71678581979031]]]}},{"type":"Feature","properties":{"code":"98730","nom":"Napuka","region":"987","territory":"PF","subdivision_code":"987-S5","subdivision_name":"Subdivision des Tuamotu Gambier"},"geometry":{"type":"Polygon","coordinates":[[[2.384216071648915,40.79820222474274],[2.379475788689231,40.7993210491794],[2.3703299782864886,40.80404329931432],[2.3668331767875284,40.80775382811693],[2.364540485667105,40.812825340907175],[2.3642429216224032,40.819101599411496],[2.3663467787584325,40.82500278068256],[2.370289463073523,40.829363653198016],[2.3761790107464247,40.83211143832657],[2.383368307010792,40.832110152460785],[2.393852363726713,40.828679369616346],[2.3996666803177025,40.823801244225926],[2.4027446652982687,40.8175007354517],[2.402603184725283,40.809641694259106],[2.398764331199586,40.8028731617563],[2.392411757455185,40.798829240996206],[2.384216071648915,40.79820222474274]]]}},{"type":"Feature","properties":{"code":"98731","nom":"Nuku Hiva","region":"987","territory":"PF","subdivision_code":"987-S3","subdivision_name":"Subdivision des Marquises"},"geometry":{"type":"Polygon","coordinates":[[[2.447440613373956,41.01636621671014],[2.4191502119869974,41.033098005090004],[2.416953731476368,41.03539673671481],[2.4113485162669477,41.07764400251943],[2.4121566160645953,41.08122954548122],[2.414151521470096,41.0837044398686],[2.423338990448688,41.08853715449981],[2.4403432273420793,41.09520867547305],[2.443732313288728,41.09401948729438],[2.44644466956082,41.09102378813283],[2.4618938106792787,41.03006735868048],[2.4617873331827638,41.02205263456745],[2.4607714295151215,41.019859064355366],[2.447440613373956,41.01636621671014]]]}},{"type":"Feature","properties":{"code":"98732","nom":"Nukutavake","region":"987","territory":"PF","subdivision_code":"987-S5","subdivision_name":"Subdivision des Tuamotu Gambier"},"geometry":{"type":"Polygon","coordinates":[[[2.4629943215870727,40.65480575362461],[2.4465295187608866,40.65587320417575],[2.444026880968339,40.65702151770756],[2.4449451885151556,40.68209639059539],[2.445801587761327,40.68347216031761],[2.447707136462245,40.683562883528786],[2.461104517845735,40.67653683034549],[2.4649265458983063,40.65677021331059],[2.4629943215870727,40.65480575362461]]]}},{"type":"Feature","properties":{"code":"98733","nom":"Paea","region":"987","territory":"PF","subdivision_code":"987-S1","subdivision_name":"Subdivision des Iles Du Vent"},"geometry":{"type":"Polygon","coordinates":[[[1.9190300270716079,40.71024508481171],[1.916747770227802,40.72340803479494],[1.9189682474796912,40.7300414889831],[1.9229091615336091,40.73404496741397],[1.9308123062441025,40.73780025263964],[1.937466796186298,40.738036863441415],[1.9459004933264443,40.735237792233136],[1.9499737536757829,40.731850757581434],[1.9528300838901103,40.72610437369274],[1.9529211824337496,40.71970592117357],[1.950410729431893,40.713442010494845],[1.9421547326722128,40.70382852105092],[1.9360420087721182,40.70101872661372],[1.929270646578039,40.701401172426664],[1.9226905338228115,40.705300592185466],[1.9190300270716079,40.71024508481171]]]}},{"type":"Feature","properties":{"code":"98734","nom":"Papara","region":"987","territory":"PF","subdivision_code":"987-S1","subdivision_name":"Subdivision des Iles Du Vent"},"geometry":{"type":"Polygon","coordinates":[[[1.9211816550784215,40.721562108138876],[1.9282886880577932,40.73186074696728],[1.9322838344450934,40.73571946455843],[1.939185602840383,40.7383424258152],[1.9457511895543975,40.73748507516743],[1.9514932013980792,40.73337876845743],[1.9557792203204383,40.72647393801001],[1.957211612421737,40.715034652440934],[1.9558860895349972,40.706445850602044],[1.9518944047685967,40.70095691846808],[1.9457901991908477,40.69799033836465],[1.9394103750411942,40.698115726946476],[1.928020771279561,40.7018555540569],[1.9234550230288012,40.704940453114894],[1.9204333541475025,40.70954829170355],[1.9194238559760823,40.714965262511036],[1.9211816550784215,40.721562108138876]]]}},{"type":"Feature","properties":{"code":"98735","nom":"PAPEETE","region":"987","territory":"PF","subdivision_code":"987-S1","subdivision_name":"Subdivision des Iles Du Vent"},"geometry":{"type":"Polygon","coordinates":[[[1.9186565411968108,40.729774912365535],[1.9185300859846608,40.736492945259634],[1.9217558295958692,40.74274912735672],[1.9284085562255138,40.74767191124435],[1.9349853612772447,40.74900722255253],[1.9409277526217046,40.747527525492885],[1.9457427972796346,40.74378252105214],[1.9504782997898207,40.73300716061613],[1.951046964364243,40.727912720231984],[1.9497234734449196,40.7228615383181],[1.946669689246026,40.71858039296108],[1.9418897060024567,40.7155505711043],[1.9367089554041728,40.71464759595587],[1.9315605553606312,40.71571975166842],[1.923636093591084,40.72077348964848],[1.9201515280215513,40.72503632538391],[1.9186565411968108,40.729774912365535]]]}},{"type":"Feature","properties":{"code":"98736","nom":"Pirae","region":"987","territory":"PF","subdivision_code":"987-S1","subdivision_name":"Subdivision des Iles Du Vent"},"geometry":{"type":"Polygon","coordinates":[[[1.9208381667978554,40.73326911669087],[1.9220077074585356,40.7401388073155],[1.9265689576701608,40.746068961178544],[1.9337413633623906,40.74896161479146],[1.9413869862933795,40.74810523063602],[1.9460808408789338,40.74498965902954],[1.9529214655447973,40.735642663357325],[1.9541184301523764,40.72938749803067],[1.9528301762609812,40.72204581833588],[1.9493809641777302,40.716653724412986],[1.9450761561115832,40.71366567076015],[1.9400859980333462,40.71246812607841],[1.9340003974266575,40.71347833601162],[1.9296506045274555,40.71613773365313],[1.9251334868429733,40.72111922905077],[1.9217518584253117,40.727881664184146],[1.9208381667978554,40.73326911669087]]]}},{"type":"Feature","properties":{"code":"98737","nom":"Pukapuka","region":"987","territory":"PF","subdivision_code":"987-S5","subdivision_name":"Subdivision des Tuamotu Gambier"},"geometry":{"type":"Polygon","coordinates":[[[2.4465660302166574,40.80350390163252],[2.4510098176910624,40.80757100152506],[2.455867278152011,40.80944824551013],[2.4625133720681895,40.809198813995934],[2.4671733154484743,40.806910919249944],[2.471475433338279,40.80227854088386],[2.473552966644427,40.79665532069535],[2.4734444083351117,40.79185770906349],[2.4712236213937055,40.78644358190377],[2.466695765879502,40.782136581850665],[2.4615103220455037,40.780267733763445],[2.4558976852466627,40.78051285615676],[2.4500799371854494,40.783141970940115],[2.4465147561549725,40.786550553442424],[2.443971930839106,40.79236640610976],[2.4440754244593403,40.79816879611949],[2.4465660302166574,40.80350390163252]]]}},{"type":"Feature","properties":{"code":"98738","nom":"Punaauia","region":"987","territory":"PF","subdivision_code":"987-S1","subdivision_name":"Subdivision des Iles Du Vent"},"geometry":{"type":"Polygon","coordinates":[[[1.9146637289713737,40.727542379378924],[1.9150844425577802,40.73425418748783],[1.9186480590774697,40.74005623227274],[1.9232274998478254,40.743042441941704],[1.9304987288694873,40.74432763319107],[1.9443526925975803,40.74012799622128],[1.9499307753383601,40.737161233310985],[1.9540627234920025,40.7317309967923],[1.9551427858092438,40.7248930766343],[1.9527532814308801,40.71729006059698],[1.9469863487205414,40.7113741703286],[1.9409237070606005,40.709087131634824],[1.9294667320835408,40.708477277826994],[1.923187173656622,40.710616521062924],[1.9193230487416055,40.714281095081475],[1.9157647887501932,40.720323432797464],[1.9146637289713737,40.727542379378924]]]}},{"type":"Feature","properties":{"code":"98739","nom":"Raivavae","region":"987","territory":"PF","subdivision_code":"987-S4","subdivision_name":"Subdivision des Australes"},"geometry":{"type":"Polygon","coordinates":[[[1.8162220864876968,40.46795338922887],[1.8193148080514676,40.47243489855717],[1.8241831147548444,40.47563965987639],[1.829123729958629,40.47684815618638],[1.83571925546667,40.47613471635649],[1.8407564873886717,40.47316794572959],[1.8437787837026922,40.469235633181505],[1.8453418258884402,40.463818968480865],[1.8446310451438246,40.45783730432687],[1.8417189160348948,40.45279139084716],[1.8366955572766954,40.44900456792072],[1.8308130098614162,40.4474822320859],[1.8251083312337046,40.448110708728],[1.8199333990062816,40.45099064228608],[1.816163322509915,40.455892145260734],[1.814838809411452,40.46136414358989],[1.8162220864876968,40.46795338922887]]]}},{"type":"Feature","properties":{"code":"98740","nom":"Rangiroa","region":"987","territory":"PF","subdivision_code":"987-S5","subdivision_name":"Subdivision des Tuamotu Gambier"},"geometry":{"type":"Polygon","coordinates":[[[2.1738387540307507,40.761465695637824],[2.171473962311953,40.762994627627315],[2.1583870077791256,40.7920333223276],[2.1592748043476555,40.79513749663675],[2.1907021873253685,40.792943545503185],[2.205704043228675,40.78352600735329],[2.2069015528129032,40.78113978340111],[2.206198216713731,40.77959905120867],[2.1738387540307507,40.761465695637824]]]}},{"type":"Feature","properties":{"code":"98741","nom":"Rapa","region":"987","territory":"PF","subdivision_code":"987-S4","subdivision_name":"Subdivision des Australes"},"geometry":{"type":"Polygon","coordinates":[[[1.9047436879431545,40.373109307165436],[1.8826590469219662,40.38017949445017],[1.8789813104765647,40.38343719870748],[1.876641240599326,40.38713984285465],[1.8753907024912355,40.39196017132619],[1.8756782629982864,40.39659679533287],[1.8774379805155568,40.401212010036595],[1.8834463752508348,40.4071095223543],[1.8894663630911803,40.408923335572474],[1.895954245497721,40.408220521478206],[1.9137157277840873,40.40156707751944],[1.919884745922783,40.39560559123057],[1.9217622731875919,40.38937258822124],[1.9209145413857924,40.38306800657209],[1.918085631370066,40.37813706934896],[1.9137922279613386,40.37471938927626],[1.9095816760305593,40.37324198488481],[1.9047436879431545,40.373109307165436]]]}},{"type":"Feature","properties":{"code":"98742","nom":"Reao","region":"987","territory":"PF","subdivision_code":"987-S5","subdivision_name":"Subdivision des Tuamotu Gambier"},"geometry":{"type":"Polygon","coordinates":[[[2.5345554868637246,40.665702000948436],[2.508846059850374,40.67321459672198],[2.501382093106624,40.67800009517322],[2.4971777421058277,40.68446214752054],[2.4958383725818147,40.690466766047656],[2.496929976879893,40.696633556849356],[2.500726629660162,40.70224099484854],[2.5075637040561887,40.70604099441244],[2.5148676734156523,40.70624256555646],[2.5367924792932666,40.69916690229179],[2.5462052023893706,40.692866613940204],[2.5503760525602615,40.68501500188592],[2.5506751010989075,40.68019164895841],[2.549368263884083,40.67517181250059],[2.5433034591599792,40.668174542220505],[2.5345554868637246,40.665702000948436]]]}},{"type":"Feature","properties":{"code":"98743","nom":"Rimatara","region":"987","territory":"PF","subdivision_code":"987-S4","subdivision_name":"Subdivision des Australes"},"geometry":{"type":"Polygon","coordinates":[[[1.7350912419748958,40.48334576675799],[1.6993597166632346,40.49908865647419],[1.6987931811939736,40.50049970396356],[1.7357263165822365,40.48578320177824],[1.7363392334140504,40.48434034771062],[1.7350912419748958,40.48334576675799]]]}},{"type":"Feature","properties":{"code":"98744","nom":"Rurutu","region":"987","territory":"PF","subdivision_code":"987-S4","subdivision_name":"Subdivision des Australes"},"geometry":{"type":"Polygon","coordinates":[[[1.7620409028917765,40.48593193384766],[1.70014979222991,40.499767607966035],[1.6999137414272176,40.501446176828196],[1.7618655960629475,40.489668095602426],[1.7634339642230026,40.48791190520846],[1.7620409028917765,40.48593193384766]]]}},{"type":"Feature","properties":{"code":"98745","nom":"Tahaa","region":"987","territory":"PF","subdivision_code":"987-S2","subdivision_name":"Subdivision des Iles Sous Le Vent"},"geometry":{"type":"Polygon","coordinates":[[[1.730657257551849,40.77440189867166],[1.7341416087790409,40.780806671275656],[1.7397580545583005,40.78562942396734],[1.7474985003844887,40.78722773301458],[1.7558928655552,40.785805469449876],[1.7629373926570928,40.779996224123465],[1.7660528238428927,40.77405458422121],[1.7663843803241885,40.76754950918891],[1.763894952850849,40.75940493941545],[1.7608268194105194,40.755051819018306],[1.755090269098892,40.75171938540233],[1.7475857889119664,40.75114653385829],[1.7420684028507776,40.75227958196393],[1.7351566472330548,40.757357403927365],[1.7319744164304602,40.76109363267654],[1.7298307393450187,40.76694022842284],[1.730657257551849,40.77440189867166]]]}},{"type":"Feature","properties":{"code":"98746","nom":"Tahuata","region":"987","territory":"PF","subdivision_code":"987-S3","subdivision_name":"Subdivision des Marquises"},"geometry":{"type":"Polygon","coordinates":[[[2.4985030241566806,40.95698884106372],[2.500404061261706,40.965542999957385],[2.503243121980642,40.97063536534991],[2.508318438941785,40.97501503014395],[2.5143484762393467,40.97676468529973],[2.51961696770872,40.976569685226494],[2.5254530010147787,40.973856680035766],[2.5308175941929356,40.967478382640444],[2.532824998759686,40.96145850805176],[2.5322179015349,40.955322322413664],[2.529579115570486,40.949883439704095],[2.5219334419573247,40.94266141667818],[2.515815574138466,40.94020258535577],[2.5099900145440657,40.940544573572964],[2.5038422186214317,40.94405030831737],[2.499717254534784,40.95033022173776],[2.4985030241566806,40.95698884106372]]]}},{"type":"Feature","properties":{"code":"98747","nom":"Taiarapu Est","region":"987","territory":"PF","subdivision_code":"987-S1","subdivision_name":"Subdivision des Iles Du Vent"},"geometry":{"type":"Polygon","coordinates":[[[2.0581110295275726,40.70995529243298],[2.0606948625674684,40.70821472323068],[2.0615336560773057,40.705096046731335],[2.060465114035433,40.70228544329984],[2.057181372629649,40.700621388666185],[1.967820165194635,40.70437535331415],[1.9662335007058662,40.70900271510802],[1.9628074419038222,40.70992399267403],[1.9628281192511983,40.71157234082828],[1.9610974554460572,40.710873906521336],[1.9572383299406457,40.714903346371216],[1.9517695650522469,40.717343236366546],[1.9514403956334938,40.72026422942225],[1.9468653093670132,40.722201682040556],[1.9464295208634452,40.7239226502784],[1.947195519978314,40.725404824249715],[1.9490072580913353,40.725577616932675],[1.9544264549795216,40.72356633775004],[2.0581110295275726,40.70995529243298]]]}},{"type":"Feature","properties":{"code":"98748","nom":"Taiarapu Ouest","region":"987","territory":"PF","subdivision_code":"987-S1","subdivision_name":"Subdivision des Iles Du Vent"},"geometry":{"type":"Polygon","coordinates":[[[1.9388380285266478,40.71550482659973],[1.9404832994643753,40.72267987126919],[1.9448721763574883,40.72794949851188],[1.9512372017844681,40.730502469912764],[1.9580272123964662,40.729776115269765],[1.9698821430612792,40.72366534492515],[1.9773500602083458,40.71751283289967],[1.9816284206051675,40.70668448356545],[1.981030528874924,40.69974002253474],[1.977389080722764,40.69416970706572],[1.9718624134304161,40.69074116484009],[1.9642444621200996,40.68971436207986],[1.955938408925713,40.69204809184849],[1.9493169194029436,40.69506390079828],[1.9444529088835496,40.699646702161075],[1.9400280006564223,40.708468005553264],[1.9388380285266478,40.71550482659973]]]}},{"type":"Feature","properties":{"code":"98749","nom":"Takaroa","region":"987","territory":"PF","subdivision_code":"987-S5","subdivision_name":"Subdivision des Tuamotu Gambier"},"geometry":{"type":"Polygon","coordinates":[[[2.284630900501715,40.77507193700761],[2.25695093330256,40.78447754179541],[2.251918160870685,40.7888152242391],[2.2490383432907777,40.794539157172295],[2.248929523770119,40.8022911417226],[2.2530141595556636,40.811353611167384],[2.2643736533017513,40.82022597641057],[2.2712523107423435,40.82310340309],[2.2794309488078,40.82317596409631],[2.286923918036274,40.81917810887716],[2.301082607667189,40.795770380453405],[2.3015302251187695,40.78810777991356],[2.298337282821822,40.78119675475815],[2.2925965019955914,40.776701640081704],[2.284630900501715,40.77507193700761]]]}},{"type":"Feature","properties":{"code":"98750","nom":"Taputapuapea","region":"987","territory":"PF","subdivision_code":"987-S2","subdivision_name":"Subdivision des Iles Sous Le Vent"},"geometry":{"type":"Polygon","coordinates":[[[1.7360941266639984,40.761063535182195],[1.7371343372029489,40.767703680171195],[1.7413929840438045,40.773621212297975],[1.7473090036353993,40.777032693033235],[1.754166772173008,40.77742632613819],[1.7608950376831198,40.77440790297759],[1.766937131915996,40.76787787489048],[1.7696967150171057,40.76275270968654],[1.7702323162018265,40.75706468733304],[1.7686114596644134,40.751462506910315],[1.7646658831997384,40.74624483761814],[1.75727876597553,40.74190544701002],[1.7504147058074677,40.740994629425195],[1.7451330145709683,40.74273246288127],[1.7407914089733996,40.74654072106242],[1.736663725601354,40.755324041572166],[1.7360941266639984,40.761063535182195]]]}},{"type":"Feature","properties":{"code":"98751","nom":"Tatakoto","region":"987","territory":"PF","subdivision_code":"987-S5","subdivision_name":"Subdivision des Tuamotu Gambier"},"geometry":{"type":"Polygon","coordinates":[[[2.4683642202149954,40.733021094459424],[2.4748276916620653,40.73325296890192],[2.480695373141107,40.731288902074624],[2.484891712905363,40.72747174314396],[2.487269031068023,40.72234109671163],[2.4873865000028625,40.716296119406685],[2.4853225594888304,40.7112246311063],[2.4816236422842413,40.7073707150006],[2.4763333078076126,40.704734912500726],[2.46895216642069,40.704135858588415],[2.463478702686163,40.70560788200249],[2.4588942156743894,40.70916760539801],[2.4562173616589296,40.713967318783084],[2.4556207617132344,40.72017904185322],[2.4575739387474,40.72583480231061],[2.461416097626625,40.73005048960373],[2.4683642202149954,40.733021094459424]]]}},{"type":"Feature","properties":{"code":"98752","nom":"Teva I Uta","region":"987","territory":"PF","subdivision_code":"987-S1","subdivision_name":"Subdivision des Iles Du Vent"},"geometry":{"type":"Polygon","coordinates":[[[1.9300056954161415,40.70624934724815],[1.928282044980426,40.71946547830374],[1.930440991002743,40.7288559190486],[1.9355476072937607,40.733992493148506],[1.944030392493491,40.73649151745769],[1.9527863959268497,40.73553457446476],[1.9599369285363926,40.73142514301774],[1.9635583825080205,40.72727524889939],[1.9669515491396834,40.71871291390123],[1.966300701548016,40.71052496738822],[1.9628454363848558,40.704695010983976],[1.9553660173387433,40.69985425148026],[1.9455852084792533,40.69775506697249],[1.938888651955965,40.69827845902016],[1.9330568188601986,40.7017396655549],[1.9300056954161415,40.70624934724815]]]}},{"type":"Feature","properties":{"code":"98753","nom":"Tubuai","region":"987","territory":"PF","subdivision_code":"987-S4","subdivision_name":"Subdivision des Australes"},"geometry":{"type":"Polygon","coordinates":[[[1.7840058247728874,40.46258712402755],[1.7811659248734735,40.4688022270634],[1.7811589370089627,40.47396771926241],[1.7834360143176053,40.479436185245326],[1.787127402649387,40.48312677314476],[1.7930386835637662,40.48585386711849],[1.7988082535278105,40.48618818211082],[1.8043633474021883,40.484293537757814],[1.8092929285058414,40.47982611713753],[1.8116632624919657,40.47467519169151],[1.8117755771642936,40.46827364599862],[1.809929323825022,40.46326664139054],[1.805599521951462,40.458763907126176],[1.800713745847166,40.45672282848036],[1.7940560791236995,40.45638248547611],[1.7885957828302312,40.458281209915924],[1.7840058247728874,40.46258712402755]]]}},{"type":"Feature","properties":{"code":"98754","nom":"Tumaraa","region":"987","territory":"PF","subdivision_code":"987-S2","subdivision_name":"Subdivision des Iles Sous Le Vent"},"geometry":{"type":"Polygon","coordinates":[[[1.7334457061307722,40.76307202589419],[1.7353524553070163,40.770849586597755],[1.740222456121866,40.775780351629216],[1.7468606605842076,40.77777122913631],[1.754668002513672,40.7764057224965],[1.7608730918579705,40.771803892761326],[1.765719725887433,40.762369821967056],[1.7665862094442502,40.75719144579729],[1.7651157640845505,40.749794665534445],[1.7614944439471356,40.74444388442714],[1.7558312198806627,40.741020982199075],[1.749409598318865,40.740138234054264],[1.7432206909278267,40.74157333406743],[1.7390238811642718,40.74449802258658],[1.7356550657171688,40.74918732080907],[1.7334457061307722,40.76307202589419]]]}},{"type":"Feature","properties":{"code":"98755","nom":"Tureia","region":"987","territory":"PF","subdivision_code":"987-S5","subdivision_name":"Subdivision des Tuamotu Gambier"},"geometry":{"type":"Polygon","coordinates":[[[2.4603707509523947,40.56788357229975],[2.4038606113722296,40.58471875919076],[2.401291975798381,40.58606033012967],[2.4007524148404364,40.58809770275991],[2.4027500319732407,40.59076668756532],[2.448180525438514,40.61673816918081],[2.4670231597030616,40.61676574185662],[2.4696125449335415,40.614932369553706],[2.4697044962754733,40.611814095554365],[2.463783759121052,40.570174082175846],[2.462953548944272,40.56876788247487],[2.4603707509523947,40.56788357229975]]]}},{"type":"Feature","properties":{"code":"98756","nom":"Ua Huka","region":"987","territory":"PF","subdivision_code":"987-S3","subdivision_name":"Subdivision des Marquises"},"geometry":{"type":"Polygon","coordinates":[[[2.468807037329316,41.02228182740188],[2.470037566855504,41.02862596801336],[2.474805677022008,41.036436938133576],[2.4802144941874076,41.039496944183476],[2.486587085308909,41.040107454817885],[2.4939085296999073,41.03849362199271],[2.499608451292476,41.034864068246236],[2.5035188948679243,41.0292826904084],[2.5051523737055126,41.02242431883518],[2.503576585074624,41.01531467198205],[2.4994862001869826,41.01005524887624],[2.494297208981739,41.00739360212932],[2.4849683815197343,41.00599939563056],[2.4785717067058983,41.007032449485514],[2.4737200399908548,41.01029330896797],[2.4698320226607247,41.01669722130325],[2.468807037329316,41.02228182740188]]]}},{"type":"Feature","properties":{"code":"98757","nom":"Ua Pou","region":"987","territory":"PF","subdivision_code":"987-S3","subdivision_name":"Subdivision des Marquises"},"geometry":{"type":"Polygon","coordinates":[[[2.472653279395687,40.99659630554153],[2.4689309418400613,40.98084026969245],[2.46527078358641,40.97654692108035],[2.4592057896011044,40.9737536536318],[2.4533735109507564,40.9738077616238],[2.445984399553643,40.977462401900034],[2.4399642146587275,40.98389052061579],[2.437363387324699,40.98940867145362],[2.436912442162885,40.996666853747975],[2.4395869992483226,41.002641701918414],[2.4458343917107754,41.00842020681512],[2.4515999793553487,41.01083900472203],[2.458310713175929,41.01060243126762],[2.4663919566921817,41.007010806603525],[2.470572182308429,41.00271042227775],[2.472653279395687,40.99659630554153]]]}},{"type":"Feature","properties":{"code":"98758","nom":"Uturoa","region":"987","territory":"PF","subdivision_code":"987-S2","subdivision_name":"Subdivision des Iles Sous Le Vent"},"geometry":{"type":"Polygon","coordinates":[[[1.7336264546320852,40.766021252403625],[1.7353999653937928,40.772038972119454],[1.7399600584952053,40.77688741268447],[1.744914157120156,40.77888925497054],[1.7537790694133915,40.778892941717686],[1.7587033575111406,40.7769189937489],[1.7625396248586243,40.773254551541456],[1.7656311560484692,40.76673831980389],[1.7657992781725447,40.7613049316974],[1.7638851648597351,40.75621708916936],[1.7601773977099475,40.75224186161269],[1.7538524292063515,40.74892169049859],[1.7482591082161711,40.748645380509146],[1.7412792331342983,40.751210676371755],[1.736899472908739,40.754567125777626],[1.7341568758243207,40.759355258344726],[1.7336264546320852,40.766021252403625]]]}}]}