{"type":"FeatureCollection","features":[{"type":"Feature","properties":{"code":"200027688","nom":"Communauté de communes des Îles Marquises (CODIM)","region":"987","dept":"987","territory":"PF","kind":"communaute_de_communes"},"geometry":{"type":"MultiPolygon","coordinates":[[[[3.380479628265518,42.14117992044483],[3.375542222737211,42.149217150237945],[3.3760239414556414,42.17247666256775],[3.3790849298983408,42.17942606677291],[3.386677734225406,42.183219802564835],[3.440410435552498,42.19616331799447],[3.4460671395799123,42.19606549782931],[3.4505778796347886,42.19389223805762],[3.4534936586239824,42.19050243306679],[3.4549074855548367,42.18620603872129],[3.4542087887540243,42.18028615860854],[3.4515318369131665,42.17610910357443],[3.405306971003786,42.13951221989064],[3.397291151273852,42.13491977376244],[3.392449092334659,42.13421],[3.3870169872061187,42.136126840671984],[3.380479628265518,42.14117992044483]]],[[[3.2834310644621003,42.29247320778448],[3.282134924450001,42.294248249690746],[3.2785453742374546,42.30299632558807],[3.2799884808230595,42.31071837298057],[3.3246608236943636,42.38590387916132],[3.32934429355966,42.39186011700066],[3.3339525335151987,42.39390004750961],[3.3399081801285666,42.393746211662446],[3.3442914643542703,42.39159948310485],[3.3539014456184555,42.379014706256],[3.3751582029805878,42.31322043266058],[3.3747148145224006,42.2504068178119],[3.370466679869805,42.24488621963169],[3.3627892443594227,42.24314680344945],[3.3526117896997967,42.24771621312947],[3.3365128615950064,42.26226365902675],[3.3327022013376104,42.25325504857272],[3.3265659270450447,42.24754553970269],[3.3210363677145254,42.24499317232927],[3.3143228955967587,42.23577685252338],[3.3091947261484886,42.23242787309536],[3.3038629968935402,42.23063937060474],[3.2931427327342546,42.23096803201293],[3.287955930760297,42.233093156876116],[3.2823283281029196,42.237469962916634],[3.2747637698684766,42.24972603521659],[3.2726360849924374,42.262907730883015],[3.2738653785188374,42.271406206334305],[3.2803741937769604,42.28857858170787],[3.2834310644621003,42.29247320778448]]],[[[3.0669252594192407,42.390285197313034],[3.071111263881439,42.39974126446831],[3.083907194731385,42.41220574344647],[3.095854967687804,42.41807887375441],[3.1086641210881867,42.41773306722996],[3.1266273120240164,42.409959509776506],[3.1335530164659637,42.403968385594894],[3.137961323435801,42.39414394803025],[3.1374590376062437,42.38324599525038],[3.1339877299218055,42.37612365490398],[3.1331932701648975,42.36615493847404],[3.1287518615046674,42.35367353348241],[3.121712197821663,42.345879705799504],[3.1128462491031037,42.34207327943964],[3.1069460469151173,42.341633417313496],[3.101104844495484,42.342720632535425],[3.087947813270943,42.35003242426271],[3.072647815233365,42.36668429959145],[3.0691453467800165,42.373174731755185],[3.0665328259941638,42.38518777941251],[3.0669252594192407,42.390285197313034]]],[[[3.185678024302677,42.50936317619756],[3.194490801006539,42.51436287263237],[3.209354808158427,42.515375663773796],[3.214099608830449,42.51498999894331],[3.2237216338658103,42.51190734715282],[3.235578804300846,42.50447408773474],[3.244276957754264,42.491132843271124],[3.2464782317567997,42.48000663969144],[3.2457991327239823,42.473803675710165],[3.2436243010827326,42.46740480865517],[3.239718800039665,42.46118534713969],[3.2340582440259182,42.45640118264506],[3.2260638179721375,42.453350089567685],[3.2165431834850597,42.4536615328738],[3.20178606805542,42.449956817056425],[3.1911752568517673,42.45165656797221],[3.183203275126107,42.456987545603134],[3.175455130260265,42.47018658612201],[3.1736342559898474,42.48004716718397],[3.175958367557448,42.49211906629442],[3.1807831201234658,42.50305766365373],[3.185678024302677,42.50936317619756]]],[[[2.9766423567338647,42.52383245571601],[2.9746788011984475,42.52903776015279],[2.9579583060357963,42.66465667506474],[2.9606519720279563,42.676608484937404],[2.9673016567129573,42.68485813289532],[2.9979265533082655,42.70096718166603],[3.0400017374529407,42.718655870368266],[3.054607342952903,42.72320558491017],[3.059419753491468,42.722407304126875],[3.0659042961083975,42.71924162431459],[3.071979256354504,42.71449365103852],[3.074945483682039,42.70925596044277],[3.1264426207435667,42.50606786226826],[3.1270841701515124,42.4938285608583],[3.1260876957551837,42.47935211522484],[3.1251318879682817,42.475611350855836],[3.1227013501963765,42.47204021451789],[3.116540291384352,42.4684033662277],[3.078265296392491,42.46039738903379],[3.0732435875462722,42.46197563060701],[2.9839639584359623,42.51617001696668],[2.9766423567338647,42.52383245571601]]]]}},{"type":"Feature","properties":{"code":"200031243","nom":"Communauté de communes Hava'i","region":"987","dept":"987","territory":"PF","kind":"communaute_de_communes"},"geometry":{"type":"MultiPolygon","coordinates":[[[[0.7925020348771389,41.615133779867335],[0.7965214310367895,41.60593499755844],[0.7960254450328823,41.59401789071235],[0.7917401809921761,41.5845093534354],[0.7839410409671491,41.5762652188226],[0.774144419280605,41.57115771854353],[0.7707769902617376,41.56810048065489],[0.7647985660074675,41.56535005573302],[0.7586089956108457,41.56402473597923],[0.7455082847589402,41.56486451884187],[0.7373053872540231,41.56844667534642],[0.7296482669074719,41.57650476871923],[0.7260290398539101,41.583792470221816],[0.7227403581305055,41.613558007327114],[0.7194627030722228,41.615594883256456],[0.7141179979436598,41.62189357922981],[0.7101181253904518,41.63265153837019],[0.7099635199000437,41.63896224968321],[0.7118843179966257,41.646086261001464],[0.716890940305427,41.656343534930386],[0.721568871046149,41.6626653121891],[0.7269873810259894,41.667787801675246],[0.7320663351050768,41.670511205782],[0.7373976931557394,41.67191323367169],[0.7501507377747846,41.67229844503101],[0.7591002631532953,41.671120747513974],[0.7657976349123088,41.6685142831172],[0.7789445313429566,41.655849940851034],[0.7841052890931238,41.64447167701232],[0.7838592221724874,41.63317773406101],[0.7814816619229839,41.627409433689074],[0.7925020348771389,41.615133779867335]]],[[[0.8050356341723087,41.64074088713808],[0.8092575101570559,41.645050370265324],[0.8139007163429289,41.64798260389238],[0.8198003929166489,41.64995215717144],[0.8291168807115544,41.65111873646398],[0.8358872782871833,41.65022202808001],[0.8460465601184682,41.64448372121446],[0.8523063793497412,41.63694904834622],[0.8605800685587887,41.618165387371064],[0.8603910047988711,41.604359789682],[0.8560448580134469,41.59523320187408],[0.8458431259768092,41.585587389157176],[0.834349291578491,41.580924925642016],[0.8230728358546753,41.581131020565195],[0.8145768897138178,41.58506479984992],[0.7996689380978772,41.59935728853087],[0.7956103339124326,41.60991692171566],[0.7977150045883605,41.62688474285998],[0.8007564897063228,41.633817417263074],[0.8050356341723087,41.64074088713808]]],[[[0.20447407867050355,41.63986898218477],[0.20321098702689322,41.64510994316089],[0.2038734625083896,41.65793459317361],[0.2346714997938637,41.774042039934095],[0.2374693518875371,41.778776101399636],[0.24164405370364128,41.78218161011691],[0.2493710313269123,41.782858058112495],[0.6241548425664935,41.68078037376776],[0.6306341511940442,41.67669852744683],[0.6336011801088397,41.67162784076631],[0.6342219064453082,41.66633971697765],[0.6325521672122602,41.65835547653223],[0.6305281818622621,41.65490391834156],[0.626038454305325,41.65216690378071],[0.3372462650453597,41.5911704100342],[0.21037461122487439,41.634987587126936],[0.2071676245829815,41.63665747839682],[0.20447407867050355,41.63986898218477]]]]}},{"type":"Feature","properties":{"code":"200094803","nom":"Communauté de communes Tereheamanu","region":"987","dept":"987","territory":"PF","kind":"communaute_de_communes"},"geometry":{"type":"Polygon","coordinates":[[[1.4752804971827846,41.41952677082788],[1.4747084458344357,41.41824367074439],[1.4721059878096867,41.41802195653083],[1.4648086129719429,41.42206956132024],[1.4540759461069683,41.42380626113834],[1.4509065985377345,41.42646647432892],[1.4413242994617117,41.42983391261518],[1.438421199283407,41.43364161236801],[1.4303227192011851,41.4283691305185],[1.4238133789689411,41.42628726694141],[1.4116128117273752,41.42526511697179],[1.4025890073701353,41.422370108491144],[1.3976430913588613,41.42245494086057],[1.3967439673823694,41.42231114723872],[1.395974865216509,41.422483554281435],[1.3930941675508803,41.42253296401828],[1.3879507525340604,41.423989318387],[1.3871575061319368,41.42446011197661],[1.384927768321404,41.424959944793365],[1.3768902613187315,41.43022682165113],[1.3673306001957897,41.431181103535366],[1.3561902609541863,41.43432386348327],[1.348852451265334,41.43928173696927],[1.3432684510946598,41.448792527770586],[1.3425148424051072,41.45761613442977],[1.3460734464055124,41.46756807872012],[1.3510278669010432,41.47696139944052],[1.362389756893161,41.48874660638323],[1.365582874462441,41.495485809841696],[1.3728818119922497,41.5035447099857],[1.3768547887053033,41.506301398326094],[1.3845867040188957,41.50929282843766],[1.3909985883569034,41.50968535388032],[1.3972600649738762,41.50824999763108],[1.3979472433662166,41.507881796751235],[1.398848038080277,41.509517749258535],[1.3983509340568367,41.515962422699566],[1.3965434558948462,41.520487424621415],[1.396661448967156,41.52876489963275],[1.3982852833381012,41.5297257355978],[1.4012226215227046,41.52920556478045],[1.402525018899727,41.53076422502046],[1.406244162835868,41.53016951210084],[1.4060788730062563,41.53112085404359],[1.4080135035850727,41.529996348045835],[1.407437307317518,41.52921528520248],[1.4083173533141304,41.52837257054822],[1.409810789932404,41.529633115971464],[1.4108883964660606,41.527664541569536],[1.412224758446852,41.527434181512184],[1.4124998204146288,41.52635330722149],[1.4114538119516162,41.52620455988226],[1.4133017139446469,41.524814693198664],[1.412412528017032,41.524382992440195],[1.4137551791518912,41.524289222768964],[1.4159653143810005,41.521533494059234],[1.4201497611117535,41.51879980295442],[1.4292889817504812,41.51863683919036],[1.4298662670880973,41.515638790339445],[1.4319647544520289,41.51670998440228],[1.4313340024183439,41.51512114464441],[1.4331484760030404,41.51254759605712],[1.4385381079610111,41.508889635547],[1.4409814597663984,41.50390657015246],[1.4414095400436508,41.49603205106676],[1.440825962817661,41.49041685035826],[1.4402707842010176,41.48955834403489],[1.443122831060821,41.48663145637303],[1.4443676505423129,41.483941819474786],[1.7805000169045466,41.43902764144326],[1.7853029824289912,41.43686315993306],[1.789112793704199,41.43322574410227],[1.791260240550775,41.42891042795281],[1.7919087720703244,41.422830155771116],[1.788346965264081,41.41346147766613],[1.7818698737370602,41.40868399085803],[1.7774011605781346,41.40791462888728],[1.4795304691280884,41.420427844380484],[1.477760710305043,41.41908724615501],[1.4752804971827846,41.41952677082788]],[[1.4565054003064202,41.445060430935555],[1.4564842020609565,41.445076006095185],[1.4569210772704677,41.44231640309843],[1.4570933312741603,41.44222522226953],[1.4565054003064202,41.445060430935555]],[[1.4533821053898317,41.448956228982055],[1.4526824733367147,41.44924038677448],[1.4533538705031932,41.44737598010857],[1.4533821053898317,41.448956228982055]]]}},{"type":"Feature","properties":{"code":"200102358","nom":"Communauté de communes Teporionu'u","region":"987","dept":"987","territory":"PF","kind":"communaute_de_communes"},"geometry":{"type":"Polygon","coordinates":[[[1.3844466836083957,41.54282389239815],[1.3914453813048733,41.537079564694935],[1.4053217500357502,41.51929305240032],[1.4082888505982256,41.5134782061587],[1.4095522728634944,41.506626831910516],[1.4093623618585112,41.49898446921807],[1.4075526918099208,41.48967008874561],[1.4054396282443051,41.484607755105245],[1.3985962342725182,41.47631272591894],[1.3919109248595913,41.47269784390161],[1.3817238050967118,41.47170876623784],[1.37321660498286,41.474413341805935],[1.3626919585965536,41.4830183716472],[1.3615958587578108,41.48436107186325],[1.3459402459260603,41.495259720771124],[1.341044337356018,41.502630505035825],[1.3383206620551047,41.51493882404141],[1.3386375787973097,41.52138732717316],[1.3407726773233446,41.527480354593564],[1.3442032696199793,41.53246471377234],[1.3518547289891505,41.53913241296923],[1.3583075264478148,41.542817067044204],[1.3664529978727116,41.54497287184974],[1.3687480178447755,41.54486557531544],[1.3424387608173705,41.65559917237506],[1.3436070929305954,41.663922345400884],[1.3498986838061953,41.67512358391127],[1.354639257619225,41.67947727426358],[1.3624209126325075,41.68230077386509],[1.37130406399642,41.681969597582494],[1.382903536850244,41.67746662725013],[1.387692806286377,41.67152661870769],[1.390065444277245,41.66206278081542],[1.3832460759511114,41.543238822110695],[1.3844466836083957,41.54282389239815]]]}},{"type":"Feature","properties":{"code":"200102366","nom":"Communauté de communes Te Tama a Hiro","region":"987","dept":"987","territory":"PF","kind":"communaute_de_communes"},"geometry":{"type":"MultiPolygon","coordinates":[[[[1.217875585103149,40.38363046601972],[1.2194635211717357,40.38760450615484],[1.2235664308424141,40.38916093616828],[1.2771163914633537,40.36993966753497],[1.279086544619704,40.368290986749145],[1.279167961090571,40.36492301843402],[1.2777214330745963,40.36288824485237],[1.2751202109915145,40.3625069092999],[1.2234211330130502,40.37785543424431],[1.2197034255719248,40.37995818863993],[1.217875585103149,40.38363046601972]]],[[[0.8810954027593985,40.648036407652576],[0.8850781567783865,40.65728967332098],[0.8929478271182344,40.66426709300552],[0.9031343165311386,40.668665577463756],[0.9143710280104791,40.66895847680126],[0.920598846194808,40.666933089920065],[0.9259137423179483,40.66374978472004],[0.9333727466467217,40.654709662097616],[0.9360842475630774,40.64571280527093],[0.9346911511645779,40.63392791254209],[0.9294428675204766,40.62518245935154],[0.9229044809297872,40.62042161564565],[0.9154777447952541,40.618225618611234],[0.9014114167069307,40.61812282780331],[0.892611721550934,40.62210884708114],[0.886243527713736,40.62891120514292],[0.8818371629457049,40.63670768979525],[0.8810954027593985,40.648036407652576]]],[[[0.5825726679257106,40.738433323052746],[0.5827738557925506,40.7408423465452],[0.5834019502058008,40.74181819467949],[0.5865454072835914,40.741085917145554],[0.5865090565700308,40.743997256093984],[0.7930152386891305,40.704736985341434],[0.7968258623699161,40.70233952440465],[0.7982431325559805,40.69888301736155],[0.7967716701587123,40.6938030020372],[0.7935995947852267,40.69228311282554],[0.5897082863109125,40.73786273919598],[0.7058843070867601,40.6917873392608],[0.7076568149820782,40.68998845902927],[0.7079273631928065,40.68697782570207],[0.7063727027620712,40.68459978422153],[0.7037673917289577,40.68366255585999],[0.5846623073567542,40.73613885491398],[0.5825726679257106,40.738433323052746]]]]}},{"type":"Feature","properties":{"code":"934286501","nom":"Communauté de communes Mihiroa-Havaiki","region":"987","dept":"987","territory":"PF","kind":"communaute_de_communes"},"geometry":{"type":"MultiPolygon","coordinates":[[[[2.3537032928871953,41.57926937136532],[2.3510979357051074,41.58119354145615],[2.347694032284568,41.58649842117011],[2.34782312861494,41.59092456056056],[2.3686554299557523,41.622666799361006],[2.3760756767529143,41.62919332454198],[2.4341066371427558,41.66251142610494],[2.4374163809517437,41.663516590558885],[2.5316540394875506,41.63657390833784],[2.535595080564049,41.63408046633988],[2.538260426742002,41.63013780084286],[2.5382626567967357,41.626400510883684],[2.5211655359637364,41.580844831747534],[2.514458957822486,41.57177972770506],[2.4470931464646934,41.54310822575174],[2.4436001794781395,41.54255245497772],[2.3537032928871953,41.57926937136532]]],[[[2.309477492073661,41.621173286242026],[2.3018361023094225,41.6269907283121],[2.298349678508023,41.63267191395734],[2.2975609857048087,41.67465954789953],[2.299595214312236,41.67984297439504],[2.310012366050911,41.68945001546282],[2.312887083180751,41.689569501880094],[2.374724835694317,41.67571195454089],[2.377560321900985,41.67423028521522],[2.379216871732407,41.6716838353236],[2.3753892056641512,41.64907006524747],[2.372907591452888,41.643376869903804],[2.3479305812735087,41.61549467001206],[2.3445250871571,41.613849680787595],[2.334353479525223,41.612713225686605],[2.320925680807223,41.61593086658403],[2.309477492073661,41.621173286242026]]],[[[2.1583764595191477,41.615825425424376],[2.1147532777430564,41.71262107442532],[2.1143164240941834,41.718286504319096],[2.1177125996381565,41.7229683221225],[2.122255287777629,41.7239908996677],[2.2097896782209245,41.71773775491551],[2.2224705428971987,41.71565515167728],[2.2313562767272987,41.71247367316301],[2.2724767292415544,41.68426335784429],[2.276468427855649,41.67630927800371],[2.275851374267458,41.67326973796328],[2.274123974191741,41.6711735040289],[2.170192062354151,41.61165994774136],[2.1662590985818073,41.61072898545941],[2.161726359615298,41.61238482284512],[2.1583764595191477,41.615825425424376]]]]}},{"type":"Feature","properties":{"code":"994270916","nom":"Communauté de communes Hono Hau","region":"987","dept":"987","territory":"PF","kind":"communaute_de_communes"},"geometry":{"type":"MultiPolygon","coordinates":[[[[3.2783820236327967,40.88364091850204],[3.3178692258171676,41.07090997287358],[3.3204596774108563,41.07461435049867],[3.3250016873326165,41.075864116078066],[3.448347170433296,41.05767635009114],[3.456982668605464,41.052906339522245],[3.5601883995411594,40.865944455962385],[3.5608626894894853,40.8629878932466],[3.5584522023666203,40.8579109863947],[3.552356450432021,40.855469329646205],[3.284791036345282,40.874790785011236],[3.27940024002771,40.87794795852619],[3.2783820236327967,40.88364091850204]]],[[[2.9244365044739067,41.02604443376556],[2.9225888119115626,41.02949827221093],[2.9226379679474253,41.032835675866366],[2.9292966917234398,41.041732291884394],[3.0807316699410174,41.12830389726936],[3.1435404508228433,41.12839580618872],[3.150080557371391,41.12462843545691],[3.1521717349244422,41.12228456517903],[3.1531892858868065,41.118279175063755],[3.152478239397548,41.11189031851454],[3.1327424488828113,40.973090273919475],[3.129975081626878,40.968402941582916],[3.121365754987287,40.965455240999155],[2.9329986230534026,41.02157253063585],[2.9244365044739067,41.02604443376556]]],[[[2.4962909581016657,41.20427969415571],[2.4883415372956152,41.21094403897435],[2.487635630140243,41.215113439991285],[2.4920718346761705,41.22095232187525],[2.791425283315844,41.3585634676336],[2.796507777284385,41.37005772322554],[2.798488593000387,41.523927730543846],[2.801234704468268,41.52549489003253],[2.804611140222488,41.52567604573835],[2.936596022782403,41.432801737184995],[2.9638320076370928,41.23498630387265],[2.9621016179470976,41.231912698417304],[2.9590629069289225,41.22977143171276],[2.6926733072213374,41.12375047935725],[2.689795858898606,41.123414149009434],[2.663720067469512,41.13231404396898],[2.4962909581016657,41.20427969415571]]],[[[3.2887990767143,41.3691329768487],[3.286347257270535,41.37425512787897],[3.286962577411972,41.37816274934233],[3.2899896329914893,41.38066697386433],[3.2940684929002795,41.380841701854145],[3.3567167483980067,41.36056934438498],[3.363700881978425,41.357293445220336],[3.3731250239272352,41.35044884136876],[3.3757325730099064,41.34619242845227],[3.37572487422714,41.343003613065974],[3.3741418884169003,41.340213344259304],[3.3687186608699538,41.338183283313306],[3.298073693654189,41.3607793664742],[3.292529375705585,41.364019653319744],[3.2887990767143,41.3691329768487]]],[[[2.6803682971701246,41.417762612075826],[2.68207208385343,41.42135911060177],[2.734507552115649,41.47749464547275],[2.7392211743733883,41.477524514535155],[2.743731955173198,41.47439846876686],[2.780921129341994,41.40808195735628],[2.790155850932868,41.37507298817128],[2.78786670397538,41.37030067536686],[2.7809227738966222,41.365164255187594],[2.7774918422368544,41.364247608262424],[2.684518057457162,41.40933815045032],[2.6807079343452185,41.41369059947801],[2.6803682971701246,41.417762612075826]]]]}}]}