{"type":"FeatureCollection","features":[{"type":"Feature","properties":{"code":"987","nom":"Polynésie française","region":"987","territory":"PF"},"geometry":{"type":"MultiPolygon","coordinates":[[[[1.2771163914633537,39.889939667534975],[1.279086544619704,39.88829098674915],[1.279167961090571,39.88492301843402],[1.2777214330745963,39.882888244852374],[1.2751202109915145,39.882506909299906],[1.2234211330130502,39.89785543424431],[1.2197034255719248,39.899958188639935],[1.217875585103149,39.90363046601972],[1.2194635211717357,39.90760450615484],[1.2235664308424141,39.909160936168284],[1.2771163914633537,39.889939667534975]]],[[[1.0396626655005954,40.15191477968042],[1.0446203972214079,40.14547505050012],[1.0471773006765295,40.13666025348767],[1.0459263778213348,40.12613350059519],[1.0411914167237961,40.11793827681226],[1.0315344060737954,40.110753701470415],[1.0234689306097016,40.10842340166934],[1.0112686735323202,40.10920388071361],[1.0023515919945336,40.1141182658209],[0.9959123624573742,40.12235890209529],[0.9937717264172107,40.13364342486982],[0.9962520759668896,40.142559873197136],[1.0014328409153674,40.15003803559355],[1.010634957344277,40.15592732316371],[1.0165644758424217,40.15766512034095],[1.0230076889452662,40.15804609166737],[1.0315306155305584,40.15670632477522],[1.0396626655005954,40.15191477968042]]],[[[0.9143710280104791,40.18895847680126],[0.920598846194808,40.18693308992007],[0.9259137423179483,40.18374978472004],[0.9333727466467217,40.17470966209762],[0.9360842475630774,40.165712805270935],[0.9346911511645779,40.153927912542095],[0.9294428675204766,40.145182459351545],[0.9229044809297872,40.14042161564565],[0.9154777447952541,40.13822561861124],[0.9014114167069307,40.138122827803315],[0.892611721550934,40.14210884708114],[0.886243527713736,40.14891120514292],[0.8818371629457049,40.156707689795255],[0.8810954027593985,40.16803640765258],[0.8850781567783865,40.177289673320985],[0.8929478271182344,40.18426709300552],[0.9031343165311386,40.18866557746376],[0.9143710280104791,40.18895847680126]]],[[[0.5865454072835914,40.26108591714556],[0.5865090565700308,40.26399725609399],[0.7930152386891305,40.22473698534144],[0.7968258623699161,40.22233952440465],[0.7982431325559805,40.218883017361556],[0.7967716701587123,40.2138030020372],[0.7935995947852267,40.212283112825546],[0.5897082863109125,40.257862739195986],[0.7058843070867601,40.2117873392608],[0.7076568149820782,40.209988459029276],[0.7079273631928065,40.206977825702076],[0.7063727027620712,40.204599784221536],[0.7037673917289577,40.20366255585999],[0.5846623073567542,40.256138854913985],[0.5825726679257106,40.25843332305275],[0.5827738557925506,40.2608423465452],[0.5834019502058008,40.26181819467949],[0.5865454072835914,40.26108591714556]]],[[[1.3519813569523889,41.05920471963061],[1.3583075264478148,41.06281706704421],[1.3664529978727116,41.06497287184974],[1.3682638959291098,41.064888208932736],[1.368658313826389,41.06524313248539],[1.3424387608173705,41.175599172375065],[1.3436070929305954,41.18392234540089],[1.3498986838061953,41.19512358391127],[1.354639257619225,41.199477274263586],[1.3624209126325075,41.20230077386509],[1.37130406399642,41.2019695975825],[1.382903536850244,41.19746662725014],[1.387692806286377,41.19152661870769],[1.390065444277245,41.18206278081542],[1.383751094295605,41.072038505019925],[1.3884124263867195,41.072586259617914],[1.4006120712546455,41.070991658312636],[1.4083444990268164,41.068012095059274],[1.413366962266187,41.063837252647986],[1.416885292907787,41.058626245193324],[1.4188243361178614,41.05264516162714],[1.4202195715814343,41.03879855814621],[1.4292889817504812,41.03863683919036],[1.4298662670880973,41.03563879033945],[1.4319647544520289,41.036709984402286],[1.4313340024183439,41.035121144644414],[1.4331484760030404,41.03254759605712],[1.4385381079610111,41.028889635547],[1.4409814597663984,41.02390657015246],[1.4414095400436508,41.016032051066766],[1.440825962817661,41.01041685035826],[1.4402707842010176,41.00955834403489],[1.443122831060821,41.006631456373036],[1.4443676505423129,41.00394181947479],[1.7805000169045466,40.959027641443264],[1.7853029824289912,40.956863159933064],[1.789112793704199,40.95322574410228],[1.791260240550775,40.94891042795281],[1.7919087720703244,40.94283015577112],[1.788346965264081,40.933461477666135],[1.7818698737370602,40.92868399085803],[1.7774011605781346,40.92791462888729],[1.4795304691280884,40.94042784438049],[1.477760710305043,40.93908724615501],[1.4752804971827846,40.93952677082788],[1.4747084458344357,40.93824367074439],[1.4721059878096867,40.93802195653083],[1.4648086129719429,40.942069561320245],[1.4540759461069683,40.94380626113834],[1.4509065985377345,40.94646647432892],[1.4413242994617117,40.94983391261518],[1.438421199283407,40.95364161236801],[1.4303227192011851,40.9483691305185],[1.4238133789689411,40.94628726694141],[1.4116128117273752,40.94526511697179],[1.4025890073701353,40.94237010849115],[1.3976430913588613,40.94245494086057],[1.3967439673823694,40.942311147238726],[1.395974865216509,40.94248355428144],[1.3930941675508803,40.942532964018284],[1.3879507525340604,40.943989318387004],[1.3871575061319368,40.94446011197661],[1.384927768321404,40.94495994479337],[1.3768902613187315,40.950226821651135],[1.3673306001957897,40.95118110353537],[1.359393894833928,40.953420098164585],[1.3581062158669173,40.95362200820415],[1.357287180449987,40.954014415576644],[1.3561902609541863,40.954323863483275],[1.3550908256661185,40.95506670927724],[1.3513634739422928,40.95685251763921],[1.3451641721160492,40.96156741696409],[1.3410297811306955,40.96649481512215],[1.3377776249824231,40.97267729587886],[1.3361287493659029,40.9802651043551],[1.3365940789066948,40.986985280403225],[1.3357246301810335,40.990445938019],[1.3309091566295235,40.99687993979017],[1.328250731320885,41.00364863529335],[1.3280632836834523,41.012807257173584],[1.326205794929848,41.02151375602275],[1.326317066887757,41.02363853331697],[1.3253608630723424,41.0290667621861],[1.3135642578262259,41.008724162861164],[1.3091803679956708,41.00541271393242],[1.3050722187851467,41.00387528960175],[1.0768419524163613,40.98179606596769],[1.0687806092800267,40.983141624479444],[1.0631740010964514,40.98591762443892],[1.0567163974433942,40.99206162567619],[1.0540824534541455,40.99891137439563],[1.0545971764602824,41.00528429088825],[1.0584450275339101,41.01384233473939],[1.0644025276408815,41.021099944164554],[1.0705293419142206,41.02440302778835],[1.268515131431484,41.064921320008054],[1.296838330911796,41.0683339575732],[1.3075943743664087,41.069382079100116],[1.3157926928777068,41.06714138100482],[1.322204970107116,41.0625602724242],[1.3293018327353554,41.05280582317011],[1.3297395072636697,41.04591460644212],[1.3323341132459747,41.04924948305233],[1.3383247238363982,41.05400763235999],[1.3514647710945809,41.0591571947816],[1.3519813569523889,41.05920471963061]],[[1.4565054003064202,40.96506043093556],[1.4564842020609565,40.96507600609519],[1.4569210772704677,40.962316403098434],[1.4570933312741603,40.96222522226953],[1.4565054003064202,40.96506043093556]],[[1.4526824733367147,40.96924038677448],[1.4533538705031932,40.96737598010857],[1.4533821053898317,40.96895622898206],[1.4526824733367147,40.96924038677448]]],[[[0.7965214310367895,41.125934997558446],[0.7960254450328823,41.114017890712354],[0.7917401809921761,41.104509353435404],[0.7839410409671491,41.0962652188226],[0.774144419280605,41.091157718543535],[0.7707769902617376,41.088100480654894],[0.7647985660074675,41.085350055733024],[0.7586089956108457,41.084024735979234],[0.7455082847589402,41.084864518841876],[0.7373053872540231,41.088446675346425],[0.7296482669074719,41.096504768719235],[0.7260290398539101,41.10379247022182],[0.7227403581305055,41.13355800732712],[0.7194627030722228,41.13559488325646],[0.7141179979436598,41.141893579229816],[0.7101181253904518,41.15265153837019],[0.7099635199000437,41.15896224968321],[0.7102466634440882,41.16001239535758],[0.7008550868950627,41.1604383782473],[0.6938730977786512,41.16283732737487],[0.690036714735475,41.167669169832706],[0.681469452919233,41.215783271305],[0.6811168785462536,41.22120437343568],[0.6823018758171592,41.22517769207483],[0.6857710129343985,41.22965000117014],[0.6902269737750408,41.231648328489236],[0.6998925084169576,41.22954584801731],[0.7068159440232371,41.2238231086402],[0.7231097369196918,41.184121998485914],[0.7269873810259894,41.18778780167525],[0.7320663351050768,41.190511205782],[0.7373976931557394,41.19191323367169],[0.7501507377747846,41.192298445031014],[0.7591002631532953,41.19112074751398],[0.7657976349123088,41.1885142831172],[0.7789445313429566,41.17584994085104],[0.7841052890931238,41.16447167701232],[0.7838592221724874,41.15317773406101],[0.7814816619229839,41.14740943368908],[0.7925020348771389,41.13513377986734],[0.7965214310367895,41.125934997558446]]],[[[0.8198003929166489,41.169952157171444],[0.8291168807115544,41.17111873646398],[0.8358872782871833,41.17022202808001],[0.8460465601184682,41.16448372121447],[0.8523063793497412,41.15694904834622],[0.8605800685587887,41.13816538737107],[0.8603910047988711,41.124359789682],[0.8560448580134469,41.115233201874084],[0.8458431259768092,41.10558738915718],[0.834349291578491,41.10092492564202],[0.8230728358546753,41.1011310205652],[0.8145768897138178,41.10506479984992],[0.7996689380978772,41.11935728853087],[0.7956103339124326,41.12991692171566],[0.7977150045883605,41.14688474285998],[0.8007564897063228,41.15381741726308],[0.8050356341723087,41.16074088713808],[0.8092575101570559,41.16505037026533],[0.8139007163429289,41.16798260389238],[0.8198003929166489,41.169952157171444]]],[[[0.2038734625083896,41.17793459317361],[0.2346714997938637,41.2940420399341],[0.2374693518875371,41.29877610139964],[0.24164405370364128,41.30218161011691],[0.2493710313269123,41.3028580581125],[0.6241548425664935,41.20078037376776],[0.6306341511940442,41.196698527446834],[0.6336011801088397,41.191627840766316],[0.6342219064453082,41.186339716977656],[0.6325521672122602,41.17835547653223],[0.6305281818622621,41.17490391834156],[0.626038454305325,41.17216690378071],[0.3372462650453597,41.111170410034205],[0.21037461122487439,41.15498758712694],[0.2071676245829815,41.15665747839682],[0.20447407867050355,41.159868982184776],[0.20321098702689322,41.16510994316089],[0.2038734625083896,41.17793459317361]]],[[[2.4524709548677857,41.054446451047575],[2.456488517767839,41.05893255235351],[2.4644046151011487,41.059777159611436],[2.518455616073479,41.05052638901569],[2.5381462461677593,41.03971746190141],[2.5659502859228955,41.02167250408148],[2.5686672804383104,41.018329377303445],[2.5694570127659553,41.01508380213155],[2.568847690376462,41.01127225402752],[2.565026069979347,41.00273132207537],[2.5620505277380405,41.00004274797268],[2.4516034390121813,40.96687399534577],[2.4441537347946425,40.968629609358835],[2.4312410353314466,40.978863863790615],[2.427686660900528,40.9840963658862],[2.4268855418240083,40.98765801014254],[2.4524709548677857,41.054446451047575]]],[[[2.5509432644610133,41.094536636193546],[2.779164061041701,41.155484409519815],[2.7830596524711586,41.15594093621385],[2.7860684244608924,41.15491616988886],[2.788410296528395,41.15166957754139],[2.7875338550176387,41.146572059696524],[2.6958037722268346,40.99903244740629],[2.6555033509659993,40.97031651539759],[2.651487733424274,40.96827297153986],[2.647626312711176,40.968067765833304],[2.5607533960457363,41.03610758818124],[2.5425996131251947,41.081605680623625],[2.542058507236229,41.0854529962808],[2.543368851137073,41.08866934104447],[2.5476723009736735,41.09294654273818],[2.5509432644610133,41.094536636193546]]],[[[2.3686554299557523,41.14266679936101],[2.3760756767529143,41.14919332454198],[2.4341066371427558,41.182511426104945],[2.4374163809517437,41.18351659055889],[2.5316540394875506,41.15657390833784],[2.535595080564049,41.154080466339884],[2.538260426742002,41.15013780084286],[2.5382626567967357,41.14640051088369],[2.5211655359637364,41.10084483174754],[2.514458957822486,41.09177972770506],[2.4470931464646934,41.06310822575174],[2.4436001794781395,41.06255245497772],[2.3537032928871953,41.099269371365324],[2.3510979357051074,41.101193541456155],[2.347694032284568,41.106498421170116],[2.34782312861494,41.11092456056056],[2.3686554299557523,41.14266679936101]]],[[[2.299595214312236,41.19984297439504],[2.310012366050911,41.20945001546282],[2.312887083180751,41.2095695018801],[2.374724835694317,41.19571195454089],[2.377560321900985,41.19423028521523],[2.379216871732407,41.1916838353236],[2.3753892056641512,41.169070065247475],[2.372907591452888,41.16337686990381],[2.3479305812735087,41.135494670012065],[2.3445250871571,41.1338496807876],[2.334353479525223,41.13271322568661],[2.320925680807223,41.13593086658403],[2.309477492073661,41.14117328624203],[2.3018361023094225,41.146990728312105],[2.298349678508023,41.15267191395734],[2.2975609857048087,41.19465954789953],[2.299595214312236,41.19984297439504]]],[[[2.122255287777629,41.2439908996677],[2.2097896782209245,41.237737754915514],[2.2224705428971987,41.235655151677285],[2.2313562767272987,41.232473673163014],[2.2724767292415544,41.20426335784429],[2.276468427855649,41.19630927800371],[2.275851374267458,41.193269737963284],[2.274123974191741,41.1911735040289],[2.170192062354151,41.13165994774136],[2.1662590985818073,41.13072898545941],[2.161726359615298,41.132384822845125],[2.1583764595191477,41.13582542542438],[2.1147532777430564,41.232621074425325],[2.1143164240941834,41.2382865043191],[2.1177125996381565,41.2429683221225],[2.122255287777629,41.2439908996677]]],[[[2.4712512822969877,41.27255825941389],[2.494567709680755,41.288084382490894],[2.5033164246070134,41.29114602999249],[2.509936595979579,41.290079783260175],[2.512478693579935,41.287616542134835],[2.5459001997366912,41.23103920404513],[2.5459788355417983,41.227858741196364],[2.5446550450713,41.22546273483205],[2.5414340674474283,41.22334777526337],[2.5373147139043577,41.22271702373108],[2.4659053068379984,41.24826141472069],[2.4630385132883372,41.25095354772981],[2.461800047881119,41.254540314933934],[2.4655646622523903,41.26643680094413],[2.4712512822969877,41.27255825941389]]],[[[2.410780010318961,41.295690956643035],[2.4143097376719327,41.29054564845941],[2.4147394395819797,41.28668060531676],[2.4126168969010204,41.28297878945596],[2.4015862433329636,41.274988778975874],[2.3527834695031555,41.26211883138947],[2.348105999460846,41.26485988013378],[2.347017732850751,41.26949293048977],[2.3508715013915644,41.28009057592452],[2.35620286320684,41.285019001218096],[2.4058287763936157,41.2970046848875],[2.410780010318961,41.295690956643035]]],[[[3.448347170433296,40.577676350091146],[3.456982668605464,40.57290633952225],[3.5601883995411594,40.38594445596239],[3.5608626894894853,40.3829878932466],[3.5584522023666203,40.3779109863947],[3.552356450432021,40.37546932964621],[3.284791036345282,40.39479078501124],[3.27940024002771,40.397947958526196],[3.2783820236327967,40.40364091850204],[3.3178692258171676,40.59090997287358],[3.3204596774108563,40.594614350498674],[3.3250016873326165,40.59586411607807],[3.448347170433296,40.577676350091146]]],[[[2.9292966917234398,40.5617322918844],[3.0807316699410174,40.648303897269365],[3.1435404508228433,40.648395806188724],[3.150080557371391,40.644628435456916],[3.1521717349244422,40.64228456517903],[3.1531892858868065,40.63827917506376],[3.152478239397548,40.63189031851454],[3.1327424488828113,40.49309027391948],[3.129975081626878,40.48840294158292],[3.121365754987287,40.48545524099916],[2.9329986230534026,40.541572530635854],[2.9244365044739067,40.546044433765566],[2.9225888119115626,40.54949827221093],[2.9226379679474253,40.55283567586637],[2.9292966917234398,40.5617322918844]]],[[[3.0728018776837276,40.87075053439205],[3.076227607996528,40.871731747905116],[3.079153706686788,40.87105294509595],[3.12093478563461,40.85009411069912],[3.1238116446317536,40.84763276781829],[3.1365517381403256,40.78174404436863],[3.135202011404403,40.77726960574965],[3.130110990436214,40.775195845415354],[3.075228314348926,40.77875401391916],[3.0706706888091495,40.779842717842264],[3.066886188373768,40.78258172569187],[3.065947313585414,40.78603501971073],[3.0699472135298227,40.86616463531796],[3.0728018776837276,40.87075053439205]]],[[[2.791425283315844,40.878563467633604],[2.796507777284385,40.890057723225546],[2.798488593000387,41.04392773054385],[2.801234704468268,41.045494890032536],[2.804611140222488,41.045676045738354],[2.936596022782403,40.952801737185],[2.9638320076370928,40.754986303872656],[2.9621016179470976,40.75191269841731],[2.9590629069289225,40.749771431712766],[2.6926733072213374,40.64375047935725],[2.689795858898606,40.64341414900944],[2.663720067469512,40.652314043968985],[2.4962909581016657,40.72427969415571],[2.4883415372956152,40.73094403897435],[2.487635630140243,40.73511343999129],[2.4920718346761705,40.740952321875255],[2.791425283315844,40.878563467633604]]],[[[3.286962577411972,40.89816274934233],[3.2899896329914893,40.90066697386433],[3.2940684929002795,40.90084170185415],[3.3567167483980067,40.88056934438498],[3.363700881978425,40.87729344522034],[3.3731250239272352,40.87044884136876],[3.3757325730099064,40.86619242845227],[3.37572487422714,40.86300361306598],[3.3741418884169003,40.86021334425931],[3.3687186608699538,40.85818328331331],[3.298073693654189,40.8807793664742],[3.292529375705585,40.88401965331975],[3.2887990767143,40.8891329768487],[3.286347257270535,40.89425512787897],[3.286962577411972,40.89816274934233]]],[[[2.7392211743733883,40.99752451453516],[2.743731955173198,40.99439846876686],[2.780921129341994,40.928081957356284],[2.790155850932868,40.895072988171286],[2.78786670397538,40.89030067536686],[2.7809227738966222,40.8851642551876],[2.7774918422368544,40.88424760826243],[2.684518057457162,40.92933815045032],[2.6807079343452185,40.93369059947801],[2.6803682971701246,40.93776261207583],[2.68207208385343,40.94135911060177],[2.734507552115649,40.997494645472756],[2.7392211743733883,40.99752451453516]]],[[[3.1877172539662806,40.984885010675114],[3.1843321022715263,40.97651513806418],[3.1783924622620727,40.9702466446446],[3.1677213655306047,40.96480434543652],[3.1524656632383894,40.963686845851754],[3.142424450818076,40.96620565825908],[3.1348447987863284,40.97206850552157],[3.13173830040704,40.97682178466998],[3.1297711189290904,40.982724464980386],[3.1293991129949204,40.98892019338881],[3.130776227569023,40.99533356125301],[3.137130974892655,41.00486625088383],[3.146976214518454,41.010716843759454],[3.156170726609477,41.012643031456],[3.169221111560177,41.012302286080754],[3.176747033693751,41.00937736004599],[3.1835595257582674,41.00319871016624],[3.1875216084942974,40.99469769790493],[3.1877172539662806,40.984885010675114]]],[[[2.9134113784255047,41.148794429642145],[2.9896157020634404,41.13152277028135],[2.992902719387845,41.127393027131525],[2.992261913481838,41.1225956413119],[2.987812275564103,41.11832737161559],[2.982404956083217,41.11711636159287],[2.906471371781346,41.134254445185064],[2.9017665325285438,41.13748599815293],[2.900867915704641,41.14275080080747],[2.9036187786226577,41.14624558791814],[2.9134113784255047,41.148794429642145]]],[[[3.1409108253155207,41.24690633268399],[3.1412176669398724,41.23662547097215],[3.1374867119221084,41.22747243396841],[3.1300137483224897,41.22035363970791],[3.121482733113768,41.217287067140894],[3.1099746612974246,41.21828744524131],[3.1005347030442585,41.223046689262944],[3.094633234760554,41.22868270368859],[3.0904370352054022,41.23828375532823],[3.090609489550361,41.24769827112171],[3.0949187948341357,41.25670801283945],[3.10269053124496,41.26374742876194],[3.1110271565498238,41.266960249869804],[3.12197746537696,41.26657175922073],[3.1295942189169903,41.26283990846926],[3.136940586851478,41.255362260526574],[3.1409108253155207,41.24690633268399]]],[[[2.8264817819763213,41.325681631373556],[2.832196891458836,41.33463977098467],[2.84182860079235,41.3413079324433],[2.8498239122519773,41.34332476239185],[2.8570662560928577,41.34308887524847],[2.884755501184786,41.33510652970037],[2.8968730255291884,41.32699218683393],[2.904320701575231,41.31636723231729],[2.9063186092726156,41.30867687096954],[2.9059863405011095,41.299754247140946],[2.903474551744816,41.292428896172844],[2.8991760439452547,41.28614197353151],[2.893528833173957,41.28127994037606],[2.886865342725079,41.27808860488398],[2.8786090449174035,41.276672203432604],[2.869458162736662,41.27727264784596],[2.8606002284588863,41.27938784139393],[2.838451707087123,41.290098434078395],[2.83218117354673,41.29528330167323],[2.826645101675605,41.303973584065844],[2.8245229595439842,41.31478754760602],[2.8264817819763213,41.325681631373556]]],[[[3.3790849298983408,41.699426066772915],[3.386677734225406,41.70321980256484],[3.440410435552498,41.71616331799447],[3.4460671395799123,41.71606549782931],[3.4505778796347886,41.713892238057625],[3.4534936586239824,41.71050243306679],[3.4549074855548367,41.70620603872129],[3.4542087887540243,41.70028615860854],[3.4515318369131665,41.696109103574436],[3.405306971003786,41.659512219890644],[3.397291151273852,41.654919773762444],[3.392449092334659,41.654210000000006],[3.3870169872061187,41.65612684067199],[3.380479628265518,41.66117992044483],[3.375542222737211,41.66921715023795],[3.3760239414556414,41.692476662567756],[3.3790849298983408,41.699426066772915]]],[[[3.2799884808230595,41.83071837298057],[3.3246608236943636,41.90590387916132],[3.32934429355966,41.911860117000664],[3.3339525335151987,41.913900047509614],[3.3399081801285666,41.91374621166245],[3.3442914643542703,41.91159948310485],[3.3539014456184555,41.899014706256004],[3.3751582029805878,41.83322043266058],[3.3747148145224006,41.7704068178119],[3.370466679869805,41.76488621963169],[3.3627892443594227,41.76314680344945],[3.3526117896997967,41.767716213129475],[3.3365128615950064,41.78226365902675],[3.3327022013376104,41.77325504857272],[3.3265659270450447,41.767545539702695],[3.3210363677143864,41.764993172329234],[3.3143228955967587,41.75577685252338],[3.3091947261484886,41.752427873095364],[3.3038629968935402,41.750639370604745],[3.2931427327342546,41.750968032012935],[3.287955930760297,41.75309315687612],[3.2823283281029196,41.75746996291664],[3.2747637698684766,41.76972603521659],[3.2726360849924374,41.78290773088302],[3.2738653785188374,41.79140620633431],[3.2803741937769604,41.80857858170787],[3.2834310644621003,41.812473207784485],[3.282134924450001,41.81424824969075],[3.2785453742374546,41.82299632558807],[3.2799884808230595,41.83071837298057]]],[[[3.095854967687804,41.938078873754414],[3.1086641210881867,41.93773306722996],[3.1266273120240164,41.92995950977651],[3.1335530164659637,41.9239683855949],[3.137961323435801,41.91414394803025],[3.1374590376062437,41.90324599525038],[3.1339877299218055,41.89612365490398],[3.1331932701648975,41.88615493847404],[3.128751861513937,41.87367353349917],[3.121712197821663,41.86587970579951],[3.1128462491031037,41.86207327943964],[3.1069460469151173,41.8616334173135],[3.101104844495484,41.86272063253543],[3.087947813270943,41.87003242426271],[3.072647815233365,41.88668429959145],[3.0691453467800165,41.89317473175519],[3.0665328259941638,41.905187779412515],[3.0669252594192407,41.91028519731304],[3.071111263881439,41.919741264468314],[3.083907194731385,41.932205743446474],[3.095854967687804,41.938078873754414]]],[[[3.214099608830449,42.03498999894331],[3.2237216338658103,42.031907347152824],[3.235578804300846,42.024474087734745],[3.244276957754264,42.01113284327113],[3.2464782317567997,42.00000663969144],[3.2457991327239823,41.99380367571017],[3.2436243010827326,41.98740480865517],[3.239718800039665,41.98118534713969],[3.2340582440259182,41.97640118264506],[3.2260638179721375,41.97335008956769],[3.2165431834850597,41.973661532873805],[3.20178606805542,41.96995681705643],[3.1911752568517673,41.97165656797221],[3.183203275126107,41.97698754560314],[3.175455130260265,41.990186586122014],[3.1736342559898474,42.00004716718397],[3.175958367557448,42.012119066294424],[3.1807831201234658,42.02305766365373],[3.185678024302677,42.02936317619756],[3.194490801006539,42.03436287263237],[3.209354808158427,42.0353756637738],[3.214099608830449,42.03498999894331]]],[[[2.9606519720279563,42.19660848493741],[2.9673016567129573,42.204858132895325],[2.9979265533082655,42.22096718166603],[3.0400017374529407,42.23865587036827],[3.054607342952903,42.24320558491017],[3.059419753491468,42.24240730412688],[3.0659042961083975,42.239241624314595],[3.071979256354504,42.23449365103852],[3.074945483682039,42.22925596044277],[3.1264426207435667,42.02606786226826],[3.1270841701515124,42.0138285608583],[3.1260876957551837,41.999352115224845],[3.1251318879682817,41.99561135085584],[3.1227013501963765,41.99204021451789],[3.116540291384352,41.9884033662277],[3.078265296392491,41.98039738903379],[3.0732435875462722,41.98197563060701],[2.9839639584359623,42.036170016966686],[2.9766423567338647,42.043832455716014],[2.9746788011984475,42.04903776015279],[2.9579583060357963,42.184656675064744],[2.9606519720279563,42.19660848493741]]]]}}]}