{"type":"FeatureCollection","features":[{"type":"Feature","properties":{"code":"987-S5","nom":"Subdivision des Tuamotu Gambier","region":"987","territory":"PF"},"geometry":{"type":"Polygon","coordinates":[[[-134.478033198,-23.8793169479999],[-134.510493467,-23.8783901959999],[-134.511176783,-23.878348447],[-134.516699078,-23.87798036],[-137.173294732,-23.686131396],[-137.20140994,-23.683300467],[-137.201884798,-23.6832390549999],[-137.257045336,-23.6729301189999],[-137.258272412,-23.672628658],[-137.259423425,-23.672345814],[-137.264486437,-23.671073587],[-137.265121579,-23.67091046],[-137.317304954,-23.6544154859999],[-137.31877346,-23.653861204],[-137.333941166,-23.647851709],[-143.482208642,-21.0950631439999],[-143.487923431,-21.092648663],[-145.151061816,-20.3777859039999],[-145.218478375,-20.3425066189999],[-145.219727393,-20.341726539],[-145.229006849,-20.33578791],[-145.229888624,-20.3352098039999],[-145.274626802,-20.302180946],[-145.32788773,-20.258080246],[-145.35081348,-20.237885584],[-145.351102561,-20.237614814],[-145.396841941,-20.188616677],[-148.672265393,-16.1706269659999],[-148.689005108,-16.1489017329999],[-148.68958293,-16.1481076919999],[-148.732282972,-16.077970352],[-148.732830769,-16.0768775359999],[-148.7417087,-16.058213462],[-149.173599122,-15.099663902],[-149.185123183,-15.071885369],[-149.185945042,-15.0697227169999],[-149.21090929,-14.979219927],[-149.21252172,-14.9701069559999],[-149.216707716,-14.9417250509999],[-149.217013405,-14.939140745],[-149.219516709,-14.911349209],[-149.219653567,-14.9091419539999],[-149.220457821,-14.865787107],[-149.220418436,-14.8642011049999],[-149.216014727,-14.8092561289999],[-149.215825658,-14.807865444],[-149.206541273,-14.7583872179999],[-149.206173975,-14.756858876],[-149.196463744,-14.7220446449999],[-149.194149159,-14.714772776],[-149.168717532,-14.650588027],[-149.167947189,-14.648978292],[-149.132003017,-14.586038123],[-149.129131852,-14.581763205],[-149.117101975,-14.5646373559999],[-149.116518728,-14.563842924],[-149.083273568,-14.523216702],[-149.082357263,-14.5222098099999],[-149.066759313,-14.505829922],[-149.065981382,-14.505049143],[-149.046651994,-14.4866575789999],[-149.046414321,-14.486443224],[-149.026131393,-14.4691089309999],[-149.025825226,-14.4688610979999],[-149.013623112,-14.4592931889999],[-149.008173769,-14.455155084],[-148.987149261,-14.440031775],[-148.986334751,-14.439477317],[-148.914639059,-14.3988838729999],[-148.913540387,-14.3983763969999],[-148.796622796,-14.3609709429999],[-148.794847989,-14.3606359149999],[-148.793607083,-14.3604032919999],[-145.972298764,-13.8352016439999],[-145.946804698,-13.8311337329999],[-145.945230435,-13.8309240579999],[-145.942526764,-13.8305714589999],[-145.931021944,-13.829102947],[-145.910128703,-13.8268811139999],[-145.90675855,-13.826594191],[-145.901981068,-13.826210509],[-145.899858097,-13.8260502489999],[-145.888983058,-13.825348404],[-141.461233286,-13.588015796],[-141.445682246,-13.5874247739999],[-141.445236159,-13.587414769],[-141.40803123,-13.5879651979999],[-141.407140896,-13.588011547],[-141.317047446,-13.600998337],[-141.315989408,-13.601250888],[-141.301827706,-13.604850756],[-138.688318304,-14.310010521],[-138.683456357,-14.311348677],[-138.682272446,-14.311680957],[-138.569648944,-14.358767139],[-138.568386059,-14.3594874959999],[-138.470528678,-14.432460743],[-138.46885493,-14.434061546],[-138.455974835,-14.446835656],[-138.432191904,-14.471294507],[-138.387258056,-14.5244555099999],[-138.386455521,-14.525551456],[-138.374286526,-14.542931407],[-135.874354885,-18.2796818369999],[-135.86018408,-18.3021309929999],[-135.859274009,-18.30366126],[-135.850362131,-18.3192789889999],[-135.849775861,-18.3203507269999],[-135.830323155,-18.3599708589999],[-135.829495381,-18.3618637229999],[-135.820846314,-18.382936447],[-133.982327399,-23.1699637519999],[-133.982012011,-23.1707871089999],[-133.981675578,-23.17166773],[-133.962149823,-23.235130356],[-133.961967001,-23.235904074],[-133.951022462,-23.301394355],[-133.950956157,-23.302060968],[-133.94864645,-23.3394906459999],[-133.948635605,-23.339940209],[-133.949137711,-23.377437721],[-133.949197903,-23.3786192709999],[-133.967351174,-23.489001634],[-133.967713533,-23.490285431],[-133.983278552,-23.53663145],[-133.984432846,-23.539581923],[-133.986847509,-23.5457436839999],[-134.002994653,-23.582524373],[-134.003731245,-23.584034333],[-134.058746582,-23.672185031],[-134.059647584,-23.67334105],[-134.083045746,-23.701207941],[-134.083311566,-23.701502094],[-134.099866338,-23.718958157],[-134.100069918,-23.719162731],[-134.117445191,-23.7358022779999],[-134.119165415,-23.737372088],[-134.161443058,-23.77191764],[-134.165616412,-23.7749634629999],[-134.245412547,-23.8225182059999],[-134.260204308,-23.8295617809999],[-134.26353469,-23.8311326319999],[-134.264120814,-23.831406457],[-134.296442467,-23.845145061],[-134.296835634,-23.845296107],[-134.330041968,-23.856731925],[-134.331087821,-23.857051482],[-134.36838776,-23.866892315],[-134.368839246,-23.8669929759999],[-134.37047226,-23.8673541969999],[-134.37185722,-23.8676581199999],[-134.444609417,-23.878092943],[-134.445191758,-23.878133127],[-134.477643725,-23.879315415],[-134.478033198,-23.8793169479999]]]}},{"type":"Feature","properties":{"code":"987-S1","nom":"Subdivision des Iles Du Vent","region":"987","territory":"PF"},"geometry":{"type":"Polygon","coordinates":[[[-150.965642228,-17.4893270709999],[-149.988847344,-16.791868872],[-149.940020418,-16.7672115619999],[-149.905094678,-16.7554274779999],[-149.875216675,-16.7486651159999],[-149.872317455,-16.7481776669999],[-149.849680532,-16.745369839],[-149.826842285,-16.7440770489999],[-149.800664147,-16.744377683],[-149.785078865,-16.745502261],[-149.766193721,-16.7478119909999],[-149.749582376,-16.750746921],[-149.725433174,-16.7565121719999],[-149.716581223,-16.7589476119999],[-149.685202164,-16.76908],[-149.666341613,-16.7768619669999],[-149.62411381,-16.7989684569999],[-149.610280874,-16.805547955],[-147.921357713,-17.530920845],[-147.871705035,-17.5711081159999],[-147.845771499,-17.600830925],[-147.795302087,-17.6972079879999],[-147.782719696,-17.752793105],[-147.782484276,-17.7547964249999],[-147.780951614,-17.7784578769999],[-147.781725559,-17.810294707],[-147.789129636,-17.859500883],[-147.793455949,-17.876251865],[-147.794519971,-17.8797543709999],[-147.805929409,-17.910145843],[-147.840522063,-17.9699643779999],[-147.916802569,-18.044152755],[-147.982936067,-18.077887597],[-148.096691535,-18.097938676],[-149.187632798,-18.111059332],[-149.236340941,-18.108605977],[-149.244752643,-18.10751885],[-150.688294156,-17.897644734],[-150.692397034,-17.8970219679999],[-150.698742382,-17.895962203],[-150.711229794,-17.893763543],[-150.71443609,-17.893182752],[-150.718763516,-17.892346752],[-150.723157816,-17.8914352649999],[-150.725163933,-17.8909969879999],[-150.727435824,-17.890482575],[-150.73008059,-17.889863765],[-150.731666972,-17.889480874],[-150.734375368,-17.888806497],[-150.736774963,-17.8881871159999],[-150.740302159,-17.8872399689999],[-150.743485156,-17.886346681],[-150.74744338,-17.8851835419999],[-150.751261211,-17.884006717],[-150.755506296,-17.8826341119999],[-150.760003514,-17.8811084459999],[-150.762005831,-17.8804054989999],[-150.763373959,-17.879919478],[-150.766323248,-17.878853546],[-150.768990009,-17.8778624779999],[-150.770916411,-17.877129263],[-150.772767003,-17.8764101749999],[-150.775461002,-17.8753385439999],[-150.77803682,-17.874286648],[-150.78078729,-17.8731338979999],[-150.783533285,-17.8719522669999],[-150.785452007,-17.8711079299999],[-150.787576377,-17.87015501],[-150.788286003,-17.869832156],[-150.792363044,-17.867937415],[-150.794334051,-17.8669966759999],[-150.797707052,-17.865345718],[-150.800872553,-17.863750468],[-150.804036151,-17.8621103369999],[-150.807339229,-17.8603492149999],[-150.80899889,-17.8594446179999],[-150.810862039,-17.858412372],[-150.812565029,-17.857454059],[-150.814281782,-17.856473438],[-150.815964889,-17.855498156],[-150.817569386,-17.8545550539999],[-150.819431772,-17.8534446739999],[-150.821257178,-17.8523417129999],[-150.822833128,-17.851375683],[-150.824855562,-17.8501171689999],[-150.826720518,-17.848937333],[-150.828916137,-17.847524349],[-150.830878739,-17.846238204],[-150.833977631,-17.844163022],[-150.836860319,-17.8421835509999],[-150.840193964,-17.8398327809999],[-150.843439367,-17.837479704],[-150.846779352,-17.8349886089999],[-150.849940154,-17.832563314],[-150.85437004,-17.8290514189999],[-150.859063288,-17.825192085],[-150.860328201,-17.8241260799999],[-150.870093034,-17.815843586],[-150.876647986,-17.81015466],[-150.879063573,-17.807983877],[-150.880612064,-17.80656598],[-150.881963469,-17.8053153929999],[-150.882739715,-17.804590451],[-150.883714459,-17.803671161],[-150.888297923,-17.7992399889999],[-150.891854634,-17.795669496],[-150.899376391,-17.7877100179999],[-150.906367178,-17.7797957989999],[-150.91179631,-17.773245733],[-150.917395087,-17.766080557],[-150.921549004,-17.7604642659999],[-150.925895717,-17.754284976],[-150.928935559,-17.749761206],[-150.932016348,-17.74498576],[-150.935216485,-17.739808486],[-150.938203549,-17.734754973],[-150.94185967,-17.7282496359999],[-150.945302399,-17.7217677269999],[-150.948384735,-17.715623181],[-150.951388624,-17.709279868],[-150.954014487,-17.703403663],[-150.956579031,-17.6973201669999],[-150.958765919,-17.691820642],[-150.96097989,-17.685918294],[-150.962288798,-17.6822442239999],[-150.963673193,-17.6781837039999],[-150.964676931,-17.6751160179999],[-150.965614542,-17.672139869],[-150.9674912,-17.665886929],[-150.97071397,-17.6538965239999],[-150.973156402,-17.643240127],[-150.975268715,-17.6321953779999],[-150.976866714,-17.621831447],[-150.978171471,-17.6108322329999],[-150.978874577,-17.602698398],[-150.979387552,-17.593880231],[-150.979614402,-17.5867046719999],[-150.979667431,-17.5793860269999],[-150.97950439,-17.570826096],[-150.979113935,-17.5624856379999],[-150.978376394,-17.552872824],[-150.977361557,-17.5435004989999],[-150.975837594,-17.532794128],[-150.973821741,-17.5214928249999],[-150.972535612,-17.51531419],[-150.971882481,-17.5124267099999],[-150.969769634,-17.5038447979999],[-150.966515457,-17.492175544],[-150.96627613,-17.491380513],[-150.965653599,-17.489363108],[-150.965642228,-17.4893270709999]]]}},{"type":"Feature","properties":{"code":"987-S4","nom":"Subdivision des Australes","region":"987","territory":"PF"},"geometry":{"type":"Polygon","coordinates":[[[-143.313756473,-28.3679583979999],[-143.472806166,-28.4002771529999],[-143.633828287,-28.37995023],[-144.47534885,-28.1301179339999],[-144.518087148,-28.1152951509999],[-144.518127764,-28.115278971],[-144.537448923,-28.1071083959999],[-144.537543571,-28.1070660089999],[-144.554760992,-28.0989585579999],[-144.590474623,-28.081303469],[-144.613611693,-28.069102395],[-154.968984659,-22.257159106],[-154.978162085,-22.2518797389999],[-154.979180246,-22.2512796],[-155.026451509,-22.2196620289999],[-155.027734054,-22.2186942659999],[-155.042542254,-22.2070767279999],[-155.042852343,-22.2068238809999],[-155.07287623,-22.180269396],[-155.075825984,-22.1774418539999],[-155.155190115,-22.079298003],[-155.156009013,-22.0779725959999],[-155.209660306,-21.958507534],[-155.209702878,-21.9583652699999],[-155.230168601,-21.792183232],[-155.230078117,-21.7902044149999],[-155.219255386,-21.7071383759999],[-155.219158818,-21.7066928039999],[-155.184478685,-21.603059362],[-155.183852086,-21.601701809],[-155.174689059,-21.5828941079999],[-155.173759237,-21.5810828419999],[-155.164792904,-21.5644019989999],[-155.164225382,-21.563392511],[-155.105659186,-21.480303905],[-155.105123186,-21.4796875929999],[-155.099915467,-21.473793827],[-155.084575326,-21.4567055909999],[-155.053885099,-21.425395517],[-155.053595566,-21.4251249559999],[-154.985486681,-21.371730057],[-154.984620252,-21.371164585],[-154.982491818,-21.369783157],[-154.982126076,-21.369547095],[-154.960958211,-21.356616924],[-154.960427029,-21.356310283],[-154.914852319,-21.33302535],[-154.913677806,-21.332499234],[-154.832884928,-21.3043304569999],[-154.831893695,-21.304077556],[-154.779498727,-21.2936549259999],[-154.778568045,-21.2935210059999],[-154.742548829,-21.2896638],[-154.741073716,-21.2895597089999],[-154.735123845,-21.2891754959999],[-154.734287096,-21.289126471],[-154.703822944,-21.28827196],[-154.703250873,-21.2882733549999],[-154.627882119,-21.294172408],[-154.626988199,-21.29431097],[-154.609701581,-21.297301935],[-151.270962412,-21.935496713],[-151.259275349,-21.937875499],[-151.258110213,-21.938127159],[-151.189250871,-21.958266105],[-147.412450184,-23.364084363],[-147.386182162,-23.3747189019999],[-147.38597325,-23.374810453],[-147.302604395,-23.4212923699999],[-147.301666081,-23.421940127],[-147.248023017,-23.464689531],[-147.246094594,-23.4664556989999],[-147.232664556,-23.479221315],[-143.134216043,-27.5220778729999],[-143.085558645,-27.577755243],[-143.085264406,-27.578146986],[-143.049418593,-27.633025506],[-143.049124354,-27.633547832],[-142.99088813,-27.8009000439999],[-142.994678519,-27.9780549289999],[-142.998797863,-27.998425595],[-143.04503781,-28.1295521329999],[-143.125599559,-28.2428751489999],[-143.234253336,-28.329631465],[-143.235136053,-28.3301537899999],[-143.254734853,-28.3411637029999],[-143.25547045,-28.341555447],[-143.312726637,-28.367566655],[-143.313756473,-28.3679583979999]]]}},{"type":"Feature","properties":{"code":"987-S2","nom":"Subdivision des Iles Sous Le Vent","region":"987","territory":"PF"},"geometry":{"type":"Polygon","coordinates":[[[-151.549217079,-17.449938303],[-151.907811463,-17.438299329],[-154.569466896,-17.003482044],[-154.801372415,-16.968696216],[-154.905729899,-16.9362294439999],[-154.932590673,-16.913206967],[-154.971048222,-16.848068902],[-154.971560303,-16.847029106],[-154.984765809,-16.817899654],[-154.985581564,-16.815935467],[-155.013821516,-16.7236597519999],[-155.014491242,-16.7203616049999],[-155.019623032,-16.690465864],[-155.019888013,-16.6885809149999],[-155.022184857,-16.669622396],[-155.022430447,-16.6672102759999],[-155.024906811,-16.626322466],[-155.025007663,-16.621155723],[-155.024974364,-16.600061921],[-155.023875224,-16.55159445],[-155.023410837,-16.5385879839999],[-155.023251873,-16.5353266939999],[-155.021943066,-16.5161020149999],[-155.021677781,-16.5130690399999],[-155.011308896,-16.446545192],[-155.011040602,-16.4453565859999],[-155.009081645,-16.437011647],[-155.008423548,-16.434312432],[-155.005959687,-16.4246283369999],[-154.82055792,-15.72523827],[-154.810935268,-15.693284793],[-154.810542355,-15.692122099],[-154.809464116,-15.6889661549999],[-154.809210103,-15.6882307],[-154.784051572,-15.6283211169999],[-154.783752091,-15.627720586],[-154.745656359,-15.5637509379999],[-154.745144749,-15.5630214999999],[-154.743293418,-15.5603998629999],[-154.734439551,-15.54794707],[-154.685419656,-15.5285629389999],[-154.613528944,-15.519286719],[-154.43728075,-15.5076914429999],[-154.110293967,-15.530881995],[-151.921835722,-15.864072441],[-151.898391778,-15.868410976],[-151.898040273,-15.8684847339999],[-151.871156114,-15.874906605],[-151.868946834,-15.8754993439999],[-151.852769689,-15.880132776],[-151.836091563,-15.8852148889999],[-151.82530411,-15.888635898],[-151.824383582,-15.888939331],[-151.790347213,-15.901545841],[-151.78660066,-15.903090354],[-151.746021823,-15.921986225],[-151.744773429,-15.922637067],[-151.734673773,-15.9280505409999],[-150.573424471,-16.342796704],[-150.511958519,-16.4368470159999],[-150.48381748,-16.4923885389999],[-150.466044193,-16.534600097],[-150.463417172,-16.5820339549999],[-150.463716721,-16.583527164],[-150.466896174,-16.598226376],[-150.467013827,-16.598733287],[-150.478653529,-16.6405499059999],[-150.47894259,-16.64143731],[-150.511964363,-16.709311564],[-151.549217079,-17.449938303]]]}},{"type":"Feature","properties":{"code":"987-S3","nom":"Subdivision des Marquises","region":"987","territory":"PF"},"geometry":{"type":"Polygon","coordinates":[[[-138.612342549,-11.0542749489999],[-138.700295577,-11.0544164249999],[-138.701883972,-11.054278752],[-138.743582289,-11.0488901579999],[-138.74360442,-11.048886346],[-138.950227635,-10.9623808449999],[-138.952157429,-10.960996119],[-138.962024175,-10.9537314419999],[-138.985503404,-10.935996471],[-138.988442474,-10.9337593549999],[-140.379163219,-9.86705619199995],[-140.382137393,-9.86475714799997],[-140.382155558,-9.86474299699995],[-140.388581009,-9.85965221799995],[-140.388689534,-9.85956477799994],[-140.395032361,-9.85436792099995],[-140.395113231,-9.85430054699998],[-140.406639161,-9.84439743799993],[-140.406661348,-9.84437778099993],[-140.41419711,-9.83756341899993],[-140.4143494,-9.83742286999995],[-140.428810609,-9.82352922399997],[-140.428887865,-9.82345196099993],[-140.430604058,-9.82172725299995],[-140.430624334,-9.82170677699997],[-140.439618931,-9.81238498199997],[-140.453548442,-9.79756938599996],[-140.456815138,-9.79406134399994],[-140.47769072,-9.77142687299994],[-140.489199145,-9.75850724199995],[-140.509749042,-9.73461773699995],[-140.539037305,-9.69709542399994],[-141.049961144,-8.97404082599996],[-141.063122337,-8.95445000299998],[-141.063318601,-8.95414241699996],[-141.078893804,-8.92801248499995],[-141.082162788,-8.92212831399996],[-141.125432036,-8.81810854299994],[-141.125804945,-8.81681802499998],[-141.14169972,-8.73919822399995],[-141.223092602,-8.07902553799994],[-141.225369491,-7.97939547099998],[-141.225261012,-7.97798893499993],[-141.21189033,-7.89548016799995],[-141.206023673,-7.87194946399995],[-141.202732296,-7.85943968699996],[-141.202344677,-7.85804025999994],[-141.14923374,-7.73425923599996],[-141.148971926,-7.73382287899994],[-141.147286312,-7.73103415899993],[-141.139116678,-7.71761707299993],[-141.118846221,-7.68692769999996],[-141.112798557,-7.67846566399993],[-141.047978556,-7.60442280799998],[-141.047280385,-7.60376827299996],[-140.970971531,-7.54495236999998],[-140.970087632,-7.54439801099994],[-140.937309399,-7.52552884099993],[-140.795420566,-7.45084634099993],[-140.75631275,-7.43237599699995],[-140.551497019,-7.34627009299993],[-140.525233158,-7.33608929499997],[-140.478707945,-7.31954623199994],[-140.463584189,-7.31443908699993],[-140.460998372,-7.31361162499996],[-140.447330549,-7.30945222499997],[-140.447165856,-7.30940466499993],[-140.433384777,-7.30563745899997],[-140.430178363,-7.30480999699995],[-140.312857119,-7.28900668199998],[-140.311446702,-7.28898518999995],[-140.193698434,-7.30120665999993],[-140.189423216,-7.30217203199993],[-140.161045632,-7.30945988699995],[-140.160707954,-7.30955723899996],[-140.132805952,-7.31849470799995],[-140.128117003,-7.32014963099994],[-140.126641305,-7.32067306499994],[-140.126623606,-7.32067937399995],[-140.125149555,-7.32120742699993],[-140.121701798,-7.32244861999993],[-140.085265912,-7.33720805099995],[-140.084836315,-7.33740206599998],[-140.063585939,-7.34760894699997],[-140.056691589,-7.35112278399993],[-140.040218611,-7.35990978399997],[-140.039914668,-7.36007927699995],[-140.014996035,-7.37493885399994],[-140.011962009,-7.37686959699994],[-139.986494953,-7.39420068299995],[-139.965789284,-7.40924517799994],[-139.932589716,-7.43558779799997],[-139.931961741,-7.43613099399994],[-139.882777725,-7.48503573099993],[-139.879881609,-7.48834557699996],[-139.874211454,-7.49494062599996],[-138.541152573,-9.07300228299994],[-138.536747965,-9.07828980199997],[-138.53496375,-9.08046188899993],[-138.529120265,-9.08771230799994],[-138.521869969,-9.09688172399996],[-138.503142723,-9.12216181299993],[-138.484471434,-9.14909863099996],[-138.468305987,-9.17396437999997],[-138.467219944,-9.17574859299998],[-138.452224641,-9.20215754599997],[-137.965211069,-10.123984182],[-137.913579388,-10.278590471],[-137.913045986,-10.2819258339999],[-137.909656813,-10.414515045],[-137.909839191,-10.4162055479999],[-137.945416108,-10.5548822549999],[-137.946105659,-10.5565371779999],[-137.946795269,-10.558192241],[-138.048193624,-10.7127261159999],[-138.049705682,-10.7142961489999],[-138.100115237,-10.759968204],[-138.320090046,-10.9335491799999],[-138.362491226,-10.96356953],[-138.375453938,-10.971770793],[-138.38160321,-10.975599232],[-138.382905582,-10.976397036],[-138.408805967,-10.9912187149999],[-138.41869204,-10.996490872],[-138.492927816,-11.028661601],[-138.492941663,-11.0286663119999],[-138.505038094,-11.032610743],[-138.508147553,-11.0335810899999],[-138.612317359,-11.054272684],[-138.612342549,-11.0542749489999]]]}}]}