{"type":"FeatureCollection","features":[{"type":"Feature","properties":{"code":"2A001","nom":"Afa","departement":"2A","region":"94"},"geometry":{"type":"MultiPolygon","coordinates":[[[[8.78794,41.96941],[8.78928,41.97947],[8.78754,41.98653],[8.77983,41.99325],[8.77838,42.00118],[8.78494,42.00671],[8.78875,42.00716],[8.7936,42.00505],[8.79736,42.00449],[8.80759,42.00941],[8.81396,41.9938],[8.81678,41.98369],[8.81469,41.97811],[8.80818,41.97234],[8.80658,41.96889],[8.80632,41.96463],[8.81006,41.96229],[8.7972,41.95576],[8.78498,41.95259],[8.78451,41.95541],[8.78856,41.95926],[8.78957,41.96657],[8.7894,41.96925],[8.78794,41.96941]]]]}},{"type":"Feature","properties":{"code":"2A004","nom":"Ajaccio","departement":"2A","region":"94"},"geometry":{"type":"MultiPolygon","coordinates":[[[[8.73223,41.91661],[8.72672,41.91241],[8.72557,41.91241],[8.71455,41.90866],[8.70807,41.90794],[8.69186,41.90913],[8.66886,41.9058],[8.64623,41.90991],[8.64174,41.91008],[8.61604,41.89996],[8.61349,41.90136],[8.61002,41.90883],[8.61038,41.91297],[8.61548,41.92077],[8.62239,41.92772],[8.62351,41.93404],[8.62271,41.937],[8.62049,41.94],[8.61196,41.94328],[8.60684,41.94732],[8.59245,41.96111],[8.60073,41.96733],[8.61385,41.97151],[8.62278,41.97059],[8.63386,41.96305],[8.64902,41.96111],[8.65776,41.95715],[8.66565,41.95309],[8.66936,41.94724],[8.67911,41.94628],[8.68146,41.94828],[8.69181,41.94961],[8.70056,41.95327],[8.70395,41.94658],[8.70735,41.94611],[8.71796,41.94857],[8.71977,41.94832],[8.71917,41.95049],[8.72078,41.95644],[8.72571,41.95984],[8.74231,41.9601],[8.75104,41.95848],[8.75527,41.95661],[8.76737,41.95678],[8.76855,41.95792],[8.76907,41.95846],[8.77606,41.95819],[8.78334,41.95664],[8.78451,41.95541],[8.78498,41.95259],[8.78559,41.95048],[8.78745,41.94984],[8.79871,41.95007],[8.81174,41.94808],[8.81454,41.94846],[8.81637,41.95096],[8.81775,41.95137],[8.82111,41.94863],[8.81386,41.93252],[8.81967,41.92476],[8.81295,41.91554],[8.80225,41.90771],[8.79899,41.90674],[8.79808,41.90473],[8.79302,41.91273],[8.78273,41.92311],[8.77578,41.9269],[8.77245,41.92763],[8.76952,41.92737],[8.7665,41.92587],[8.75522,41.93263],[8.75257,41.9334],[8.74724,41.93355],[8.74413,41.93291],[8.74413,41.93291],[8.74085,41.93168],[8.74077,41.93163],[8.74037,41.92952],[8.74131,41.92779],[8.74142,41.9277],[8.74286,41.92813],[8.7431,41.92952],[8.743,41.92813],[8.74063,41.92648],[8.74078,41.92278],[8.74026,41.91882],[8.74157,41.91706],[8.7403,41.91575],[8.73623,41.9169],[8.73223,41.91661]]]]}},{"type":"Feature","properties":{"code":"2A006","nom":"Alata","departement":"2A","region":"94"},"geometry":{"type":"MultiPolygon","coordinates":[[[[8.66863,41.98199],[8.66991,41.98644],[8.66935,41.99016],[8.68412,41.98569],[8.69689,41.98727],[8.70686,41.99002],[8.72813,41.99324],[8.74194,41.99416],[8.74924,41.99318],[8.75146,41.9919],[8.77168,41.98869],[8.7788,41.98075],[8.78147,41.97598],[8.78148,41.97058],[8.78794,41.96941],[8.7894,41.96925],[8.78957,41.96657],[8.78856,41.95926],[8.78451,41.95541],[8.78334,41.95664],[8.77606,41.95819],[8.76907,41.95846],[8.76855,41.95792],[8.76737,41.95678],[8.75527,41.95661],[8.75104,41.95848],[8.74231,41.9601],[8.72571,41.95984],[8.72078,41.95644],[8.71917,41.95049],[8.71977,41.94832],[8.71796,41.94857],[8.70735,41.94611],[8.70395,41.94658],[8.70056,41.95327],[8.68973,41.97193],[8.68545,41.97533],[8.67393,41.97771],[8.66863,41.98199]]]]}},{"type":"Feature","properties":{"code":"2A008","nom":"Albitreccia","departement":"2A","region":"94"},"geometry":{"type":"MultiPolygon","coordinates":[[[[8.95795,41.84709],[8.94664,41.8481],[8.93969,41.84463],[8.93349,41.85088],[8.92677,41.85356],[8.91988,41.85463],[8.91716,41.85325],[8.9127,41.84609],[8.91274,41.84437],[8.91016,41.84497],[8.90546,41.85239],[8.8998,41.85164],[8.89361,41.8482],[8.88587,41.83932],[8.86475,41.82702],[8.86047,41.82264],[8.858,41.82488],[8.85429,41.83635],[8.84293,41.85056],[8.81795,41.85803],[8.81163,41.85772],[8.8013,41.85254],[8.79267,41.85143],[8.78965,41.8532],[8.79069,41.8563],[8.79071,41.8652],[8.78996,41.8673],[8.78789,41.86853],[8.80402,41.87075],[8.81276,41.87523],[8.82163,41.87247],[8.83352,41.87464],[8.84195,41.87445],[8.84818,41.87277],[8.85231,41.87559],[8.86107,41.88462],[8.86679,41.8871],[8.87781,41.8867],[8.89041,41.88348],[8.90315,41.87705],[8.93248,41.87849],[8.93572,41.87453],[8.94116,41.87063],[8.95231,41.8644],[8.96084,41.85539],[8.95795,41.84709]]]]}},{"type":"Feature","properties":{"code":"2A011","nom":"Altagène","departement":"2A","region":"94"},"geometry":{"type":"MultiPolygon","coordinates":[[[[9.08205,41.6984],[9.06986,41.70211],[9.05286,41.70519],[9.04943,41.70787],[9.04939,41.70904],[9.05069,41.70994],[9.05156,41.70799],[9.05289,41.70742],[9.05471,41.70801],[9.05301,41.70953],[9.06359,41.71232],[9.07678,41.71381],[9.09068,41.7213],[9.09648,41.7146],[9.09409,41.70605],[9.08802,41.70409],[9.08205,41.6984]]]]}},{"type":"Feature","properties":{"code":"2A014","nom":"Ambiegna","departement":"2A","region":"94"},"geometry":{"type":"MultiPolygon","coordinates":[[[[8.73711,42.08374],[8.73962,42.0864],[8.75725,42.09127],[8.76765,42.09601],[8.77439,42.10185],[8.79873,42.08346],[8.79868,42.08242],[8.79457,42.08026],[8.79021,42.07847],[8.78697,42.07835],[8.78098,42.07852],[8.76679,42.08184],[8.73711,42.08374]]]]}},{"type":"Feature","properties":{"code":"2A017","nom":"Appietto","departement":"2A","region":"94"},"geometry":{"type":"MultiPolygon","coordinates":[[[[8.66935,41.99016],[8.66815,41.99276],[8.66655,41.99398],[8.65884,41.99182],[8.65539,41.99807],[8.65598,42.00321],[8.65679,42.00393],[8.66122,42.00402],[8.67449,42.00621],[8.69724,42.01551],[8.70862,42.01916],[8.72522,42.0212],[8.7852,42.01986],[8.79632,42.0237],[8.80308,42.01279],[8.80759,42.00941],[8.79736,42.00449],[8.7936,42.00505],[8.78875,42.00716],[8.78494,42.00671],[8.77838,42.00118],[8.77983,41.99325],[8.78754,41.98653],[8.78928,41.97947],[8.78794,41.96941],[8.78148,41.97058],[8.78147,41.97598],[8.7788,41.98075],[8.77168,41.98869],[8.75146,41.9919],[8.74924,41.99318],[8.74194,41.99416],[8.72813,41.99324],[8.70686,41.99002],[8.69689,41.98727],[8.68412,41.98569],[8.66935,41.99016]]]]}},{"type":"Feature","properties":{"code":"2A018","nom":"Arbellara","departement":"2A","region":"94"},"geometry":{"type":"MultiPolygon","coordinates":[[[[9.02082,41.66959],[9.01915,41.66791],[9.00882,41.66305],[8.99955,41.66066],[8.99784,41.66089],[8.98521,41.65734],[8.97312,41.6533],[8.97227,41.65179],[8.96947,41.65308],[8.96907,41.65918],[8.96647,41.67108],[8.96655,41.674],[8.96949,41.68026],[8.97647,41.68811],[8.98493,41.68847],[8.99682,41.68584],[9.00624,41.68052],[9.01102,41.67475],[9.01557,41.67485],[9.02082,41.66959]]]]}},{"type":"Feature","properties":{"code":"2A019","nom":"Arbori","departement":"2A","region":"94"},"geometry":{"type":"MultiPolygon","coordinates":[[[[8.77439,42.10185],[8.76765,42.09601],[8.75725,42.09127],[8.75664,42.09391],[8.76143,42.10118],[8.76917,42.10895],[8.77841,42.11403],[8.77652,42.12289],[8.76771,42.13455],[8.77376,42.13774],[8.78117,42.14804],[8.7869,42.15193],[8.79565,42.15225],[8.806,42.1509],[8.81153,42.15481],[8.82224,42.14433],[8.82198,42.14022],[8.82421,42.13576],[8.82747,42.13284],[8.831,42.13257],[8.83465,42.1309],[8.83458,42.12906],[8.82118,42.11649],[8.80971,42.11291],[8.80955,42.11161],[8.77791,42.10437],[8.77535,42.10332],[8.77439,42.10185]]]]}},{"type":"Feature","properties":{"code":"2A021","nom":"Argiusta-Moriccio","departement":"2A","region":"94"},"geometry":{"type":"MultiPolygon","coordinates":[[[[9.06064,41.80422],[9.05727,41.79863],[9.04873,41.79015],[9.04642,41.79002],[9.04446,41.79149],[9.03621,41.80316],[9.03158,41.80808],[9.01619,41.81322],[9.00827,41.81808],[9.00437,41.82631],[9.00637,41.82831],[9.00596,41.83108],[9.00764,41.83126],[9.02221,41.83752],[9.03294,41.83065],[9.05794,41.80794],[9.06064,41.80422]]]]}},{"type":"Feature","properties":{"code":"2A022","nom":"Arro","departement":"2A","region":"94"},"geometry":{"type":"MultiPolygon","coordinates":[[[[8.80955,42.11161],[8.82621,42.09324],[8.82781,42.08791],[8.82673,42.08318],[8.80038,42.08284],[8.79873,42.08346],[8.77439,42.10185],[8.77535,42.10332],[8.77791,42.10437],[8.80955,42.11161]]]]}},{"type":"Feature","properties":{"code":"2A024","nom":"Aullène","departement":"2A","region":"94"},"geometry":{"type":"MultiPolygon","coordinates":[[[[9.06064,41.80422],[9.06312,41.80521],[9.0701,41.81949],[9.07584,41.82307],[9.08179,41.82131],[9.08725,41.82269],[9.08896,41.82385],[9.11888,41.85369],[9.11869,41.85603],[9.1192,41.85798],[9.13549,41.85828],[9.14122,41.85636],[9.15206,41.84407],[9.14123,41.83308],[9.12955,41.81947],[9.12553,41.81605],[9.11711,41.80596],[9.10174,41.79353],[9.08917,41.76678],[9.08757,41.76475],[9.08231,41.76449],[9.08115,41.76512],[9.07893,41.76262],[9.0734,41.76164],[9.05907,41.7638],[9.04877,41.76939],[9.04767,41.7712],[9.03447,41.77062],[9.03385,41.77635],[9.03745,41.78203],[9.04825,41.78686],[9.04873,41.79015],[9.05727,41.79863],[9.06064,41.80422]]]]}},{"type":"Feature","properties":{"code":"2A026","nom":"Azilone-Ampaza","departement":"2A","region":"94"},"geometry":{"type":"MultiPolygon","coordinates":[[[[9.00692,41.88045],[9.00785,41.87888],[9.01164,41.87904],[9.01688,41.88055],[9.02961,41.88779],[9.03225,41.8865],[9.03707,41.88013],[9.03412,41.87584],[9.03295,41.86857],[9.03275,41.85833],[9.03343,41.85718],[9.03119,41.85763],[9.02231,41.85697],[9.01846,41.85759],[8.99861,41.863],[8.99448,41.86252],[8.99345,41.86316],[8.99429,41.86605],[8.99314,41.86976],[8.99788,41.87667],[9.00198,41.87999],[9.00692,41.88045]]]]}},{"type":"Feature","properties":{"code":"2A027","nom":"Azzana","departement":"2A","region":"94"},"geometry":{"type":"MultiPolygon","coordinates":[[[[8.95579,42.101],[8.95714,42.09822],[8.95654,42.09258],[8.94737,42.08973],[8.94543,42.08976],[8.93384,42.08603],[8.92441,42.09115],[8.92426,42.09858],[8.92044,42.10406],[8.91341,42.10589],[8.91131,42.1084],[8.91937,42.12086],[8.91991,42.12533],[8.91802,42.13396],[8.9135,42.14265],[8.91669,42.14479],[8.93975,42.14905],[8.93855,42.14388],[8.93309,42.13943],[8.92921,42.13498],[8.92934,42.12974],[8.94101,42.11335],[8.9454,42.10444],[8.95104,42.10196],[8.95579,42.101]]]]}},{"type":"Feature","properties":{"code":"2A028","nom":"Balogna","departement":"2A","region":"94"},"geometry":{"type":"MultiPolygon","coordinates":[[[[8.7027,42.18545],[8.71395,42.19845],[8.72001,42.20904],[8.73271,42.2091],[8.74161,42.20765],[8.75809,42.2035],[8.77132,42.20274],[8.79024,42.20689],[8.79402,42.20712],[8.79377,42.20297],[8.7961,42.201],[8.79877,42.19417],[8.79731,42.1866],[8.79592,42.18208],[8.79214,42.17624],[8.78413,42.16697],[8.77591,42.16166],[8.77488,42.16165],[8.77182,42.16181],[8.76585,42.1649],[8.75734,42.16722],[8.74111,42.17121],[8.72847,42.17318],[8.71429,42.17937],[8.7027,42.18545]]]]}},{"type":"Feature","properties":{"code":"2A031","nom":"Bastelica","departement":"2A","region":"94"},"geometry":{"type":"MultiPolygon","coordinates":[[[[9.14667,42.01077],[9.14174,42.00671],[9.12374,41.99845],[9.11179,41.99182],[9.09745,41.97813],[9.08846,41.97488],[9.0794,41.9655],[9.07467,41.96325],[9.06898,41.9621],[9.06549,41.9634],[9.06332,41.96394],[9.06131,41.96346],[9.05294,41.95949],[9.05132,41.95997],[9.04776,41.95788],[9.04655,41.95042],[9.04473,41.94584],[9.03596,41.94238],[9.03241,41.93513],[9.02574,41.92874],[9.02246,41.92844],[9.02026,41.92787],[9.00713,41.91675],[8.99724,41.91139],[8.9885,41.90892],[8.97369,41.90334],[8.95957,41.89669],[8.95641,41.89879],[8.95238,41.90287],[8.95208,41.90417],[8.94987,41.92008],[8.95062,41.92104],[8.95251,41.92647],[8.95044,41.93111],[8.96532,41.93631],[8.98136,41.94422],[8.98445,41.94947],[8.98435,41.95156],[8.99678,41.97081],[9.00485,41.97867],[9.00477,41.98155],[8.99413,41.99332],[8.98363,41.99659],[8.97412,42.00298],[8.97431,42.00489],[8.97566,42.00582],[8.97807,42.01029],[8.98059,42.01069],[8.99114,42.01624],[9.00708,42.02234],[9.01649,42.03153],[9.02091,42.04138],[9.03082,42.03375],[9.03578,42.03317],[9.07853,42.03966],[9.0851,42.04202],[9.10343,42.04464],[9.11956,42.0547],[9.13375,42.05959],[9.13177,42.05757],[9.13138,42.05349],[9.14862,42.04049],[9.1607,42.02716],[9.1602,42.02683],[9.1561,42.02419],[9.14667,42.01077]]]]}},{"type":"Feature","properties":{"code":"2A032","nom":"Bastelicaccia","departement":"2A","region":"94"},"geometry":{"type":"MultiPolygon","coordinates":[[[[8.82223,41.95979],[8.82598,41.96132],[8.83781,41.95814],[8.86242,41.95724],[8.87203,41.95387],[8.87027,41.95198],[8.85725,41.94463],[8.85369,41.94356],[8.85351,41.93976],[8.85507,41.93648],[8.8639,41.92635],[8.83762,41.91179],[8.82023,41.90796],[8.81912,41.9072],[8.80225,41.90771],[8.81295,41.91554],[8.81967,41.92476],[8.81386,41.93252],[8.82111,41.94863],[8.81775,41.95137],[8.82187,41.95574],[8.82223,41.95979]]]]}},{"type":"Feature","properties":{"code":"2A035","nom":"Belvédère-Campomoro","departement":"2A","region":"94"},"geometry":{"type":"MultiPolygon","coordinates":[[[[8.86932,41.64551],[8.86909,41.64203],[8.86737,41.63755],[8.85865,41.62398],[8.85689,41.61998],[8.85191,41.61375],[8.83821,41.6002],[8.82236,41.59277],[8.81419,41.58771],[8.80817,41.59008],[8.79602,41.59308],[8.78554,41.58956],[8.78337,41.58695],[8.78203,41.58771],[8.78276,41.59511],[8.78623,41.59707],[8.79089,41.60646],[8.78996,41.61647],[8.79227,41.62693],[8.79752,41.63284],[8.80433,41.63635],[8.82367,41.63213],[8.85065,41.64542],[8.86368,41.64827],[8.86684,41.64791],[8.86932,41.64551]]]]}},{"type":"Feature","properties":{"code":"2A038","nom":"Bilia","departement":"2A","region":"94"},"geometry":{"type":"MultiPolygon","coordinates":[[[[8.91404,41.63372],[8.91712,41.62847],[8.92275,41.62586],[8.92286,41.62299],[8.92087,41.61608],[8.91757,41.61241],[8.91164,41.6088],[8.9011,41.60509],[8.89972,41.60434],[8.89523,41.60474],[8.89108,41.60769],[8.89038,41.60876],[8.89391,41.61412],[8.89576,41.6209],[8.89284,41.6229],[8.88874,41.62375],[8.88676,41.62669],[8.89649,41.63884],[8.90489,41.63808],[8.91404,41.63372]]]]}},{"type":"Feature","properties":{"code":"2A040","nom":"Bocognano","departement":"2A","region":"94"},"geometry":{"type":"MultiPolygon","coordinates":[[[[9.00304,42.11287],[9.01343,42.11849],[9.03001,42.12362],[9.03899,42.12734],[9.05135,42.12488],[9.06037,42.12631],[9.07116,42.12971],[9.07659,42.12896],[9.08523,42.1231],[9.10011,42.11606],[9.10338,42.11645],[9.11061,42.11393],[9.12185,42.10637],[9.13176,42.09131],[9.13383,42.09085],[9.13477,42.08686],[9.13427,42.08358],[9.13221,42.07476],[9.12913,42.06811],[9.13375,42.05959],[9.11956,42.0547],[9.10343,42.04464],[9.0964,42.0487],[9.09156,42.04977],[9.07663,42.04856],[9.07019,42.05012],[9.04639,42.05865],[9.03821,42.06476],[9.03808,42.0682],[9.03577,42.07303],[9.03122,42.07749],[9.02821,42.07928],[9.01387,42.07968],[8.99618,42.08144],[9.00047,42.08438],[9.00656,42.10077],[9.00304,42.11287]]]]}},{"type":"Feature","properties":{"code":"2A041","nom":"Bonifacio","departement":"2A","region":"94"},"geometry":{"type":"MultiPolygon","coordinates":[[[[9.28728,41.48384],[9.28072,41.47649],[9.26883,41.46851],[9.25895,41.45996],[9.25381,41.4542],[9.24393,41.44731],[9.22376,41.44272],[9.22294,41.44174],[9.22254,41.43705],[9.22572,41.42904],[9.22522,41.41931],[9.21932,41.41446],[9.2123,41.41428],[9.20945,41.41331],[9.21648,41.40803],[9.22547,41.40565],[9.24301,41.42057],[9.25892,41.42839],[9.26515,41.42821],[9.2591,41.41569],[9.25574,41.41186],[9.24954,41.4074],[9.24276,41.40011],[9.22694,41.38055],[9.22053,41.37405],[9.21875,41.36781],[9.20053,41.36616],[9.18819,41.36662],[9.18306,41.3682],[9.17849,41.37037],[9.17287,41.38076],[9.16847,41.385],[9.15035,41.38576],[9.1464,41.38875],[9.14295,41.38825],[9.13788,41.3908],[9.13675,41.39304],[9.13273,41.39393],[9.12948,41.39291],[9.12743,41.39382],[9.12665,41.39444],[9.12717,41.39533],[9.13092,41.39744],[9.13172,41.39973],[9.11276,41.39631],[9.10012,41.39278],[9.09643,41.39237],[9.09465,41.39401],[9.09143,41.40182],[9.09391,41.407],[9.09897,41.41555],[9.11058,41.43038],[9.11979,41.43827],[9.12315,41.44252],[9.12104,41.44326],[9.11469,41.44112],[9.10889,41.44098],[9.10348,41.44281],[9.09667,41.44647],[9.09539,41.44955],[9.09902,41.45348],[9.09872,41.45673],[9.09148,41.45917],[9.09146,41.46422],[9.09565,41.47019],[9.09958,41.47365],[9.10664,41.47315],[9.12108,41.47422],[9.1288,41.47159],[9.13784,41.46689],[9.13784,41.45949],[9.13989,41.45683],[9.14512,41.45638],[9.14988,41.45822],[9.16459,41.46664],[9.17279,41.4751],[9.18034,41.48481],[9.19131,41.4952],[9.19464,41.4949],[9.19824,41.49599],[9.21015,41.50353],[9.21778,41.50643],[9.23096,41.50861],[9.23489,41.50703],[9.23878,41.4943],[9.24285,41.48802],[9.25005,41.48683],[9.25991,41.49138],[9.26297,41.49138],[9.28588,41.48593],[9.28728,41.48384]]]]}},{"type":"Feature","properties":{"code":"2A048","nom":"Calcatoggio","departement":"2A","region":"94"},"geometry":{"type":"MultiPolygon","coordinates":[[[[8.65679,42.00393],[8.66025,42.01191],[8.67018,42.01923],[8.68409,42.02497],[8.69595,42.027],[8.70106,42.02601],[8.71445,42.02955],[8.73657,42.03994],[8.74056,42.04074],[8.7426,42.04192],[8.74577,42.04546],[8.74741,42.04995],[8.74375,42.05712],[8.74753,42.0563],[8.76415,42.04819],[8.77226,42.04628],[8.7801,42.04229],[8.79107,42.03517],[8.79865,42.03294],[8.80574,42.02821],[8.80472,42.02642],[8.79632,42.0237],[8.7852,42.01986],[8.72522,42.0212],[8.70862,42.01916],[8.69724,42.01551],[8.67449,42.00621],[8.66122,42.00402],[8.65679,42.00393]]]]}},{"type":"Feature","properties":{"code":"2A056","nom":"Campo","departement":"2A","region":"94"},"geometry":{"type":"MultiPolygon","coordinates":[[[[8.98822,41.90031],[9.00267,41.89638],[9.01381,41.89651],[9.01282,41.88509],[9.00878,41.8825],[9.00329,41.88205],[8.98463,41.89166],[8.98822,41.90031]]]]}},{"type":"Feature","properties":{"code":"2A060","nom":"Cannelle","departement":"2A","region":"94"},"geometry":{"type":"MultiPolygon","coordinates":[[[[8.79351,42.05634],[8.79852,42.05427],[8.81637,42.05339],[8.82874,42.05009],[8.84222,42.04271],[8.83511,42.03883],[8.83195,42.0406],[8.82522,42.03913],[8.81108,42.04647],[8.80934,42.04867],[8.79866,42.05078],[8.79237,42.05023],[8.7901,42.05463],[8.79051,42.05546],[8.79351,42.05634]]]]}},{"type":"Feature","properties":{"code":"2A061","nom":"Carbini","departement":"2A","region":"94"},"geometry":{"type":"MultiPolygon","coordinates":[[[[9.16384,41.65564],[9.1609,41.65636],[9.15305,41.65512],[9.14825,41.65564],[9.13847,41.66023],[9.13403,41.66448],[9.12804,41.67769],[9.13437,41.68595],[9.14321,41.68664],[9.15565,41.69141],[9.16044,41.69406],[9.16501,41.70064],[9.16684,41.69863],[9.17893,41.69195],[9.18904,41.68385],[9.19251,41.67542],[9.19003,41.67132],[9.17749,41.6662],[9.16751,41.65678],[9.16384,41.65564]]]]}},{"type":"Feature","properties":{"code":"2A062","nom":"Carbuccia","departement":"2A","region":"94"},"geometry":{"type":"MultiPolygon","coordinates":[[[[8.90656,42.02617],[8.9078,42.02576],[8.91387,42.02962],[8.91649,42.03322],[8.92626,42.04206],[8.94057,42.04929],[8.94735,42.05464],[8.95363,42.05121],[8.95868,42.04485],[8.96603,42.02678],[8.96278,42.01957],[8.95868,42.02039],[8.95286,42.01988],[8.94173,42.01459],[8.93894,42.01404],[8.89309,42.01672],[8.90486,42.02624],[8.90656,42.02617]]]]}},{"type":"Feature","properties":{"code":"2A064","nom":"Cardo-Torgia","departement":"2A","region":"94"},"geometry":{"type":"MultiPolygon","coordinates":[[[[8.96084,41.85539],[8.96471,41.85447],[8.97031,41.85503],[8.97514,41.86054],[8.97574,41.86318],[8.97426,41.86983],[8.9788,41.87111],[8.98303,41.86652],[8.98083,41.86245],[8.98942,41.8587],[8.98295,41.85586],[8.97662,41.84975],[8.97184,41.8417],[8.9644,41.83664],[8.96381,41.83886],[8.95773,41.84394],[8.95795,41.84709],[8.96084,41.85539]]]]}},{"type":"Feature","properties":{"code":"2A108","nom":"Évisa","departement":"2A","region":"94"},"geometry":{"type":"MultiPolygon","coordinates":[[[[8.88233,42.27195],[8.87489,42.2671],[8.86065,42.26148],[8.85733,42.25874],[8.85213,42.25605],[8.84475,42.2541],[8.83308,42.25223],[8.82951,42.24916],[8.82642,42.24489],[8.81355,42.23918],[8.7992,42.23968],[8.77884,42.24513],[8.76779,42.25154],[8.77127,42.25285],[8.7818,42.26138],[8.78384,42.26601],[8.78147,42.2712],[8.77795,42.28479],[8.77388,42.28891],[8.76736,42.29094],[8.76997,42.29607],[8.76895,42.3106],[8.76938,42.32257],[8.77086,42.32475],[8.78979,42.32656],[8.79795,42.32279],[8.80991,42.31968],[8.81968,42.31787],[8.82445,42.31792],[8.8307,42.31992],[8.83711,42.32401],[8.85717,42.33098],[8.86163,42.33004],[8.86178,42.32895],[8.8604,42.30692],[8.8585,42.30133],[8.86298,42.29676],[8.87801,42.29227],[8.88471,42.28496],[8.88474,42.27985],[8.88233,42.27195]]]]}},{"type":"Feature","properties":{"code":"2A065","nom":"Cargèse","departement":"2A","region":"94"},"geometry":{"type":"MultiPolygon","coordinates":[[[[8.6823,42.17168],[8.68474,42.16968],[8.68573,42.16176],[8.6799,42.15063],[8.67491,42.13771],[8.6676,42.1291],[8.65118,42.11688],[8.64986,42.11907],[8.64651,42.12134],[8.62575,42.12265],[8.62098,42.12451],[8.61793,42.12725],[8.61762,42.13076],[8.61643,42.13269],[8.61221,42.13462],[8.60467,42.13323],[8.59608,42.13013],[8.58177,42.12864],[8.58182,42.1306],[8.58451,42.13493],[8.59427,42.14327],[8.59028,42.14884],[8.58419,42.15114],[8.57478,42.15219],[8.56049,42.14581],[8.55834,42.14612],[8.56206,42.15113],[8.56947,42.15451],[8.58017,42.15785],[8.58919,42.1626],[8.59329,42.16635],[8.59334,42.16854],[8.59079,42.17061],[8.58831,42.17145],[8.58547,42.17171],[8.57743,42.16949],[8.57094,42.1688],[8.56133,42.17156],[8.56457,42.17614],[8.56726,42.17795],[8.58545,42.17894],[8.58678,42.18206],[8.58233,42.18323],[8.59022,42.18708],[8.60337,42.196],[8.60849,42.19561],[8.61435,42.19076],[8.61768,42.18492],[8.62072,42.18474],[8.62155,42.18253],[8.62511,42.17843],[8.63684,42.16697],[8.64193,42.16705],[8.66103,42.16994],[8.6823,42.17168]]]]}},{"type":"Feature","properties":{"code":"2A066","nom":"Cargiaca","departement":"2A","region":"94"},"geometry":{"type":"MultiPolygon","coordinates":[[[[9.03645,41.75004],[9.05046,41.74767],[9.05506,41.74354],[9.05643,41.73864],[9.05685,41.72444],[9.05592,41.72054],[9.04915,41.71169],[9.04198,41.7104],[9.04177,41.71217],[9.04593,41.72205],[9.04183,41.72341],[9.03369,41.72427],[9.02541,41.71856],[9.02111,41.72752],[9.03086,41.74399],[9.03645,41.75004]]]]}},{"type":"Feature","properties":{"code":"2A070","nom":"Casaglione","departement":"2A","region":"94"},"geometry":{"type":"MultiPolygon","coordinates":[[[[8.73711,42.08374],[8.76679,42.08184],[8.78098,42.07852],[8.78697,42.07835],[8.79856,42.06888],[8.79795,42.0619],[8.79351,42.05634],[8.79051,42.05546],[8.78471,42.05622],[8.76779,42.05559],[8.75511,42.05955],[8.75382,42.0627],[8.75008,42.06252],[8.74405,42.05947],[8.73796,42.06532],[8.73601,42.06591],[8.73273,42.06486],[8.72046,42.06562],[8.71733,42.07756],[8.73034,42.07793],[8.73753,42.082],[8.73711,42.08374]]]]}},{"type":"Feature","properties":{"code":"2A071","nom":"Casalabriva","departement":"2A","region":"94"},"geometry":{"type":"MultiPolygon","coordinates":[[[[8.91651,41.78045],[8.91714,41.77902],[8.91881,41.77819],[8.93172,41.7755],[8.94209,41.76878],[8.9547,41.75898],[8.95896,41.75271],[8.95858,41.74572],[8.95827,41.74347],[8.95336,41.74309],[8.94892,41.74021],[8.94117,41.73848],[8.93449,41.73824],[8.92162,41.73964],[8.9253,41.744],[8.92398,41.74848],[8.91325,41.7566],[8.90455,41.76061],[8.89304,41.76206],[8.87572,41.76858],[8.87736,41.76999],[8.88289,41.7721],[8.90351,41.7759],[8.91651,41.78045]]]]}},{"type":"Feature","properties":{"code":"2A085","nom":"Cauro","departement":"2A","region":"94"},"geometry":{"type":"MultiPolygon","coordinates":[[[[8.83762,41.91179],[8.8446,41.90757],[8.85129,41.90496],[8.87735,41.91648],[8.89559,41.92031],[8.91577,41.91916],[8.9262,41.91931],[8.94307,41.92111],[8.95062,41.92104],[8.94987,41.92008],[8.95208,41.90417],[8.94731,41.89505],[8.93372,41.88922],[8.92932,41.89363],[8.91201,41.89329],[8.8965,41.88767],[8.89056,41.88644],[8.86866,41.89283],[8.8602,41.89392],[8.85334,41.88865],[8.84449,41.8857],[8.83679,41.888],[8.83467,41.89035],[8.83324,41.89336],[8.8323,41.89969],[8.83007,41.90412],[8.82642,41.90605],[8.81912,41.9072],[8.82023,41.90796],[8.83762,41.91179]]]]}},{"type":"Feature","properties":{"code":"2A089","nom":"Ciamannacce","departement":"2A","region":"94"},"geometry":{"type":"MultiPolygon","coordinates":[[[[9.14667,42.01077],[9.15103,42.00569],[9.16071,42.00041],[9.15479,41.98031],[9.16222,41.96902],[9.16323,41.95769],[9.16504,41.95434],[9.16623,41.95412],[9.16354,41.95152],[9.16366,41.94923],[9.16088,41.94455],[9.15496,41.9407],[9.15085,41.94039],[9.14068,41.93135],[9.13945,41.93133],[9.13515,41.93114],[9.12688,41.92815],[9.135,41.94343],[9.13646,41.94694],[9.13606,41.94844],[9.12736,41.96074],[9.11005,41.97454],[9.09745,41.97813],[9.11179,41.99182],[9.12374,41.99845],[9.14174,42.00671],[9.14667,42.01077]]]]}},{"type":"Feature","properties":{"code":"2A090","nom":"Coggia","departement":"2A","region":"94"},"geometry":{"type":"MultiPolygon","coordinates":[[[[8.76771,42.13455],[8.77652,42.12289],[8.77841,42.11403],[8.76917,42.10895],[8.76143,42.10118],[8.75664,42.09391],[8.75725,42.09127],[8.73962,42.0864],[8.73711,42.08374],[8.73753,42.082],[8.73034,42.07793],[8.71733,42.07756],[8.71441,42.08269],[8.70755,42.10072],[8.70154,42.1112],[8.7019,42.12042],[8.70528,42.12946],[8.70799,42.13341],[8.71644,42.14212],[8.71974,42.1428],[8.74292,42.14186],[8.74918,42.13923],[8.75895,42.13357],[8.76771,42.13455]]]]}},{"type":"Feature","properties":{"code":"2A091","nom":"Cognocoli-Monticchi","departement":"2A","region":"94"},"geometry":{"type":"MultiPolygon","coordinates":[[[[8.82131,41.79117],[8.82738,41.79658],[8.83444,41.80466],[8.84154,41.80995],[8.84918,41.81375],[8.86332,41.81803],[8.8632,41.81954],[8.86047,41.82264],[8.86475,41.82702],[8.88587,41.83932],[8.89361,41.8482],[8.8998,41.85164],[8.90546,41.85239],[8.91016,41.84497],[8.91274,41.84437],[8.91418,41.83439],[8.9134,41.82288],[8.90253,41.81459],[8.88687,41.80573],[8.87492,41.78833],[8.86157,41.77749],[8.86073,41.77469],[8.86252,41.76722],[8.86776,41.76044],[8.86303,41.75669],[8.85736,41.75451],[8.83657,41.76302],[8.82831,41.76246],[8.82386,41.76487],[8.8226,41.76681],[8.82126,41.77301],[8.82227,41.77701],[8.82466,41.78074],[8.82517,41.78494],[8.82373,41.78949],[8.82131,41.79117]]]]}},{"type":"Feature","properties":{"code":"2A092","nom":"Conca","departement":"2A","region":"94"},"geometry":{"type":"MultiPolygon","coordinates":[[[[9.27252,41.80761],[9.27723,41.79406],[9.31191,41.78401],[9.31283,41.77958],[9.32906,41.78411],[9.34975,41.77978],[9.35255,41.77781],[9.3568,41.77106],[9.36422,41.76484],[9.37701,41.76549],[9.38452,41.7681],[9.39664,41.77371],[9.39917,41.77176],[9.40142,41.77182],[9.40696,41.76344],[9.40565,41.75657],[9.40486,41.74054],[9.4047,41.72583],[9.4055,41.72198],[9.40136,41.71792],[9.38868,41.72326],[9.38208,41.72473],[9.36775,41.72069],[9.36629,41.7129],[9.36296,41.70778],[9.35727,41.70455],[9.34762,41.70211],[9.33651,41.70299],[9.31703,41.70831],[9.30458,41.71389],[9.30415,41.71544],[9.30885,41.7196],[9.31375,41.73853],[9.31786,41.74615],[9.30744,41.74971],[9.26561,41.76014],[9.24696,41.76639],[9.23195,41.77443],[9.24781,41.79081],[9.26081,41.80084],[9.27252,41.80761]]]]}},{"type":"Feature","properties":{"code":"2A094","nom":"Corrano","departement":"2A","region":"94"},"geometry":{"type":"MultiPolygon","coordinates":[[[[9.08685,41.86306],[9.0757,41.86539],[9.0675,41.86591],[9.06036,41.86538],[9.04682,41.86005],[9.04939,41.86942],[9.0507,41.87999],[9.05754,41.89074],[9.06097,41.90234],[9.05951,41.90544],[9.06234,41.90645],[9.07853,41.90091],[9.0865,41.89624],[9.0926,41.88903],[9.09978,41.88372],[9.08854,41.87572],[9.08628,41.86796],[9.08685,41.86306]]]]}},{"type":"Feature","properties":{"code":"2A098","nom":"Coti-Chiavari","departement":"2A","region":"94"},"geometry":{"type":"MultiPolygon","coordinates":[[[[8.82373,41.78949],[8.82089,41.78724],[8.81889,41.78392],[8.79859,41.76924],[8.79058,41.76086],[8.78426,41.74073],[8.78425,41.73514],[8.78032,41.7394],[8.77661,41.74102],[8.77269,41.74164],[8.7565,41.73732],[8.74719,41.73368],[8.73166,41.72906],[8.71878,41.72333],[8.70898,41.72222],[8.70664,41.72262],[8.70292,41.72574],[8.7076,41.73646],[8.70486,41.73929],[8.69841,41.7412],[8.66515,41.74217],[8.66208,41.73965],[8.66064,41.73935],[8.65859,41.74162],[8.66062,41.74857],[8.66618,41.75215],[8.6711,41.7526],[8.68597,41.74784],[8.69551,41.75295],[8.70994,41.75836],[8.73039,41.77604],[8.73267,41.77918],[8.72721,41.78648],[8.72121,41.7916],[8.71253,41.79477],[8.71508,41.79903],[8.72047,41.80175],[8.7287,41.79833],[8.73553,41.79696],[8.73814,41.7971],[8.74121,41.79889],[8.74224,41.80468],[8.7495,41.8113],[8.75539,41.81238],[8.75929,41.80903],[8.76913,41.81007],[8.77199,41.81199],[8.77244,41.81121],[8.7774,41.80994],[8.78389,41.81118],[8.79127,41.80878],[8.80864,41.8004],[8.81919,41.79326],[8.82016,41.79065],[8.82131,41.79117],[8.82373,41.78949]]]]}},{"type":"Feature","properties":{"code":"2A099","nom":"Cozzano","departement":"2A","region":"94"},"geometry":{"type":"MultiPolygon","coordinates":[[[[9.23065,41.93269],[9.22014,41.92183],[9.21357,41.91734],[9.19626,41.91591],[9.18398,41.90816],[9.18016,41.90677],[9.17206,41.91083],[9.16629,41.91491],[9.16431,41.91947],[9.16215,41.9214],[9.15703,41.92334],[9.14587,41.9254],[9.13945,41.93133],[9.14068,41.93135],[9.15085,41.94039],[9.15496,41.9407],[9.16088,41.94455],[9.16366,41.94923],[9.16354,41.95152],[9.16623,41.95412],[9.19592,41.95591],[9.1975,41.95728],[9.22273,41.94944],[9.22114,41.94611],[9.21548,41.9422],[9.22297,41.93492],[9.22941,41.93242],[9.23065,41.93269]]]]}},{"type":"Feature","properties":{"code":"2A100","nom":"Cristinacce","departement":"2A","region":"94"},"geometry":{"type":"MultiPolygon","coordinates":[[[[8.81907,42.22163],[8.81867,42.22648],[8.81605,42.22901],[8.81085,42.23024],[8.81078,42.23643],[8.81355,42.23918],[8.82642,42.24489],[8.82951,42.24916],[8.83308,42.25223],[8.84475,42.2541],[8.85213,42.25605],[8.85733,42.25874],[8.86065,42.26148],[8.87489,42.2671],[8.88233,42.27195],[8.88293,42.27031],[8.90504,42.2539],[8.88037,42.24645],[8.87553,42.24314],[8.87089,42.23827],[8.86992,42.23649],[8.86976,42.23229],[8.86463,42.22586],[8.86024,42.22384],[8.85366,42.22277],[8.85021,42.22136],[8.8485,42.21969],[8.8333,42.22205],[8.82276,42.22238],[8.81907,42.22163]]]]}},{"type":"Feature","properties":{"code":"2A103","nom":"Cuttoli-Corticchiato","departement":"2A","region":"94"},"geometry":{"type":"MultiPolygon","coordinates":[[[[8.94661,41.98903],[8.94676,41.98733],[8.94351,41.98304],[8.9409,41.98021],[8.93299,41.97531],[8.92378,41.97239],[8.90996,41.96976],[8.89967,41.96269],[8.88869,41.95655],[8.87645,41.9537],[8.87203,41.95387],[8.86242,41.95724],[8.83781,41.95814],[8.82598,41.96132],[8.82223,41.95979],[8.82127,41.96132],[8.82321,41.9666],[8.8344,41.97563],[8.83787,41.97959],[8.84291,41.98236],[8.85119,41.98585],[8.86625,41.99011],[8.87351,41.99293],[8.879,41.99958],[8.89859,41.99953],[8.9094,41.99523],[8.92534,41.99317],[8.94552,41.98873],[8.94661,41.98903]]]]}},{"type":"Feature","properties":{"code":"2A104","nom":"Eccica-Suarella","departement":"2A","region":"94"},"geometry":{"type":"MultiPolygon","coordinates":[[[[8.95062,41.92104],[8.94307,41.92111],[8.9262,41.91931],[8.91577,41.91916],[8.89559,41.92031],[8.87735,41.91648],[8.85129,41.90496],[8.8446,41.90757],[8.83762,41.91179],[8.8639,41.92635],[8.88008,41.93095],[8.91073,41.93465],[8.92209,41.93524],[8.92977,41.93415],[8.93871,41.93071],[8.95044,41.93111],[8.95251,41.92647],[8.95062,41.92104]]]]}},{"type":"Feature","properties":{"code":"2A144","nom":"Lopigna","departement":"2A","region":"94"},"geometry":{"type":"MultiPolygon","coordinates":[[[[8.82673,42.08318],[8.82781,42.08791],[8.82621,42.09324],[8.80955,42.11161],[8.80971,42.11291],[8.82118,42.11649],[8.84499,42.11172],[8.84797,42.11032],[8.85173,42.10512],[8.85902,42.10074],[8.86999,42.09888],[8.89405,42.08011],[8.8968,42.07464],[8.89689,42.07261],[8.88761,42.06655],[8.88681,42.06449],[8.87421,42.06095],[8.86919,42.06153],[8.86522,42.06896],[8.86527,42.07313],[8.86099,42.07741],[8.85514,42.07998],[8.84825,42.08142],[8.8422,42.08013],[8.84094,42.07842],[8.83516,42.07886],[8.82915,42.08102],[8.82673,42.08318]]]]}},{"type":"Feature","properties":{"code":"2A114","nom":"Figari","departement":"2A","region":"94"},"geometry":{"type":"MultiPolygon","coordinates":[[[[9.09539,41.44955],[9.09368,41.45002],[9.08736,41.44523],[9.0821,41.44219],[9.07977,41.44184],[9.06991,41.44524],[9.06754,41.45015],[9.06618,41.45513],[9.06874,41.46191],[9.07211,41.46747],[9.078,41.47441],[9.08351,41.4792],[9.08119,41.4815],[9.08259,41.48185],[9.07713,41.49142],[9.07649,41.49766],[9.07798,41.50778],[9.08154,41.51245],[9.08274,41.51686],[9.08039,41.51969],[9.07491,41.52373],[9.06818,41.52533],[9.06496,41.52713],[9.06325,41.52856],[9.06204,41.53285],[9.06605,41.54257],[9.07989,41.55816],[9.09394,41.571],[9.09053,41.575],[9.08864,41.57605],[9.08669,41.5814],[9.08657,41.58485],[9.09078,41.58441],[9.09454,41.58514],[9.10085,41.58852],[9.10445,41.59417],[9.11185,41.59597],[9.11807,41.58891],[9.13156,41.56866],[9.13875,41.56095],[9.14986,41.55494],[9.16373,41.55119],[9.16608,41.54757],[9.17348,41.52739],[9.16847,41.52105],[9.16567,41.51002],[9.17399,41.50401],[9.18706,41.49938],[9.19131,41.4952],[9.18034,41.48481],[9.17279,41.4751],[9.16459,41.46664],[9.14988,41.45822],[9.14512,41.45638],[9.13989,41.45683],[9.13784,41.45949],[9.13784,41.46689],[9.1288,41.47159],[9.12108,41.47422],[9.10664,41.47315],[9.09958,41.47365],[9.09565,41.47019],[9.09146,41.46422],[9.09148,41.45917],[9.09872,41.45673],[9.09902,41.45348],[9.09539,41.44955]]]]}},{"type":"Feature","properties":{"code":"2A115","nom":"Foce","departement":"2A","region":"94"},"geometry":{"type":"MultiPolygon","coordinates":[[[[9.08026,41.64998],[9.07694,41.63446],[9.07746,41.62932],[9.07552,41.62555],[9.07231,41.62182],[9.066,41.61779],[9.05694,41.61348],[9.04592,41.60949],[9.04288,41.61075],[9.03983,41.61019],[9.02545,41.59822],[9.02169,41.59793],[9.01627,41.60229],[9.01323,41.60368],[9.00468,41.60201],[8.99485,41.60248],[8.99346,41.60346],[8.99326,41.60519],[8.99375,41.61713],[8.99689,41.62337],[9.00266,41.6274],[9.01037,41.63124],[9.01518,41.63015],[9.02157,41.6314],[9.02872,41.63468],[9.05778,41.64131],[9.06278,41.63834],[9.06632,41.63995],[9.07755,41.64951],[9.08026,41.64998]]]]}},{"type":"Feature","properties":{"code":"2A117","nom":"Forciolo","departement":"2A","region":"94"},"geometry":{"type":"MultiPolygon","coordinates":[[[[9.00764,41.83126],[8.99603,41.85796],[8.99861,41.863],[9.01846,41.85759],[9.02231,41.85697],[9.03119,41.85763],[9.03343,41.85718],[9.03619,41.85301],[9.0346,41.85162],[9.03355,41.84569],[9.03217,41.84326],[9.02221,41.83752],[9.00764,41.83126]]]]}},{"type":"Feature","properties":{"code":"2A118","nom":"Fozzano","departement":"2A","region":"94"},"geometry":{"type":"MultiPolygon","coordinates":[[[[9.02048,41.70894],[9.02924,41.70089],[9.03171,41.69698],[9.031,41.69339],[9.02794,41.68683],[9.0182,41.67524],[9.01557,41.67485],[9.01102,41.67475],[9.00624,41.68052],[8.99682,41.68584],[8.98493,41.68847],[8.97647,41.68811],[8.96949,41.68026],[8.95334,41.68593],[8.95195,41.68745],[8.94874,41.69565],[8.96381,41.71861],[8.96379,41.7204],[8.96762,41.72103],[8.98265,41.72732],[8.98861,41.728],[8.98957,41.72453],[8.98419,41.70785],[8.98413,41.7027],[8.99049,41.70222],[9.00193,41.70377],[9.01724,41.70441],[9.01867,41.70485],[9.02048,41.70894]]]]}},{"type":"Feature","properties":{"code":"2A119","nom":"Frasseto","departement":"2A","region":"94"},"geometry":{"type":"MultiPolygon","coordinates":[[[[9.06266,41.925],[9.05482,41.91428],[9.04968,41.90931],[9.04064,41.90341],[9.03025,41.8938],[9.02792,41.88965],[9.02961,41.88779],[9.01688,41.88055],[9.01164,41.87904],[9.00785,41.87888],[9.00692,41.88045],[9.00906,41.88148],[9.00878,41.8825],[9.01282,41.88509],[9.01381,41.89651],[9.01519,41.89711],[9.0226,41.90582],[9.0259,41.9144],[9.02559,41.91875],[9.02246,41.92844],[9.02574,41.92874],[9.03241,41.93513],[9.03596,41.94238],[9.04473,41.94584],[9.04655,41.95042],[9.04776,41.95788],[9.05132,41.95997],[9.05294,41.95949],[9.05583,41.95646],[9.06263,41.93753],[9.06341,41.9274],[9.06266,41.925]]]]}},{"type":"Feature","properties":{"code":"2A127","nom":"Giuncheto","departement":"2A","region":"94"},"geometry":{"type":"MultiPolygon","coordinates":[[[[8.93455,41.57366],[8.93948,41.58178],[8.9432,41.59512],[8.94534,41.59967],[8.96036,41.59903],[8.97244,41.59666],[8.97752,41.59182],[8.98133,41.58588],[8.98167,41.58235],[8.95228,41.57397],[8.94775,41.57204],[8.94131,41.57159],[8.93648,41.57241],[8.93455,41.57366]]]]}},{"type":"Feature","properties":{"code":"2A128","nom":"Granace","departement":"2A","region":"94"},"geometry":{"type":"MultiPolygon","coordinates":[[[[9.0009,41.65182],[9.00352,41.65332],[9.00922,41.65016],[9.01364,41.64682],[9.01282,41.64575],[9.01523,41.64273],[9.02095,41.63981],[9.02828,41.63619],[9.02872,41.63468],[9.02157,41.6314],[9.01518,41.63015],[9.01037,41.63124],[9.00831,41.6338],[8.99721,41.64276],[8.99636,41.64698],[8.99903,41.65107],[9.0009,41.65182]]]]}},{"type":"Feature","properties":{"code":"2A129","nom":"Grossa","departement":"2A","region":"94"},"geometry":{"type":"MultiPolygon","coordinates":[[[[8.85865,41.62398],[8.8693,41.62006],[8.88574,41.62559],[8.88676,41.62669],[8.88874,41.62375],[8.89284,41.6229],[8.89576,41.6209],[8.89391,41.61412],[8.89038,41.60876],[8.89108,41.60769],[8.89523,41.60474],[8.89972,41.60434],[8.9011,41.60509],[8.89829,41.59629],[8.89207,41.59342],[8.87309,41.58728],[8.85299,41.58622],[8.84908,41.58432],[8.84279,41.5841],[8.81419,41.58771],[8.82236,41.59277],[8.83821,41.6002],[8.85191,41.61375],[8.85689,41.61998],[8.85865,41.62398]]]]}},{"type":"Feature","properties":{"code":"2A130","nom":"Grosseto-Prugna","departement":"2A","region":"94"},"geometry":{"type":"MultiPolygon","coordinates":[[[[8.95208,41.90417],[8.95238,41.90287],[8.95641,41.89879],[8.95957,41.89669],[8.95722,41.89627],[8.9549,41.89386],[8.95478,41.89253],[8.96463,41.88125],[8.96672,41.87587],[8.96937,41.87225],[8.97306,41.86956],[8.97426,41.86983],[8.97574,41.86318],[8.97514,41.86054],[8.97031,41.85503],[8.96471,41.85447],[8.96084,41.85539],[8.95231,41.8644],[8.94116,41.87063],[8.93572,41.87453],[8.93248,41.87849],[8.90315,41.87705],[8.89041,41.88348],[8.87781,41.8867],[8.86679,41.8871],[8.86107,41.88462],[8.85231,41.87559],[8.84818,41.87277],[8.84195,41.87445],[8.83352,41.87464],[8.82163,41.87247],[8.81276,41.87523],[8.80402,41.87075],[8.78789,41.86853],[8.78635,41.86912],[8.78333,41.87411],[8.78199,41.88121],[8.80174,41.88959],[8.80321,41.8912],[8.80358,41.89405],[8.80264,41.8976],[8.79808,41.90473],[8.79899,41.90674],[8.80225,41.90771],[8.81912,41.9072],[8.82642,41.90605],[8.83007,41.90412],[8.8323,41.89969],[8.83324,41.89336],[8.83467,41.89035],[8.83679,41.888],[8.84449,41.8857],[8.85334,41.88865],[8.8602,41.89392],[8.86866,41.89283],[8.89056,41.88644],[8.8965,41.88767],[8.91201,41.89329],[8.92932,41.89363],[8.93372,41.88922],[8.94731,41.89505],[8.95208,41.90417]]]]}},{"type":"Feature","properties":{"code":"2A131","nom":"Guagno","departement":"2A","region":"94"},"geometry":{"type":"MultiPolygon","coordinates":[[[[8.95288,42.1512],[8.93975,42.14905],[8.91669,42.14479],[8.91205,42.15901],[8.91478,42.16647],[8.91728,42.16698],[8.92101,42.17141],[8.92981,42.1737],[8.93625,42.17764],[8.97099,42.18714],[8.9769,42.20146],[8.98254,42.20836],[9.00622,42.20868],[9.01767,42.20516],[9.02857,42.20434],[9.04554,42.20752],[9.04903,42.19298],[9.04818,42.17574],[9.01746,42.17072],[8.99838,42.16358],[8.96593,42.15381],[8.95288,42.1512]]]]}},{"type":"Feature","properties":{"code":"2A132","nom":"Guargualé","departement":"2A","region":"94"},"geometry":{"type":"MultiPolygon","coordinates":[[[[8.93759,41.79836],[8.92923,41.79543],[8.92567,41.80371],[8.9241,41.81333],[8.91835,41.81944],[8.9134,41.82288],[8.91418,41.83439],[8.91274,41.84437],[8.9127,41.84609],[8.91716,41.85325],[8.91988,41.85463],[8.92677,41.85356],[8.93349,41.85088],[8.93969,41.84463],[8.94182,41.84101],[8.9334,41.83118],[8.93296,41.82959],[8.94008,41.82103],[8.94472,41.81837],[8.94686,41.81436],[8.94562,41.81141],[8.94011,41.80863],[8.93788,41.80823],[8.93561,41.80614],[8.93759,41.79836]]]]}},{"type":"Feature","properties":{"code":"2A133","nom":"Guitera-les-Bains","departement":"2A","region":"94"},"geometry":{"type":"MultiPolygon","coordinates":[[[[9.06549,41.9634],[9.07343,41.95158],[9.0751,41.94519],[9.0727,41.94264],[9.07726,41.93263],[9.08828,41.92915],[9.09579,41.92559],[9.1026,41.92054],[9.10479,41.9174],[9.10617,41.91],[9.09662,41.89818],[9.0926,41.88903],[9.0865,41.89624],[9.07853,41.90091],[9.06234,41.90645],[9.05951,41.90544],[9.06291,41.91669],[9.0637,41.92432],[9.06266,41.925],[9.06341,41.9274],[9.06263,41.93753],[9.05583,41.95646],[9.05294,41.95949],[9.06131,41.96346],[9.06332,41.96394],[9.06549,41.9634]]]]}},{"type":"Feature","properties":{"code":"2A139","nom":"Lecci","departement":"2A","region":"94"},"geometry":{"type":"MultiPolygon","coordinates":[[[[9.3511,41.63975],[9.34741,41.63674],[9.34579,41.63207],[9.3467,41.62922],[9.34579,41.6226],[9.34133,41.61987],[9.32525,41.61798],[9.31374,41.62562],[9.31385,41.62892],[9.31619,41.63054],[9.3181,41.63008],[9.32004,41.62811],[9.32189,41.62803],[9.32918,41.63114],[9.32956,41.63376],[9.32698,41.64469],[9.32236,41.65414],[9.31044,41.66069],[9.30325,41.6696],[9.28367,41.68805],[9.27649,41.68953],[9.26858,41.6895],[9.25629,41.6849],[9.24399,41.68248],[9.25788,41.69101],[9.2748,41.69844],[9.29345,41.70117],[9.29914,41.69965],[9.30191,41.69749],[9.30806,41.69639],[9.31918,41.69838],[9.32478,41.69632],[9.33106,41.69304],[9.34244,41.68398],[9.34383,41.68072],[9.34411,41.67452],[9.34272,41.67226],[9.33812,41.6682],[9.34337,41.65176],[9.3511,41.63975]]]]}},{"type":"Feature","properties":{"code":"2A141","nom":"Letia","departement":"2A","region":"94"},"geometry":{"type":"MultiPolygon","coordinates":[[[[8.88387,42.17719],[8.87966,42.17819],[8.86219,42.18],[8.84767,42.17778],[8.82785,42.17889],[8.82022,42.17648],[8.81721,42.17754],[8.81577,42.18251],[8.81544,42.1876],[8.81753,42.1915],[8.83811,42.19623],[8.84285,42.19936],[8.84588,42.20385],[8.8485,42.21969],[8.85021,42.22136],[8.85366,42.22277],[8.86024,42.22384],[8.86463,42.22586],[8.86976,42.23229],[8.86992,42.23649],[8.87089,42.23827],[8.87553,42.24314],[8.88037,42.24645],[8.90504,42.2539],[8.91489,42.25497],[8.91985,42.25621],[8.92282,42.25782],[8.92681,42.25445],[8.92675,42.25422],[8.92672,42.25152],[8.93319,42.25053],[8.9375,42.24432],[8.93973,42.23727],[8.93358,42.23206],[8.90553,42.22619],[8.89334,42.22173],[8.88503,42.20398],[8.88305,42.19503],[8.88387,42.17719]]]]}},{"type":"Feature","properties":{"code":"2A142","nom":"Levie","departement":"2A","region":"94"},"geometry":{"type":"MultiPolygon","coordinates":[[[[9.09409,41.70605],[9.09648,41.7146],[9.09068,41.7213],[9.09872,41.73054],[9.12492,41.73771],[9.13049,41.73676],[9.13717,41.73827],[9.13893,41.73685],[9.14033,41.73211],[9.13799,41.72959],[9.13756,41.72505],[9.14466,41.70957],[9.15146,41.70439],[9.16311,41.70067],[9.16501,41.70064],[9.16044,41.69406],[9.15565,41.69141],[9.14321,41.68664],[9.13437,41.68595],[9.12804,41.67769],[9.13403,41.66448],[9.13847,41.66023],[9.14825,41.65564],[9.15305,41.65512],[9.1609,41.65636],[9.16384,41.65564],[9.16724,41.65159],[9.17059,41.6442],[9.16982,41.61632],[9.15611,41.61572],[9.15132,41.61412],[9.1294,41.59738],[9.11899,41.598],[9.11185,41.59597],[9.10445,41.59417],[9.10085,41.58852],[9.09454,41.58514],[9.09078,41.58441],[9.08657,41.58485],[9.08402,41.58409],[9.07619,41.5862],[9.06914,41.58913],[9.05986,41.59445],[9.04592,41.60949],[9.05694,41.61348],[9.066,41.61779],[9.07231,41.62182],[9.07552,41.62555],[9.07746,41.62932],[9.07694,41.63446],[9.08026,41.64998],[9.08156,41.65144],[9.09496,41.65709],[9.10174,41.65904],[9.09804,41.68468],[9.09887,41.7018],[9.09761,41.70413],[9.09409,41.70605]]]]}},{"type":"Feature","properties":{"code":"2A146","nom":"Loreto-di-Tallano","departement":"2A","region":"94"},"geometry":{"type":"MultiPolygon","coordinates":[[[[9.02541,41.71856],[9.03369,41.72427],[9.04183,41.72341],[9.04593,41.72205],[9.04177,41.71217],[9.04198,41.7104],[9.0404,41.70873],[9.03741,41.69509],[9.03749,41.69088],[9.0391,41.68886],[9.03546,41.68678],[9.03207,41.67595],[9.02855,41.67181],[9.02575,41.66913],[9.0226,41.67018],[9.02082,41.66959],[9.01557,41.67485],[9.0182,41.67524],[9.02794,41.68683],[9.031,41.69339],[9.03171,41.69698],[9.02924,41.70089],[9.02048,41.70894],[9.02007,41.71128],[9.02411,41.71463],[9.02541,41.71856]]]]}},{"type":"Feature","properties":{"code":"2A154","nom":"Marignana","departement":"2A","region":"94"},"geometry":{"type":"MultiPolygon","coordinates":[[[[8.7027,42.18545],[8.69921,42.1851],[8.69664,42.18303],[8.69318,42.1783],[8.6823,42.17168],[8.66103,42.16994],[8.64193,42.16705],[8.63684,42.16697],[8.62511,42.17843],[8.62155,42.18253],[8.62072,42.18474],[8.6309,42.18806],[8.63822,42.19186],[8.65442,42.20177],[8.66695,42.21123],[8.6785,42.21563],[8.68834,42.22385],[8.69399,42.22751],[8.69804,42.22853],[8.72651,42.21682],[8.7341,42.21764],[8.73723,42.21871],[8.74987,42.22889],[8.75378,42.23894],[8.75569,42.24757],[8.76364,42.25081],[8.76779,42.25154],[8.77884,42.24513],[8.7992,42.23968],[8.81355,42.23918],[8.81078,42.23643],[8.81085,42.23024],[8.81605,42.22901],[8.81867,42.22648],[8.81907,42.22163],[8.81717,42.22156],[8.80388,42.21611],[8.79389,42.20805],[8.79402,42.20712],[8.79024,42.20689],[8.77132,42.20274],[8.75809,42.2035],[8.74161,42.20765],[8.73271,42.2091],[8.72001,42.20904],[8.71395,42.19845],[8.7027,42.18545]]]]}},{"type":"Feature","properties":{"code":"2A158","nom":"Mela","departement":"2A","region":"94"},"geometry":{"type":"MultiPolygon","coordinates":[[[[9.08205,41.6984],[9.08802,41.70409],[9.09409,41.70605],[9.09761,41.70413],[9.09887,41.7018],[9.09804,41.68468],[9.10174,41.65904],[9.08678,41.66278],[9.08543,41.66476],[9.08439,41.67343],[9.08752,41.67628],[9.09062,41.67735],[9.08928,41.68638],[9.08175,41.69772],[9.08205,41.6984]]]]}},{"type":"Feature","properties":{"code":"2A160","nom":"Moca-Croce","departement":"2A","region":"94"},"geometry":{"type":"MultiPolygon","coordinates":[[[[9.03447,41.77062],[9.02948,41.76646],[9.0254,41.76075],[9.02482,41.75742],[9.02673,41.75164],[9.01701,41.75049],[9.00792,41.73969],[8.98861,41.728],[8.98594,41.72974],[8.98635,41.73141],[8.99363,41.73818],[9.00299,41.76108],[9.0073,41.76545],[9.00929,41.7694],[9.00712,41.77757],[8.99702,41.79271],[8.99388,41.79542],[8.984,41.80119],[8.97493,41.80493],[8.96261,41.80846],[8.96247,41.80902],[8.97477,41.81209],[9.00084,41.8272],[9.00437,41.82631],[9.00827,41.81808],[9.01619,41.81322],[9.03158,41.80808],[9.03621,41.80316],[9.04446,41.79149],[9.04642,41.79002],[9.04873,41.79015],[9.04825,41.78686],[9.03745,41.78203],[9.03385,41.77635],[9.03447,41.77062]]]]}},{"type":"Feature","properties":{"code":"2A163","nom":"Monacia-d'Aullène","departement":"2A","region":"94"},"geometry":{"type":"MultiPolygon","coordinates":[[[[9.07576,41.57269],[9.07605,41.5715],[9.07408,41.5691],[9.06435,41.56359],[9.06098,41.55735],[9.06121,41.55337],[9.059,41.54478],[9.03309,41.52176],[9.03065,41.51734],[9.03106,41.51506],[9.02795,41.50978],[9.02357,41.50472],[9.01286,41.5028],[9.00518,41.49996],[8.99979,41.49706],[8.99629,41.49246],[8.99542,41.48564],[8.99278,41.48543],[8.98629,41.47752],[8.9817,41.4768],[8.97368,41.48487],[8.96568,41.49006],[8.95983,41.49202],[8.95496,41.4928],[8.94574,41.48995],[8.94129,41.48938],[8.94048,41.49025],[8.94439,41.49541],[8.95288,41.50113],[8.96783,41.5076],[8.97799,41.5153],[8.98938,41.52963],[8.99537,41.53532],[9.01228,41.54393],[9.01465,41.54665],[9.01453,41.54942],[9.01759,41.55565],[9.02062,41.5585],[9.0356,41.56793],[9.04864,41.57036],[9.06396,41.5706],[9.07576,41.57269]]]]}},{"type":"Feature","properties":{"code":"2A174","nom":"Murzo","departement":"2A","region":"94"},"geometry":{"type":"MultiPolygon","coordinates":[[[[8.87966,42.17819],[8.87843,42.16884],[8.87446,42.15763],[8.88108,42.15057],[8.88688,42.14795],[8.88466,42.14617],[8.8816,42.1455],[8.86808,42.14395],[8.85747,42.14156],[8.83936,42.13966],[8.83724,42.13878],[8.83608,42.13697],[8.83465,42.1309],[8.831,42.13257],[8.82747,42.13284],[8.82421,42.13576],[8.82198,42.14022],[8.82224,42.14433],[8.81153,42.15481],[8.81145,42.15755],[8.81455,42.16188],[8.82022,42.17648],[8.82785,42.17889],[8.84767,42.17778],[8.86219,42.18],[8.87966,42.17819]]]]}},{"type":"Feature","properties":{"code":"2A181","nom":"Ocana","departement":"2A","region":"94"},"geometry":{"type":"MultiPolygon","coordinates":[[[[8.87203,41.95387],[8.87645,41.9537],[8.88869,41.95655],[8.89967,41.96269],[8.90996,41.96976],[8.92378,41.97239],[8.93299,41.97531],[8.9409,41.98021],[8.94351,41.98304],[8.94996,41.96425],[8.95206,41.95154],[8.9482,41.94038],[8.92977,41.93415],[8.92209,41.93524],[8.91073,41.93465],[8.88008,41.93095],[8.8639,41.92635],[8.85507,41.93648],[8.85351,41.93976],[8.85369,41.94356],[8.85725,41.94463],[8.87027,41.95198],[8.87203,41.95387]]]]}},{"type":"Feature","properties":{"code":"2A186","nom":"Olivese","departement":"2A","region":"94"},"geometry":{"type":"MultiPolygon","coordinates":[[[[9.06064,41.80422],[9.05794,41.80794],[9.03294,41.83065],[9.02221,41.83752],[9.03217,41.84326],[9.03355,41.84569],[9.0346,41.85162],[9.03619,41.85301],[9.03988,41.85497],[9.04436,41.86051],[9.04682,41.86005],[9.06036,41.86538],[9.0675,41.86591],[9.0757,41.86539],[9.08685,41.86306],[9.10372,41.85873],[9.11572,41.85453],[9.11742,41.85463],[9.11869,41.85603],[9.11888,41.85369],[9.08896,41.82385],[9.08725,41.82269],[9.08179,41.82131],[9.07584,41.82307],[9.0701,41.81949],[9.06312,41.80521],[9.06064,41.80422]]]]}},{"type":"Feature","properties":{"code":"2A189","nom":"Olmeto","departement":"2A","region":"94"},"geometry":{"type":"MultiPolygon","coordinates":[[[[8.82565,41.70963],[8.82766,41.71081],[8.82728,41.71309],[8.82839,41.71621],[8.83041,41.71548],[8.83897,41.72175],[8.84617,41.72505],[8.85547,41.72209],[8.87158,41.7219],[8.87964,41.72462],[8.89552,41.72732],[8.90774,41.72837],[8.91045,41.7294],[8.91376,41.73252],[8.9166,41.73746],[8.91999,41.73954],[8.92162,41.73964],[8.93449,41.73824],[8.94117,41.73848],[8.94892,41.74021],[8.95336,41.74309],[8.96184,41.73398],[8.96379,41.7204],[8.96381,41.71861],[8.94874,41.69565],[8.94511,41.69529],[8.92667,41.68478],[8.92305,41.68463],[8.91903,41.68067],[8.91874,41.68138],[8.91649,41.68188],[8.91615,41.68708],[8.9128,41.69093],[8.90958,41.6912],[8.88844,41.68941],[8.8859,41.69031],[8.88176,41.69497],[8.87883,41.69597],[8.84558,41.69708],[8.84124,41.69782],[8.82565,41.70963]]]]}},{"type":"Feature","properties":{"code":"2A191","nom":"Olmiccia","departement":"2A","region":"94"},"geometry":{"type":"MultiPolygon","coordinates":[[[[9.02082,41.66959],[9.0226,41.67018],[9.02575,41.66913],[9.02855,41.67181],[9.03207,41.67595],[9.03546,41.68678],[9.0391,41.68886],[9.04306,41.69558],[9.0499,41.6991],[9.06019,41.69728],[9.06195,41.69568],[9.06215,41.69144],[9.0605,41.68746],[9.04791,41.67327],[9.04555,41.66806],[9.03092,41.65312],[9.02356,41.64154],[9.02095,41.63981],[9.01523,41.64273],[9.01282,41.64575],[9.01364,41.64682],[9.00922,41.65016],[9.00352,41.65332],[9.0009,41.65182],[8.99918,41.65374],[8.99878,41.65606],[8.99955,41.66066],[9.00882,41.66305],[9.01915,41.66791],[9.02082,41.66959]]]]}},{"type":"Feature","properties":{"code":"2A196","nom":"Orto","departement":"2A","region":"94"},"geometry":{"type":"MultiPolygon","coordinates":[[[[8.91898,42.18072],[8.92661,42.19487],[8.95378,42.21196],[8.97098,42.21768],[8.97983,42.22405],[8.98443,42.22423],[8.99195,42.21712],[9.00622,42.20868],[8.98254,42.20836],[8.9769,42.20146],[8.97099,42.18714],[8.93625,42.17764],[8.92981,42.1737],[8.92101,42.17141],[8.91898,42.18072]]]]}},{"type":"Feature","properties":{"code":"2A197","nom":"Osani","departement":"2A","region":"94"},"geometry":{"type":"MultiPolygon","coordinates":[[[[8.66051,42.30251],[8.64521,42.3007],[8.63746,42.30264],[8.63091,42.309],[8.62497,42.31018],[8.61802,42.31054],[8.61136,42.30878],[8.60317,42.30997],[8.59975,42.31611],[8.59944,42.32001],[8.60816,42.32394],[8.62209,42.32797],[8.6283,42.33229],[8.628,42.33822],[8.61275,42.34855],[8.60052,42.35321],[8.59399,42.35337],[8.58987,42.35255],[8.58316,42.34863],[8.57663,42.34108],[8.57257,42.33788],[8.56202,42.33312],[8.55522,42.33371],[8.55407,42.33513],[8.55372,42.34619],[8.55715,42.35992],[8.55519,42.36373],[8.54547,42.36772],[8.54367,42.36968],[8.54595,42.37746],[8.5481,42.37907],[8.55084,42.37907],[8.55352,42.3721],[8.56122,42.37049],[8.56773,42.37037],[8.5726,42.37119],[8.57679,42.37456],[8.57488,42.3802],[8.57326,42.38157],[8.58942,42.37545],[8.61238,42.37173],[8.64096,42.37351],[8.64346,42.36791],[8.64606,42.36544],[8.6484,42.36371],[8.65939,42.35945],[8.66442,42.35845],[8.67344,42.36016],[8.68238,42.35964],[8.68157,42.35054],[8.68361,42.34821],[8.67992,42.34576],[8.67213,42.33548],[8.67559,42.32917],[8.67648,42.32575],[8.67717,42.31857],[8.67543,42.3112],[8.6728,42.30747],[8.66051,42.30251]]]]}},{"type":"Feature","properties":{"code":"2A198","nom":"Ota","departement":"2A","region":"94"},"geometry":{"type":"MultiPolygon","coordinates":[[[[8.689,42.26325],[8.69375,42.26647],[8.69064,42.27495],[8.70384,42.27536],[8.71864,42.27783],[8.74027,42.27933],[8.75537,42.28114],[8.76736,42.29094],[8.77388,42.28891],[8.77795,42.28479],[8.78147,42.2712],[8.78384,42.26601],[8.7818,42.26138],[8.77127,42.25285],[8.76779,42.25154],[8.76364,42.25081],[8.75569,42.24757],[8.75378,42.23894],[8.74987,42.22889],[8.73723,42.21871],[8.7341,42.21764],[8.72651,42.21682],[8.69804,42.22853],[8.70162,42.24178],[8.69618,42.24499],[8.69141,42.25399],[8.689,42.26325]]]]}},{"type":"Feature","properties":{"code":"2A200","nom":"Palneca","departement":"2A","region":"94"},"geometry":{"type":"MultiPolygon","coordinates":[[[[9.22118,42.02742],[9.21881,42.00781],[9.21634,41.99574],[9.2201,41.98955],[9.2217,41.97361],[9.22441,41.96773],[9.22411,41.95597],[9.22273,41.94944],[9.1975,41.95728],[9.19592,41.95591],[9.16623,41.95412],[9.16504,41.95434],[9.16323,41.95769],[9.16222,41.96902],[9.15479,41.98031],[9.16071,42.00041],[9.15103,42.00569],[9.14667,42.01077],[9.1561,42.02419],[9.1602,42.02683],[9.17343,42.02786],[9.18899,42.03155],[9.19371,42.02943],[9.22118,42.02742]]]]}},{"type":"Feature","properties":{"code":"2A203","nom":"Partinello","departement":"2A","region":"94"},"geometry":{"type":"MultiPolygon","coordinates":[[[[8.66051,42.30251],[8.6728,42.30747],[8.67543,42.3112],[8.67717,42.31857],[8.67648,42.32575],[8.67559,42.32917],[8.67213,42.33548],[8.67992,42.34576],[8.68361,42.34821],[8.68803,42.34896],[8.71509,42.34767],[8.72488,42.34238],[8.71747,42.33858],[8.70551,42.32834],[8.70272,42.32307],[8.70117,42.31596],[8.69903,42.29387],[8.69486,42.28742],[8.68716,42.28199],[8.66051,42.30251]]]]}},{"type":"Feature","properties":{"code":"2A204","nom":"Pastricciola","departement":"2A","region":"94"},"geometry":{"type":"MultiPolygon","coordinates":[[[[9.07116,42.12971],[9.06037,42.12631],[9.05135,42.12488],[9.03899,42.12734],[9.03001,42.12362],[9.01343,42.11849],[9.00304,42.11287],[8.99848,42.11381],[8.98751,42.11398],[8.98262,42.11185],[8.96518,42.12402],[8.96054,42.13244],[8.95939,42.14212],[8.95798,42.14551],[8.95288,42.1512],[8.96593,42.15381],[8.99838,42.16358],[9.01746,42.17072],[9.04818,42.17574],[9.05016,42.17033],[9.06573,42.16229],[9.07635,42.13693],[9.07455,42.13276],[9.07116,42.12971]]]]}},{"type":"Feature","properties":{"code":"2A209","nom":"Peri","departement":"2A","region":"94"},"geometry":{"type":"MultiPolygon","coordinates":[[[[8.84291,41.98236],[8.8418,41.98489],[8.84541,41.9961],[8.84951,42.00163],[8.86435,42.01165],[8.86678,42.01507],[8.87608,42.01485],[8.88342,42.0121],[8.88451,42.00989],[8.8878,42.01172],[8.89309,42.01672],[8.93894,42.01404],[8.94173,42.01459],[8.95286,42.01988],[8.95868,42.02039],[8.96278,42.01957],[8.9691,42.01698],[8.97807,42.01029],[8.97566,42.00582],[8.97431,42.00489],[8.95228,41.99246],[8.94652,41.99015],[8.94661,41.98903],[8.94552,41.98873],[8.92534,41.99317],[8.9094,41.99523],[8.89859,41.99953],[8.879,41.99958],[8.87351,41.99293],[8.86625,41.99011],[8.85119,41.98585],[8.84291,41.98236]]]]}},{"type":"Feature","properties":{"code":"2A211","nom":"Petreto-Bicchisano","departement":"2A","region":"94"},"geometry":{"type":"MultiPolygon","coordinates":[[[[8.95749,41.81093],[8.96247,41.80902],[8.96261,41.80846],[8.97493,41.80493],[8.984,41.80119],[8.99388,41.79542],[8.99702,41.79271],[9.00712,41.77757],[9.00929,41.7694],[9.0073,41.76545],[9.00299,41.76108],[8.99363,41.73818],[8.98635,41.73141],[8.98594,41.72974],[8.98861,41.728],[8.98265,41.72732],[8.96762,41.72103],[8.96379,41.7204],[8.96184,41.73398],[8.95336,41.74309],[8.95827,41.74347],[8.95858,41.74572],[8.95896,41.75271],[8.9547,41.75898],[8.94209,41.76878],[8.93172,41.7755],[8.91881,41.77819],[8.91714,41.77902],[8.91651,41.78045],[8.92923,41.79543],[8.93759,41.79836],[8.94988,41.80471],[8.95269,41.80842],[8.95749,41.81093]]]]}},{"type":"Feature","properties":{"code":"2A212","nom":"Piana","departement":"2A","region":"94"},"geometry":{"type":"MultiPolygon","coordinates":[[[[8.58233,42.18323],[8.57811,42.18848],[8.57785,42.19376],[8.58121,42.2],[8.58171,42.2059],[8.57842,42.20756],[8.57517,42.20741],[8.57189,42.21209],[8.57135,42.21789],[8.57407,42.22667],[8.57375,42.22793],[8.57082,42.23001],[8.56222,42.23149],[8.55751,42.22906],[8.54812,42.23033],[8.54025,42.23513],[8.54015,42.23748],[8.54412,42.23893],[8.54919,42.23965],[8.55456,42.23719],[8.56178,42.23736],[8.57122,42.23872],[8.58542,42.24391],[8.5943,42.24585],[8.61626,42.25366],[8.62381,42.25266],[8.64126,42.25535],[8.65156,42.25811],[8.66135,42.25879],[8.67646,42.26243],[8.689,42.26325],[8.69141,42.25399],[8.69618,42.24499],[8.70162,42.24178],[8.69804,42.22853],[8.69399,42.22751],[8.68834,42.22385],[8.6785,42.21563],[8.66695,42.21123],[8.65442,42.20177],[8.63822,42.19186],[8.6309,42.18806],[8.62072,42.18474],[8.61768,42.18492],[8.61435,42.19076],[8.60849,42.19561],[8.60337,42.196],[8.59022,42.18708],[8.58233,42.18323]]]]}},{"type":"Feature","properties":{"code":"2A215","nom":"Pianottoli-Caldarello","departement":"2A","region":"94"},"geometry":{"type":"MultiPolygon","coordinates":[[[[9.08119,41.4815],[9.07925,41.482],[9.077,41.47686],[9.07354,41.47811],[9.07511,41.47831],[9.07344,41.47906],[9.05653,41.4641],[9.05022,41.46044],[9.04318,41.4582],[9.03902,41.46171],[9.04047,41.46553],[9.03892,41.46963],[9.03501,41.47108],[9.02858,41.46684],[9.0276,41.4647],[9.01845,41.46822],[8.99542,41.48564],[8.99629,41.49246],[8.99979,41.49706],[9.00518,41.49996],[9.01286,41.5028],[9.02357,41.50472],[9.02795,41.50978],[9.03106,41.51506],[9.03065,41.51734],[9.03309,41.52176],[9.059,41.54478],[9.06121,41.55337],[9.06098,41.55735],[9.06435,41.56359],[9.07408,41.5691],[9.07605,41.5715],[9.07576,41.57269],[9.0765,41.5779],[9.08052,41.58285],[9.08402,41.58409],[9.08657,41.58485],[9.08669,41.5814],[9.08864,41.57605],[9.09053,41.575],[9.09394,41.571],[9.07989,41.55816],[9.06605,41.54257],[9.06204,41.53285],[9.06325,41.52856],[9.06496,41.52713],[9.06818,41.52533],[9.07491,41.52373],[9.08039,41.51969],[9.08274,41.51686],[9.08154,41.51245],[9.07798,41.50778],[9.07649,41.49766],[9.07713,41.49142],[9.08259,41.48185],[9.08119,41.4815]]]]}},{"type":"Feature","properties":{"code":"2A228","nom":"Pietrosella","departement":"2A","region":"94"},"geometry":{"type":"MultiPolygon","coordinates":[[[[8.77199,41.81199],[8.78006,41.82702],[8.78002,41.83109],[8.76795,41.83946],[8.75971,41.84147],[8.75186,41.84242],[8.7508,41.84336],[8.7509,41.84519],[8.75916,41.84693],[8.77289,41.84607],[8.78231,41.84734],[8.78839,41.85045],[8.78965,41.8532],[8.79267,41.85143],[8.8013,41.85254],[8.81163,41.85772],[8.81795,41.85803],[8.84293,41.85056],[8.85429,41.83635],[8.858,41.82488],[8.86047,41.82264],[8.8632,41.81954],[8.86332,41.81803],[8.84918,41.81375],[8.84154,41.80995],[8.83444,41.80466],[8.82738,41.79658],[8.82131,41.79117],[8.82016,41.79065],[8.81919,41.79326],[8.80864,41.8004],[8.79127,41.80878],[8.78389,41.81118],[8.7774,41.80994],[8.77244,41.81121],[8.77199,41.81199]]]]}},{"type":"Feature","properties":{"code":"2A232","nom":"Pila-Canale","departement":"2A","region":"94"},"geometry":{"type":"MultiPolygon","coordinates":[[[[8.86776,41.76044],[8.86252,41.76722],[8.86073,41.77469],[8.86157,41.77749],[8.87492,41.78833],[8.88687,41.80573],[8.90253,41.81459],[8.9134,41.82288],[8.91835,41.81944],[8.9241,41.81333],[8.92567,41.80371],[8.92923,41.79543],[8.91651,41.78045],[8.90351,41.7759],[8.88289,41.7721],[8.87736,41.76999],[8.87572,41.76858],[8.87307,41.765],[8.86776,41.76044]]]]}},{"type":"Feature","properties":{"code":"2A240","nom":"Poggiolo","departement":"2A","region":"94"},"geometry":{"type":"MultiPolygon","coordinates":[[[[8.87966,42.17819],[8.88387,42.17719],[8.88865,42.17634],[8.9079,42.18163],[8.91898,42.18072],[8.92101,42.17141],[8.91728,42.16698],[8.91478,42.16647],[8.91205,42.15901],[8.91669,42.14479],[8.9135,42.14265],[8.89713,42.14124],[8.89605,42.14304],[8.88914,42.14759],[8.88688,42.14795],[8.88108,42.15057],[8.87446,42.15763],[8.87843,42.16884],[8.87966,42.17819]]]]}},{"type":"Feature","properties":{"code":"2A247","nom":"Porto-Vecchio","departement":"2A","region":"94"},"geometry":{"type":"MultiPolygon","coordinates":[[[[9.16724,41.65159],[9.16384,41.65564],[9.16751,41.65678],[9.17749,41.6662],[9.19003,41.67132],[9.19251,41.67542],[9.18904,41.68385],[9.19306,41.68538],[9.20095,41.68615],[9.20686,41.68364],[9.21319,41.67951],[9.21528,41.66763],[9.21929,41.6624],[9.22605,41.6611],[9.23606,41.6632],[9.24646,41.65841],[9.25357,41.64997],[9.26063,41.6457],[9.27948,41.63164],[9.2889,41.63978],[9.29598,41.64425],[9.30573,41.64857],[9.32236,41.65414],[9.32698,41.64469],[9.32956,41.63376],[9.32918,41.63114],[9.32189,41.62803],[9.32004,41.62811],[9.3181,41.63008],[9.31619,41.63054],[9.31385,41.62892],[9.30832,41.62884],[9.30573,41.62738],[9.3041,41.62296],[9.30563,41.61821],[9.29677,41.61097],[9.28583,41.60435],[9.28612,41.60159],[9.28355,41.59894],[9.28011,41.59691],[9.28091,41.59717],[9.28404,41.59607],[9.29326,41.58705],[9.2924,41.58611],[9.29544,41.58373],[9.29875,41.58467],[9.30007,41.58674],[9.3012,41.58904],[9.30268,41.58955],[9.31356,41.60158],[9.318,41.60426],[9.3208,41.60489],[9.33384,41.6024],[9.33763,41.6001],[9.35447,41.59482],[9.36022,41.59033],[9.3587,41.58641],[9.35191,41.57748],[9.34952,41.5729],[9.34996,41.56632],[9.34606,41.56191],[9.34332,41.55992],[9.34068,41.55936],[9.33307,41.56051],[9.32591,41.55832],[9.3053,41.54697],[9.29779,41.54186],[9.29456,41.53778],[9.28205,41.53038],[9.27987,41.52686],[9.27894,41.52287],[9.28331,41.52054],[9.28401,41.51714],[9.27943,41.50911],[9.2861,41.49848],[9.28728,41.48384],[9.28588,41.48593],[9.26297,41.49138],[9.25991,41.49138],[9.25005,41.48683],[9.24285,41.48802],[9.23878,41.4943],[9.23489,41.50703],[9.2352,41.50877],[9.23383,41.50909],[9.23394,41.51641],[9.2389,41.53403],[9.23843,41.54387],[9.21755,41.56277],[9.20735,41.56639],[9.20189,41.57196],[9.19172,41.57635],[9.18515,41.59227],[9.18392,41.59848],[9.17534,41.60707],[9.16982,41.61632],[9.17059,41.6442],[9.16724,41.65159]]]]}},{"type":"Feature","properties":{"code":"2A249","nom":"Propriano","departement":"2A","region":"94"},"geometry":{"type":"MultiPolygon","coordinates":[[[[8.88676,41.62669],[8.88574,41.62559],[8.8693,41.62006],[8.85865,41.62398],[8.86737,41.63755],[8.86909,41.64203],[8.86932,41.64551],[8.87232,41.6468],[8.87665,41.65087],[8.88119,41.66901],[8.89421,41.67543],[8.90186,41.67696],[8.91649,41.68188],[8.91874,41.68138],[8.91903,41.68067],[8.91875,41.67026],[8.917,41.65986],[8.91905,41.65535],[8.91825,41.65419],[8.91897,41.63901],[8.91609,41.63695],[8.91404,41.63372],[8.90489,41.63808],[8.89649,41.63884],[8.88676,41.62669]]]]}},{"type":"Feature","properties":{"code":"2A253","nom":"Quasquara","departement":"2A","region":"94"},"geometry":{"type":"MultiPolygon","coordinates":[[[[9.02246,41.92844],[9.02559,41.91875],[9.0259,41.9144],[9.0226,41.90582],[9.01519,41.89711],[9.01381,41.89651],[9.00267,41.89638],[8.98822,41.90031],[8.98945,41.90381],[8.9885,41.90892],[8.99724,41.91139],[9.00713,41.91675],[9.02026,41.92787],[9.02246,41.92844]]]]}},{"type":"Feature","properties":{"code":"2A254","nom":"Quenza","departement":"2A","region":"94"},"geometry":{"type":"MultiPolygon","coordinates":[[[[9.23195,41.77443],[9.2344,41.78195],[9.226,41.79144],[9.21849,41.79377],[9.20973,41.78629],[9.19338,41.77475],[9.18836,41.77309],[9.18018,41.77163],[9.16569,41.76407],[9.15138,41.75037],[9.14038,41.74177],[9.13732,41.73842],[9.13717,41.73827],[9.13049,41.73676],[9.12492,41.73771],[9.12899,41.75111],[9.12905,41.75914],[9.13124,41.76846],[9.12951,41.77175],[9.12548,41.7746],[9.1239,41.77428],[9.1224,41.79116],[9.12448,41.7966],[9.13011,41.80456],[9.13771,41.8179],[9.14665,41.82775],[9.16332,41.83891],[9.17127,41.84102],[9.17577,41.84131],[9.1814,41.84028],[9.19309,41.83659],[9.21337,41.85241],[9.22476,41.85546],[9.22736,41.85549],[9.23746,41.84674],[9.24879,41.84644],[9.25901,41.84527],[9.26784,41.84111],[9.2707,41.84061],[9.28749,41.84391],[9.29889,41.84514],[9.30149,41.84483],[9.307,41.8417],[9.30888,41.83967],[9.30908,41.83218],[9.29377,41.81876],[9.28001,41.81475],[9.27252,41.80761],[9.26081,41.80084],[9.24781,41.79081],[9.23195,41.77443]]]]}},{"type":"Feature","properties":{"code":"2A258","nom":"Renno","departement":"2A","region":"94"},"geometry":{"type":"MultiPolygon","coordinates":[[[[8.81753,42.1915],[8.79731,42.1866],[8.79877,42.19417],[8.7961,42.201],[8.79377,42.20297],[8.79402,42.20712],[8.79389,42.20805],[8.80388,42.21611],[8.81717,42.22156],[8.81907,42.22163],[8.82276,42.22238],[8.8333,42.22205],[8.8485,42.21969],[8.84588,42.20385],[8.84285,42.19936],[8.83811,42.19623],[8.81753,42.1915]]]]}},{"type":"Feature","properties":{"code":"2A259","nom":"Rezza","departement":"2A","region":"94"},"geometry":{"type":"MultiPolygon","coordinates":[[[[8.98262,42.11185],[8.96906,42.10164],[8.95579,42.101],[8.95104,42.10196],[8.9454,42.10444],[8.94101,42.11335],[8.92934,42.12974],[8.92921,42.13498],[8.93309,42.13943],[8.93855,42.14388],[8.93975,42.14905],[8.95288,42.1512],[8.95798,42.14551],[8.95939,42.14212],[8.96054,42.13244],[8.96518,42.12402],[8.98262,42.11185]]]]}},{"type":"Feature","properties":{"code":"2A262","nom":"Rosazia","departement":"2A","region":"94"},"geometry":{"type":"MultiPolygon","coordinates":[[[[8.89713,42.14124],[8.89528,42.14012],[8.89331,42.13595],[8.89403,42.13325],[8.89169,42.12554],[8.88003,42.11392],[8.87193,42.10413],[8.8713,42.09913],[8.86999,42.09888],[8.85902,42.10074],[8.85173,42.10512],[8.84797,42.11032],[8.84499,42.11172],[8.82118,42.11649],[8.83458,42.12906],[8.83465,42.1309],[8.83608,42.13697],[8.83724,42.13878],[8.83936,42.13966],[8.85747,42.14156],[8.86808,42.14395],[8.8816,42.1455],[8.88466,42.14617],[8.88688,42.14795],[8.88914,42.14759],[8.89605,42.14304],[8.89713,42.14124]]]]}},{"type":"Feature","properties":{"code":"2A266","nom":"Salice","departement":"2A","region":"94"},"geometry":{"type":"MultiPolygon","coordinates":[[[[8.89689,42.07261],[8.8968,42.07464],[8.89405,42.08011],[8.86999,42.09888],[8.8713,42.09913],[8.87193,42.10413],[8.88003,42.11392],[8.89169,42.12554],[8.89403,42.13325],[8.89331,42.13595],[8.89528,42.14012],[8.89713,42.14124],[8.9135,42.14265],[8.91802,42.13396],[8.91991,42.12533],[8.91937,42.12086],[8.91131,42.1084],[8.91341,42.10589],[8.92044,42.10406],[8.92426,42.09858],[8.92441,42.09115],[8.93384,42.08603],[8.9241,42.07836],[8.91803,42.07521],[8.90141,42.07189],[8.89689,42.07261]]]]}},{"type":"Feature","properties":{"code":"2A268","nom":"Sampolo","departement":"2A","region":"94"},"geometry":{"type":"MultiPolygon","coordinates":[[[[9.12688,41.92815],[9.12541,41.92759],[9.10804,41.92745],[9.10701,41.92843],[9.10901,41.93105],[9.1121,41.94258],[9.11254,41.94912],[9.11445,41.95686],[9.11005,41.97454],[9.12736,41.96074],[9.13606,41.94844],[9.13646,41.94694],[9.135,41.94343],[9.12688,41.92815]]]]}},{"type":"Feature","properties":{"code":"2A269","nom":"Sari-Solenzara","departement":"2A","region":"94"},"geometry":{"type":"MultiPolygon","coordinates":[[[[9.39664,41.77371],[9.38452,41.7681],[9.37701,41.76549],[9.36422,41.76484],[9.3568,41.77106],[9.35255,41.77781],[9.34975,41.77978],[9.32906,41.78411],[9.31283,41.77958],[9.31191,41.78401],[9.27723,41.79406],[9.27252,41.80761],[9.28001,41.81475],[9.29377,41.81876],[9.30908,41.83218],[9.32712,41.83614],[9.33391,41.84196],[9.34723,41.84669],[9.36046,41.85684],[9.37256,41.86491],[9.38641,41.86766],[9.39591,41.86123],[9.39996,41.85946],[9.40153,41.85955],[9.4038,41.85991],[9.40499,41.85766],[9.40475,41.85668],[9.40409,41.8562],[9.40474,41.85773],[9.40366,41.85958],[9.40154,41.85906],[9.40267,41.85661],[9.40065,41.8506],[9.40315,41.84087],[9.40584,41.82075],[9.40528,41.8178],[9.40076,41.81067],[9.39609,41.80067],[9.39908,41.78973],[9.39846,41.7833],[9.39681,41.77736],[9.3955,41.77642],[9.39664,41.77371]]]]}},{"type":"Feature","properties":{"code":"2A270","nom":"Sari-d'Orcino","departement":"2A","region":"94"},"geometry":{"type":"MultiPolygon","coordinates":[[[[8.82673,42.08318],[8.82915,42.08102],[8.83516,42.07886],[8.84094,42.07842],[8.8422,42.08013],[8.84825,42.08142],[8.85514,42.07998],[8.86099,42.07741],[8.86527,42.07313],[8.86522,42.06896],[8.86919,42.06153],[8.87421,42.06095],[8.88681,42.06449],[8.885,42.06159],[8.87676,42.05663],[8.87716,42.05551],[8.87626,42.05383],[8.86958,42.0488],[8.84881,42.0461],[8.84222,42.04271],[8.82874,42.05009],[8.81637,42.05339],[8.79852,42.05427],[8.79351,42.05634],[8.79795,42.0619],[8.79856,42.06888],[8.78697,42.07835],[8.79021,42.07847],[8.79457,42.08026],[8.79868,42.08242],[8.79873,42.08346],[8.80038,42.08284],[8.82673,42.08318]]]]}},{"type":"Feature","properties":{"code":"2A271","nom":"Sarrola-Carcopino","departement":"2A","region":"94"},"geometry":{"type":"MultiPolygon","coordinates":[[[[8.78498,41.95259],[8.7972,41.95576],[8.81006,41.96229],[8.80632,41.96463],[8.80658,41.96889],[8.80818,41.97234],[8.81469,41.97811],[8.81678,41.98369],[8.81396,41.9938],[8.80759,42.00941],[8.80308,42.01279],[8.80524,42.0132],[8.82536,42.01053],[8.83057,42.01109],[8.83622,42.01552],[8.83698,42.01642],[8.8349,42.02712],[8.83595,42.03853],[8.83511,42.03883],[8.84222,42.04271],[8.84881,42.0461],[8.86958,42.0488],[8.86743,42.03748],[8.86824,42.0246],[8.86678,42.01507],[8.86435,42.01165],[8.84951,42.00163],[8.84541,41.9961],[8.8418,41.98489],[8.84291,41.98236],[8.83787,41.97959],[8.8344,41.97563],[8.82321,41.9666],[8.82127,41.96132],[8.82223,41.95979],[8.82187,41.95574],[8.81775,41.95137],[8.81637,41.95096],[8.81454,41.94846],[8.81174,41.94808],[8.79871,41.95007],[8.78745,41.94984],[8.78559,41.95048],[8.78498,41.95259]]]]}},{"type":"Feature","properties":{"code":"2A272","nom":"Sartène","departement":"2A","region":"94"},"geometry":{"type":"MultiPolygon","coordinates":[[[[9.04592,41.60949],[9.05986,41.59445],[9.06914,41.58913],[9.07619,41.5862],[9.08402,41.58409],[9.08052,41.58285],[9.0765,41.5779],[9.07576,41.57269],[9.06396,41.5706],[9.04864,41.57036],[9.0356,41.56793],[9.02062,41.5585],[9.01759,41.55565],[9.01453,41.54942],[9.01465,41.54665],[9.01228,41.54393],[8.99537,41.53532],[8.98938,41.52963],[8.97799,41.5153],[8.96783,41.5076],[8.95288,41.50113],[8.94439,41.49541],[8.94048,41.49025],[8.94012,41.48988],[8.93071,41.49369],[8.92091,41.49833],[8.9186,41.50332],[8.91483,41.50745],[8.91198,41.50846],[8.90058,41.50858],[8.89458,41.51196],[8.88922,41.51718],[8.88158,41.52145],[8.87276,41.52369],[8.86717,41.52075],[8.8644,41.52025],[8.85067,41.51832],[8.8435,41.51837],[8.84134,41.51983],[8.84094,41.52195],[8.84174,41.52398],[8.84945,41.53131],[8.85393,41.53357],[8.8537,41.53767],[8.85147,41.54188],[8.83981,41.54621],[8.81474,41.54956],[8.81409,41.55348],[8.81062,41.55577],[8.79283,41.55645],[8.78893,41.55776],[8.78758,41.56126],[8.78759,41.56421],[8.79712,41.57018],[8.79917,41.57525],[8.79179,41.58011],[8.7927,41.58456],[8.79223,41.58673],[8.78856,41.58736],[8.7868,41.58569],[8.78355,41.58568],[8.78172,41.58589],[8.78203,41.58771],[8.78337,41.58695],[8.78554,41.58956],[8.79602,41.59308],[8.80817,41.59008],[8.81419,41.58771],[8.84279,41.5841],[8.84908,41.58432],[8.85299,41.58622],[8.87309,41.58728],[8.89207,41.59342],[8.89829,41.59629],[8.9011,41.60509],[8.91164,41.6088],[8.91757,41.61241],[8.92087,41.61608],[8.92286,41.62299],[8.92275,41.62586],[8.91712,41.62847],[8.91404,41.63372],[8.91609,41.63695],[8.91897,41.63901],[8.91825,41.65419],[8.91905,41.65535],[8.93654,41.65185],[8.95224,41.64738],[8.96739,41.64753],[8.9703,41.64897],[8.97227,41.65179],[8.97312,41.6533],[8.98521,41.65734],[8.99784,41.66089],[8.99955,41.66066],[8.99878,41.65606],[8.99918,41.65374],[9.0009,41.65182],[8.99903,41.65107],[8.99636,41.64698],[8.99721,41.64276],[9.00831,41.6338],[9.01037,41.63124],[9.00266,41.6274],[8.99689,41.62337],[8.99375,41.61713],[8.99326,41.60519],[8.99346,41.60346],[8.99485,41.60248],[9.00468,41.60201],[9.01323,41.60368],[9.01627,41.60229],[9.02169,41.59793],[9.02545,41.59822],[9.03983,41.61019],[9.04288,41.61075],[9.04592,41.60949]],[[8.93455,41.57366],[8.93648,41.57241],[8.94131,41.57159],[8.94775,41.57204],[8.95228,41.57397],[8.98167,41.58235],[8.98133,41.58588],[8.97752,41.59182],[8.97244,41.59666],[8.96036,41.59903],[8.94534,41.59967],[8.9432,41.59512],[8.93948,41.58178],[8.93455,41.57366]]]]}},{"type":"Feature","properties":{"code":"2A276","nom":"Serra-di-Ferro","departement":"2A","region":"94"},"geometry":{"type":"MultiPolygon","coordinates":[[[[8.85736,41.75451],[8.85574,41.74432],[8.84921,41.73908],[8.82977,41.72713],[8.82581,41.72312],[8.82594,41.71886],[8.82839,41.71621],[8.82728,41.71309],[8.82766,41.71081],[8.82565,41.70963],[8.81503,41.71374],[8.81005,41.71433],[8.79994,41.71096],[8.79388,41.70725],[8.78784,41.70617],[8.783,41.70684],[8.77225,41.71223],[8.77177,41.71371],[8.7745,41.72035],[8.77909,41.72243],[8.7809,41.72416],[8.78462,41.73178],[8.78425,41.73514],[8.78426,41.74073],[8.79058,41.76086],[8.79859,41.76924],[8.81889,41.78392],[8.82089,41.78724],[8.82373,41.78949],[8.82517,41.78494],[8.82466,41.78074],[8.82227,41.77701],[8.82126,41.77301],[8.8226,41.76681],[8.82386,41.76487],[8.82831,41.76246],[8.83657,41.76302],[8.85736,41.75451]]]]}},{"type":"Feature","properties":{"code":"2A278","nom":"Serra-di-Scopamène","departement":"2A","region":"94"},"geometry":{"type":"MultiPolygon","coordinates":[[[[9.07885,41.73159],[9.07579,41.73359],[9.07412,41.74103],[9.07591,41.74333],[9.08271,41.74613],[9.08335,41.75474],[9.08115,41.76385],[9.08231,41.76449],[9.08757,41.76475],[9.08917,41.76678],[9.10174,41.79353],[9.11711,41.80596],[9.12553,41.81605],[9.12955,41.81947],[9.14123,41.83308],[9.15206,41.84407],[9.15869,41.83991],[9.16332,41.83891],[9.14665,41.82775],[9.13771,41.8179],[9.13011,41.80456],[9.12448,41.7966],[9.1224,41.79116],[9.1239,41.77428],[9.12311,41.77242],[9.11571,41.76783],[9.11386,41.76566],[9.10199,41.74522],[9.09648,41.73967],[9.09783,41.73116],[9.09872,41.73054],[9.09068,41.7213],[9.08764,41.72387],[9.08802,41.72918],[9.08672,41.73316],[9.08336,41.73784],[9.07885,41.73159]]]]}},{"type":"Feature","properties":{"code":"2A279","nom":"Serriera","departement":"2A","region":"94"},"geometry":{"type":"MultiPolygon","coordinates":[[[[8.77086,42.32475],[8.76938,42.32257],[8.76895,42.3106],[8.76997,42.29607],[8.76736,42.29094],[8.75537,42.28114],[8.74027,42.27933],[8.71864,42.27783],[8.70384,42.27536],[8.69064,42.27495],[8.69175,42.27671],[8.68716,42.28199],[8.69486,42.28742],[8.69903,42.29387],[8.70117,42.31596],[8.70272,42.32307],[8.70551,42.32834],[8.71747,42.33858],[8.72488,42.34238],[8.72976,42.33953],[8.75069,42.33897],[8.75996,42.33655],[8.77089,42.3262],[8.77086,42.32475]]]]}},{"type":"Feature","properties":{"code":"2A282","nom":"Soccia","departement":"2A","region":"94"},"geometry":{"type":"MultiPolygon","coordinates":[[[[8.91898,42.18072],[8.9079,42.18163],[8.88865,42.17634],[8.88387,42.17719],[8.88305,42.19503],[8.88503,42.20398],[8.89334,42.22173],[8.90553,42.22619],[8.93358,42.23206],[8.93973,42.23727],[8.9469,42.2343],[8.96408,42.23244],[8.97837,42.22623],[8.97983,42.22405],[8.97098,42.21768],[8.95378,42.21196],[8.92661,42.19487],[8.91898,42.18072]]]]}},{"type":"Feature","properties":{"code":"2A284","nom":"Sollacaro","departement":"2A","region":"94"},"geometry":{"type":"MultiPolygon","coordinates":[[[[8.92162,41.73964],[8.91999,41.73954],[8.9166,41.73746],[8.91376,41.73252],[8.91045,41.7294],[8.90774,41.72837],[8.89552,41.72732],[8.87964,41.72462],[8.87158,41.7219],[8.85547,41.72209],[8.84617,41.72505],[8.83897,41.72175],[8.83041,41.71548],[8.82839,41.71621],[8.82594,41.71886],[8.82581,41.72312],[8.82977,41.72713],[8.84921,41.73908],[8.85574,41.74432],[8.85736,41.75451],[8.86303,41.75669],[8.86776,41.76044],[8.87307,41.765],[8.87572,41.76858],[8.89304,41.76206],[8.90455,41.76061],[8.91325,41.7566],[8.92398,41.74848],[8.9253,41.744],[8.92162,41.73964]]]]}},{"type":"Feature","properties":{"code":"2A285","nom":"Sorbollano","departement":"2A","region":"94"},"geometry":{"type":"MultiPolygon","coordinates":[[[[9.12492,41.73771],[9.09872,41.73054],[9.09783,41.73116],[9.09648,41.73967],[9.10199,41.74522],[9.11386,41.76566],[9.11571,41.76783],[9.12311,41.77242],[9.1239,41.77428],[9.12548,41.7746],[9.12951,41.77175],[9.13124,41.76846],[9.12905,41.75914],[9.12899,41.75111],[9.12492,41.73771]]]]}},{"type":"Feature","properties":{"code":"2A288","nom":"Sotta","departement":"2A","region":"94"},"geometry":{"type":"MultiPolygon","coordinates":[[[[9.23489,41.50703],[9.23096,41.50861],[9.21778,41.50643],[9.21015,41.50353],[9.19824,41.49599],[9.19464,41.4949],[9.19131,41.4952],[9.18706,41.49938],[9.17399,41.50401],[9.16567,41.51002],[9.16847,41.52105],[9.17348,41.52739],[9.16608,41.54757],[9.16373,41.55119],[9.14986,41.55494],[9.13875,41.56095],[9.13156,41.56866],[9.11807,41.58891],[9.11185,41.59597],[9.11899,41.598],[9.1294,41.59738],[9.15132,41.61412],[9.15611,41.61572],[9.16982,41.61632],[9.17534,41.60707],[9.18392,41.59848],[9.18515,41.59227],[9.19172,41.57635],[9.20189,41.57196],[9.20735,41.56639],[9.21755,41.56277],[9.23843,41.54387],[9.2389,41.53403],[9.23394,41.51641],[9.23383,41.50909],[9.2352,41.50877],[9.23489,41.50703]]]]}},{"type":"Feature","properties":{"code":"2A295","nom":"Sant'Andréa-d'Orcino","departement":"2A","region":"94"},"geometry":{"type":"MultiPolygon","coordinates":[[[[8.80574,42.02821],[8.79865,42.03294],[8.79107,42.03517],[8.7801,42.04229],[8.77226,42.04628],[8.76415,42.04819],[8.74753,42.0563],[8.74375,42.05712],[8.74405,42.05947],[8.75008,42.06252],[8.75382,42.0627],[8.75511,42.05955],[8.76779,42.05559],[8.78471,42.05622],[8.79051,42.05546],[8.7901,42.05463],[8.79237,42.05023],[8.79866,42.05078],[8.80934,42.04867],[8.81108,42.04647],[8.82522,42.03913],[8.81313,42.02941],[8.80866,42.02735],[8.80574,42.02821]]]]}},{"type":"Feature","properties":{"code":"2A358","nom":"Zévaco","departement":"2A","region":"94"},"geometry":{"type":"MultiPolygon","coordinates":[[[[9.03343,41.85718],[9.03275,41.85833],[9.03295,41.86857],[9.03412,41.87584],[9.03707,41.88013],[9.03225,41.8865],[9.02961,41.88779],[9.02792,41.88965],[9.03025,41.8938],[9.04064,41.90341],[9.04968,41.90931],[9.05482,41.91428],[9.06266,41.925],[9.0637,41.92432],[9.06291,41.91669],[9.05951,41.90544],[9.06097,41.90234],[9.05754,41.89074],[9.0507,41.87999],[9.04939,41.86942],[9.04682,41.86005],[9.04436,41.86051],[9.03988,41.85497],[9.03619,41.85301],[9.03343,41.85718]]]]}},{"type":"Feature","properties":{"code":"2A300","nom":"San-Gavino-di-Carbini","departement":"2A","region":"94"},"geometry":{"type":"MultiPolygon","coordinates":[[[[9.18904,41.68385],[9.17893,41.69195],[9.16684,41.69863],[9.16501,41.70064],[9.16311,41.70067],[9.15146,41.70439],[9.14466,41.70957],[9.13756,41.72505],[9.13799,41.72959],[9.14033,41.73211],[9.13893,41.73685],[9.13717,41.73827],[9.13732,41.73842],[9.1471,41.73912],[9.15584,41.73792],[9.16646,41.73208],[9.16836,41.72726],[9.16847,41.72271],[9.17041,41.71825],[9.1836,41.71096],[9.20298,41.69547],[9.22174,41.68985],[9.23976,41.6862],[9.24399,41.68248],[9.25629,41.6849],[9.26858,41.6895],[9.27649,41.68953],[9.28367,41.68805],[9.30325,41.6696],[9.31044,41.66069],[9.32236,41.65414],[9.30573,41.64857],[9.29598,41.64425],[9.2889,41.63978],[9.27948,41.63164],[9.26063,41.6457],[9.25357,41.64997],[9.24646,41.65841],[9.23606,41.6632],[9.22605,41.6611],[9.21929,41.6624],[9.21528,41.66763],[9.21319,41.67951],[9.20686,41.68364],[9.20095,41.68615],[9.19306,41.68538],[9.18904,41.68385]]]]}},{"type":"Feature","properties":{"code":"2A308","nom":"Sainte-Lucie-de-Tallano","departement":"2A","region":"94"},"geometry":{"type":"MultiPolygon","coordinates":[[[[9.08205,41.6984],[9.08175,41.69772],[9.08928,41.68638],[9.09062,41.67735],[9.08752,41.67628],[9.08439,41.67343],[9.08543,41.66476],[9.08678,41.66278],[9.10174,41.65904],[9.09496,41.65709],[9.08156,41.65144],[9.08026,41.64998],[9.07755,41.64951],[9.06632,41.63995],[9.06278,41.63834],[9.05778,41.64131],[9.02872,41.63468],[9.02828,41.63619],[9.02095,41.63981],[9.02356,41.64154],[9.03092,41.65312],[9.04555,41.66806],[9.04791,41.67327],[9.0605,41.68746],[9.06215,41.69144],[9.06195,41.69568],[9.06019,41.69728],[9.0499,41.6991],[9.04306,41.69558],[9.0391,41.68886],[9.03749,41.69088],[9.03741,41.69509],[9.0404,41.70873],[9.04198,41.7104],[9.04915,41.71169],[9.05069,41.70994],[9.04939,41.70904],[9.04943,41.70787],[9.05286,41.70519],[9.06986,41.70211],[9.08205,41.6984]]]]}},{"type":"Feature","properties":{"code":"2A310","nom":"Santa-Maria-Figaniella","departement":"2A","region":"94"},"geometry":{"type":"MultiPolygon","coordinates":[[[[8.98861,41.728],[9.00792,41.73969],[9.01701,41.75049],[9.02673,41.75164],[9.03645,41.75004],[9.03086,41.74399],[9.02111,41.72752],[9.02541,41.71856],[9.02411,41.71463],[9.02007,41.71128],[9.02048,41.70894],[9.01867,41.70485],[9.01724,41.70441],[9.00193,41.70377],[8.99049,41.70222],[8.98413,41.7027],[8.98419,41.70785],[8.98957,41.72453],[8.98861,41.728]]]]}},{"type":"Feature","properties":{"code":"2A312","nom":"Santa-Maria-Siché","departement":"2A","region":"94"},"geometry":{"type":"MultiPolygon","coordinates":[[[[8.99345,41.86316],[8.98942,41.8587],[8.98083,41.86245],[8.98303,41.86652],[8.9788,41.87111],[8.97426,41.86983],[8.97306,41.86956],[8.96937,41.87225],[8.96672,41.87587],[8.96463,41.88125],[8.95478,41.89253],[8.9549,41.89386],[8.95722,41.89627],[8.95957,41.89669],[8.97369,41.90334],[8.9885,41.90892],[8.98945,41.90381],[8.98822,41.90031],[8.98463,41.89166],[9.00329,41.88205],[9.00878,41.8825],[9.00906,41.88148],[9.00692,41.88045],[9.00198,41.87999],[8.99788,41.87667],[8.99314,41.86976],[8.99429,41.86605],[8.99345,41.86316]]]]}},{"type":"Feature","properties":{"code":"2A322","nom":"Tasso","departement":"2A","region":"94"},"geometry":{"type":"MultiPolygon","coordinates":[[[[9.11005,41.97454],[9.11445,41.95686],[9.11254,41.94912],[9.1121,41.94258],[9.10901,41.93105],[9.10701,41.92843],[9.10915,41.92196],[9.10887,41.91917],[9.10852,41.91799],[9.10675,41.91716],[9.10479,41.9174],[9.1026,41.92054],[9.09579,41.92559],[9.08828,41.92915],[9.07726,41.93263],[9.0727,41.94264],[9.0751,41.94519],[9.07343,41.95158],[9.06549,41.9634],[9.06898,41.9621],[9.07467,41.96325],[9.0794,41.9655],[9.08846,41.97488],[9.09745,41.97813],[9.11005,41.97454]]]]}},{"type":"Feature","properties":{"code":"2A323","nom":"Tavaco","departement":"2A","region":"94"},"geometry":{"type":"MultiPolygon","coordinates":[[[[8.86958,42.0488],[8.87626,42.05383],[8.87716,42.05551],[8.88107,42.05095],[8.88329,42.04958],[8.89456,42.04348],[8.90426,42.04044],[8.90917,42.03699],[8.90877,42.02909],[8.90656,42.02617],[8.90486,42.02624],[8.89309,42.01672],[8.8878,42.01172],[8.88451,42.00989],[8.88342,42.0121],[8.87608,42.01485],[8.86678,42.01507],[8.86824,42.0246],[8.86743,42.03748],[8.86958,42.0488]]]]}},{"type":"Feature","properties":{"code":"2A324","nom":"Tavera","departement":"2A","region":"94"},"geometry":{"type":"MultiPolygon","coordinates":[[[[8.98262,42.11185],[8.98751,42.11398],[8.99848,42.11381],[9.00304,42.11287],[9.00656,42.10077],[9.00047,42.08438],[8.99618,42.08144],[9.01387,42.07968],[9.02821,42.07928],[9.03122,42.07749],[9.03577,42.07303],[9.03808,42.0682],[9.03821,42.06476],[9.04639,42.05865],[9.07019,42.05012],[9.07663,42.04856],[9.09156,42.04977],[9.0964,42.0487],[9.10343,42.04464],[9.0851,42.04202],[9.07853,42.03966],[9.03578,42.03317],[9.03082,42.03375],[9.02091,42.04138],[9.01922,42.04291],[9.01297,42.05388],[9.00595,42.06132],[8.99439,42.0623],[8.97673,42.07751],[8.97216,42.08373],[8.95916,42.09198],[8.95654,42.09258],[8.95714,42.09822],[8.95579,42.101],[8.96906,42.10164],[8.98262,42.11185]]]]}},{"type":"Feature","properties":{"code":"2A326","nom":"Tolla","departement":"2A","region":"94"},"geometry":{"type":"MultiPolygon","coordinates":[[[[8.94661,41.98903],[8.94652,41.99015],[8.95228,41.99246],[8.97431,42.00489],[8.97412,42.00298],[8.98363,41.99659],[8.99413,41.99332],[9.00477,41.98155],[9.00485,41.97867],[8.99678,41.97081],[8.98435,41.95156],[8.98445,41.94947],[8.98136,41.94422],[8.96532,41.93631],[8.95044,41.93111],[8.93871,41.93071],[8.92977,41.93415],[8.9482,41.94038],[8.95206,41.95154],[8.94996,41.96425],[8.94351,41.98304],[8.94676,41.98733],[8.94661,41.98903]]]]}},{"type":"Feature","properties":{"code":"2A330","nom":"Ucciani","departement":"2A","region":"94"},"geometry":{"type":"MultiPolygon","coordinates":[[[[9.02091,42.04138],[9.01649,42.03153],[9.00708,42.02234],[8.99114,42.01624],[8.98059,42.01069],[8.97807,42.01029],[8.9691,42.01698],[8.96278,42.01957],[8.96603,42.02678],[8.95868,42.04485],[8.95363,42.05121],[8.94735,42.05464],[8.95818,42.06384],[8.96242,42.07102],[8.96228,42.07445],[8.96043,42.07676],[8.95682,42.08067],[8.9495,42.08588],[8.94737,42.08973],[8.95654,42.09258],[8.95916,42.09198],[8.97216,42.08373],[8.97673,42.07751],[8.99439,42.0623],[9.00595,42.06132],[9.01297,42.05388],[9.01922,42.04291],[9.02091,42.04138]]]]}},{"type":"Feature","properties":{"code":"2A331","nom":"Urbalacone","departement":"2A","region":"94"},"geometry":{"type":"MultiPolygon","coordinates":[[[[8.93759,41.79836],[8.93561,41.80614],[8.93788,41.80823],[8.94011,41.80863],[8.94562,41.81141],[8.94686,41.81436],[8.94472,41.81837],[8.94008,41.82103],[8.93296,41.82959],[8.9334,41.83118],[8.94182,41.84101],[8.93969,41.84463],[8.94664,41.8481],[8.95795,41.84709],[8.95773,41.84394],[8.96381,41.83886],[8.9644,41.83664],[8.96241,41.83569],[8.95749,41.81093],[8.95269,41.80842],[8.94988,41.80471],[8.93759,41.79836]]]]}},{"type":"Feature","properties":{"code":"2A336","nom":"Valle-di-Mezzana","departement":"2A","region":"94"},"geometry":{"type":"MultiPolygon","coordinates":[[[[8.82522,42.03913],[8.83195,42.0406],[8.83511,42.03883],[8.83595,42.03853],[8.8349,42.02712],[8.83698,42.01642],[8.83622,42.01552],[8.83057,42.01109],[8.82536,42.01053],[8.80524,42.0132],[8.80308,42.01279],[8.79632,42.0237],[8.80472,42.02642],[8.80574,42.02821],[8.80866,42.02735],[8.81313,42.02941],[8.82522,42.03913]]]]}},{"type":"Feature","properties":{"code":"2A345","nom":"Vero","departement":"2A","region":"94"},"geometry":{"type":"MultiPolygon","coordinates":[[[[8.89689,42.07261],[8.90141,42.07189],[8.91803,42.07521],[8.9241,42.07836],[8.93384,42.08603],[8.94543,42.08976],[8.94737,42.08973],[8.9495,42.08588],[8.95682,42.08067],[8.96043,42.07676],[8.96228,42.07445],[8.96242,42.07102],[8.95818,42.06384],[8.94735,42.05464],[8.94057,42.04929],[8.92626,42.04206],[8.91649,42.03322],[8.91387,42.02962],[8.9078,42.02576],[8.90656,42.02617],[8.90877,42.02909],[8.90917,42.03699],[8.90426,42.04044],[8.89456,42.04348],[8.88329,42.04958],[8.88107,42.05095],[8.87716,42.05551],[8.87676,42.05663],[8.885,42.06159],[8.88681,42.06449],[8.88761,42.06655],[8.89689,42.07261]]]]}},{"type":"Feature","properties":{"code":"2A348","nom":"Vico","departement":"2A","region":"94"},"geometry":{"type":"MultiPolygon","coordinates":[[[[8.7027,42.18545],[8.71429,42.17937],[8.72847,42.17318],[8.74111,42.17121],[8.75734,42.16722],[8.76585,42.1649],[8.77182,42.16181],[8.77488,42.16165],[8.77591,42.16166],[8.78413,42.16697],[8.79214,42.17624],[8.79592,42.18208],[8.79731,42.1866],[8.81753,42.1915],[8.81544,42.1876],[8.81577,42.18251],[8.81721,42.17754],[8.82022,42.17648],[8.81455,42.16188],[8.81145,42.15755],[8.81153,42.15481],[8.806,42.1509],[8.79565,42.15225],[8.7869,42.15193],[8.78117,42.14804],[8.77376,42.13774],[8.76771,42.13455],[8.75895,42.13357],[8.74918,42.13923],[8.74292,42.14186],[8.71974,42.1428],[8.71644,42.14212],[8.70799,42.13341],[8.70528,42.12946],[8.7019,42.12042],[8.70154,42.1112],[8.68791,42.1123],[8.67565,42.10667],[8.66484,42.10523],[8.65793,42.10915],[8.65225,42.11391],[8.65118,42.11688],[8.6676,42.1291],[8.67491,42.13771],[8.6799,42.15063],[8.68573,42.16176],[8.68474,42.16968],[8.6823,42.17168],[8.69318,42.1783],[8.69664,42.18303],[8.69921,42.1851],[8.7027,42.18545]]]]}},{"type":"Feature","properties":{"code":"2A349","nom":"Viggianello","departement":"2A","region":"94"},"geometry":{"type":"MultiPolygon","coordinates":[[[[8.91903,41.68067],[8.92305,41.68463],[8.92667,41.68478],[8.94511,41.69529],[8.94874,41.69565],[8.95195,41.68745],[8.95334,41.68593],[8.96949,41.68026],[8.96655,41.674],[8.96647,41.67108],[8.96907,41.65918],[8.96947,41.65308],[8.97227,41.65179],[8.9703,41.64897],[8.96739,41.64753],[8.95224,41.64738],[8.93654,41.65185],[8.91905,41.65535],[8.917,41.65986],[8.91875,41.67026],[8.91903,41.68067]]]]}},{"type":"Feature","properties":{"code":"2A351","nom":"Villanova","departement":"2A","region":"94"},"geometry":{"type":"MultiPolygon","coordinates":[[[[8.66863,41.98199],[8.67393,41.97771],[8.68545,41.97533],[8.68973,41.97193],[8.70056,41.95327],[8.69181,41.94961],[8.68146,41.94828],[8.67911,41.94628],[8.66936,41.94724],[8.66565,41.95309],[8.65776,41.95715],[8.64902,41.96111],[8.63386,41.96305],[8.62278,41.97059],[8.63509,41.96772],[8.64108,41.96751],[8.64566,41.96815],[8.65825,41.97411],[8.66863,41.98199]]]]}},{"type":"Feature","properties":{"code":"2A357","nom":"Zérubia","departement":"2A","region":"94"},"geometry":{"type":"MultiPolygon","coordinates":[[[[9.03447,41.77062],[9.04767,41.7712],[9.04877,41.76939],[9.05907,41.7638],[9.0734,41.76164],[9.07893,41.76262],[9.08115,41.76512],[9.08231,41.76449],[9.08115,41.76385],[9.08335,41.75474],[9.08271,41.74613],[9.07591,41.74333],[9.07412,41.74103],[9.07579,41.73359],[9.07885,41.73159],[9.05592,41.72054],[9.05685,41.72444],[9.05643,41.73864],[9.05506,41.74354],[9.05046,41.74767],[9.03645,41.75004],[9.02673,41.75164],[9.02482,41.75742],[9.0254,41.76075],[9.02948,41.76646],[9.03447,41.77062]]]]}},{"type":"Feature","properties":{"code":"2A359","nom":"Zicavo","departement":"2A","region":"94"},"geometry":{"type":"MultiPolygon","coordinates":[[[[9.11869,41.85603],[9.11742,41.85463],[9.11572,41.85453],[9.10372,41.85873],[9.08685,41.86306],[9.08628,41.86796],[9.08854,41.87572],[9.09978,41.88372],[9.0926,41.88903],[9.09662,41.89818],[9.10617,41.91],[9.10479,41.9174],[9.10675,41.91716],[9.10852,41.91799],[9.10887,41.91917],[9.10915,41.92196],[9.10701,41.92843],[9.10804,41.92745],[9.12541,41.92759],[9.12688,41.92815],[9.13515,41.93114],[9.13945,41.93133],[9.14587,41.9254],[9.15703,41.92334],[9.16215,41.9214],[9.16431,41.91947],[9.16629,41.91491],[9.17206,41.91083],[9.18016,41.90677],[9.18398,41.90816],[9.19626,41.91591],[9.21357,41.91734],[9.21613,41.91469],[9.21878,41.91402],[9.22794,41.91575],[9.23737,41.91415],[9.2484,41.91016],[9.25229,41.89918],[9.24765,41.89301],[9.23519,41.87949],[9.23621,41.87569],[9.2366,41.87399],[9.23054,41.85969],[9.22736,41.85549],[9.22476,41.85546],[9.21337,41.85241],[9.19309,41.83659],[9.1814,41.84028],[9.17577,41.84131],[9.17127,41.84102],[9.16332,41.83891],[9.15869,41.83991],[9.15206,41.84407],[9.14122,41.85636],[9.13549,41.85828],[9.1192,41.85798],[9.11869,41.85603]]]]}},{"type":"Feature","properties":{"code":"2A360","nom":"Zigliara","departement":"2A","region":"94"},"geometry":{"type":"MultiPolygon","coordinates":[[[[8.95749,41.81093],[8.96241,41.83569],[8.9644,41.83664],[8.97184,41.8417],[8.97662,41.84975],[8.98295,41.85586],[8.98942,41.8587],[8.99345,41.86316],[8.99448,41.86252],[8.99861,41.863],[8.99603,41.85796],[9.00764,41.83126],[9.00596,41.83108],[9.00637,41.82831],[9.00437,41.82631],[9.00084,41.8272],[8.97477,41.81209],[8.96247,41.80902],[8.95749,41.81093]]]]}},{"type":"Feature","properties":{"code":"2A362","nom":"Zonza","departement":"2A","region":"94"},"geometry":{"type":"MultiPolygon","coordinates":[[[[9.13732,41.73842],[9.14038,41.74177],[9.15138,41.75037],[9.16569,41.76407],[9.18018,41.77163],[9.18836,41.77309],[9.19338,41.77475],[9.20973,41.78629],[9.21849,41.79377],[9.226,41.79144],[9.2344,41.78195],[9.23195,41.77443],[9.24696,41.76639],[9.26561,41.76014],[9.30744,41.74971],[9.31786,41.74615],[9.31375,41.73853],[9.30885,41.7196],[9.30415,41.71544],[9.30458,41.71389],[9.31703,41.70831],[9.33651,41.70299],[9.34762,41.70211],[9.35727,41.70455],[9.36296,41.70778],[9.36629,41.7129],[9.36775,41.72069],[9.38208,41.72473],[9.38868,41.72326],[9.40136,41.71792],[9.40246,41.7087],[9.40019,41.69751],[9.38091,41.68784],[9.37245,41.6789],[9.37313,41.67483],[9.37505,41.67109],[9.38244,41.66598],[9.38698,41.65858],[9.38648,41.65607],[9.382,41.64865],[9.37969,41.64661],[9.36254,41.63999],[9.35819,41.6412],[9.3511,41.63975],[9.34337,41.65176],[9.33812,41.6682],[9.34272,41.67226],[9.34411,41.67452],[9.34383,41.68072],[9.34244,41.68398],[9.33106,41.69304],[9.32478,41.69632],[9.31918,41.69838],[9.30806,41.69639],[9.30191,41.69749],[9.29914,41.69965],[9.29345,41.70117],[9.2748,41.69844],[9.25788,41.69101],[9.24399,41.68248],[9.23976,41.6862],[9.22174,41.68985],[9.20298,41.69547],[9.1836,41.71096],[9.17041,41.71825],[9.16847,41.72271],[9.16836,41.72726],[9.16646,41.73208],[9.15584,41.73792],[9.1471,41.73912],[9.13732,41.73842]]]]}},{"type":"Feature","properties":{"code":"2A363","nom":"Zoza","departement":"2A","region":"94"},"geometry":{"type":"MultiPolygon","coordinates":[[[[9.05592,41.72054],[9.07885,41.73159],[9.08336,41.73784],[9.08672,41.73316],[9.08802,41.72918],[9.08764,41.72387],[9.09068,41.7213],[9.07678,41.71381],[9.06359,41.71232],[9.05301,41.70953],[9.05471,41.70801],[9.05289,41.70742],[9.05156,41.70799],[9.05069,41.70994],[9.04915,41.71169],[9.05592,41.72054]]]]}}]}