{"type":"FeatureCollection","features":[{"type":"Feature","properties":{"code":"75056","nom":"Paris","departement":"75","region":"11"},"geometry":{"type":"MultiPolygon","coordinates":[[[[2.26734,48.83153],[2.26993,48.83301],[2.26779,48.83459],[2.26499,48.83424],[2.26279,48.83392],[2.26149,48.83407],[2.25507,48.8349],[2.25355,48.83668],[2.2535,48.83673],[2.2523,48.83814],[2.25193,48.83862],[2.25131,48.84206],[2.25248,48.84549],[2.24551,48.84686],[2.24196,48.84798],[2.23977,48.84983],[2.23778,48.85035],[2.22422,48.85352],[2.22567,48.8594],[2.22962,48.86685],[2.23174,48.86907],[2.24095,48.87234],[2.2457,48.87646],[2.2464,48.87618],[2.25541,48.87426],[2.25606,48.87556],[2.25847,48.88039],[2.26154,48.88],[2.27075,48.87883],[2.27749,48.87797],[2.27995,48.87857],[2.27996,48.87862],[2.28067,48.88177],[2.2809,48.88279],[2.28111,48.88304],[2.28446,48.88564],[2.28711,48.88728],[2.28869,48.88805],[2.29053,48.88896],[2.29178,48.88947],[2.29275,48.88959],[2.29558,48.89015],[2.29733,48.89105],[2.29961,48.89217],[2.30059,48.89263],[2.30377,48.89415],[2.30868,48.89638],[2.30953,48.8967],[2.31511,48.89859],[2.31989,48.90046],[2.32584,48.90095],[2.32974,48.90104],[2.33015,48.90104],[2.33474,48.90114],[2.33517,48.90115],[2.34376,48.90132],[2.34413,48.90133],[2.34771,48.9014],[2.35198,48.90148],[2.3587,48.90162],[2.36562,48.90176],[2.3703,48.90185],[2.37978,48.90205],[2.38035,48.90206],[2.38487,48.90208],[2.38933,48.90116],[2.39084,48.90091],[2.39599,48.89751],[2.39824,48.89264],[2.39877,48.89026],[2.39894,48.88953],[2.39989,48.8842],[2.40365,48.88168],[2.40844,48.88044],[2.41082,48.87844],[2.41221,48.87674],[2.41343,48.87314],[2.41365,48.8724],[2.41393,48.86953],[2.41398,48.86518],[2.41412,48.86351],[2.4147,48.8587],[2.41478,48.85825],[2.41529,48.85518],[2.41544,48.85439],[2.41634,48.84923],[2.41598,48.84669],[2.41597,48.84662],[2.4153,48.84385],[2.41485,48.84238],[2.41405,48.83976],[2.41285,48.83622],[2.41147,48.83393],[2.41547,48.83379],[2.4198,48.83498],[2.42214,48.8358],[2.42148,48.8371],[2.41954,48.84145],[2.41986,48.84346],[2.42185,48.84444],[2.42435,48.84195],[2.42758,48.84157],[2.43153,48.84123],[2.43718,48.84089],[2.43796,48.84466],[2.44052,48.84444],[2.44076,48.84596],[2.44665,48.8458],[2.4465,48.84497],[2.44785,48.84486],[2.46179,48.84273],[2.46526,48.84117],[2.46732,48.8391],[2.4698,48.83655],[2.4695,48.83447],[2.46558,48.83146],[2.46523,48.82767],[2.46618,48.82733],[2.46573,48.82623],[2.46571,48.82617],[2.4627,48.81906],[2.46121,48.81836],[2.45872,48.81703],[2.4542,48.81712],[2.43985,48.81829],[2.43429,48.82016],[2.43063,48.82316],[2.42288,48.82413],[2.41996,48.82408],[2.41787,48.8245],[2.40996,48.82518],[2.40381,48.82906],[2.40151,48.82936],[2.40103,48.82921],[2.39934,48.82867],[2.39095,48.82608],[2.39007,48.82569],[2.3888,48.82511],[2.3833,48.82304],[2.37908,48.82116],[2.37576,48.82006],[2.36693,48.81725],[2.3642,48.8164],[2.36068,48.81607],[2.36053,48.81607],[2.35842,48.81601],[2.35623,48.81594],[2.35338,48.8178],[2.35239,48.81855],[2.3486,48.81678],[2.34434,48.8156],[2.3439,48.81577],[2.33728,48.81656],[2.3319,48.81701],[2.33246,48.81825],[2.3293,48.81895],[2.3255,48.81979],[2.32396,48.82012],[2.32104,48.82077],[2.31462,48.82219],[2.31415,48.82229],[2.30835,48.82356],[2.30696,48.82387],[2.30686,48.82389],[2.30407,48.82453],[2.3021,48.82495],[2.30132,48.82513],[2.29697,48.82608],[2.29229,48.82712],[2.29219,48.82714],[2.28941,48.82833],[2.28468,48.83031],[2.28039,48.83198],[2.27911,48.83247],[2.27285,48.82796],[2.2711,48.82789],[2.26783,48.82784],[2.26734,48.83153]]]]}}]}