{"type":"FeatureCollection","features":[{"type":"Feature","properties":{"code":"84025","nom":"Cabrières-d'Avignon","departement":"84","region":"93"},"geometry":{"type":"MultiPolygon","coordinates":[[[[5.16662,43.86442],[5.14806,43.86801],[5.13665,43.8686],[5.13591,43.87227],[5.13183,43.87944],[5.13405,43.8871],[5.15123,43.91917],[5.15118,43.92614],[5.15418,43.94005],[5.15556,43.94206],[5.1594,43.94221],[5.15951,43.93793],[5.16556,43.931],[5.16694,43.92351],[5.1647,43.9095],[5.16512,43.89063],[5.16708,43.87085],[5.16662,43.86442]]]]}},{"type":"Feature","properties":{"code":"84026","nom":"Cadenet","departement":"84","region":"93"},"geometry":{"type":"MultiPolygon","coordinates":[[[[5.42795,43.73299],[5.42835,43.72935],[5.42071,43.71676],[5.41753,43.71494],[5.40868,43.71257],[5.39363,43.70996],[5.3881,43.7022],[5.38276,43.70343],[5.37435,43.70805],[5.37092,43.70901],[5.3436,43.71857],[5.35495,43.72955],[5.34756,43.73788],[5.35139,43.75126],[5.35401,43.75407],[5.36596,43.75176],[5.38045,43.75377],[5.38629,43.75757],[5.39017,43.75664],[5.41189,43.7385],[5.42363,43.73406],[5.42795,43.73299]]]]}},{"type":"Feature","properties":{"code":"84001","nom":"Althen-des-Paluds","departement":"84","region":"93"},"geometry":{"type":"MultiPolygon","coordinates":[[[[4.93643,44.02464],[4.9419,44.02405],[4.94633,44.02247],[4.95426,44.01864],[4.95872,44.01511],[4.96391,44.01096],[4.97327,44.00527],[4.98087,43.99642],[4.97457,43.99118],[4.96284,43.98557],[4.95333,43.99889],[4.94392,44.00903],[4.93606,44.02454],[4.93643,44.02464]]]]}},{"type":"Feature","properties":{"code":"84002","nom":"Ansouis","departement":"84","region":"93"},"geometry":{"type":"MultiPolygon","coordinates":[[[[5.50869,43.72732],[5.503,43.72689],[5.47726,43.71984],[5.4652,43.71457],[5.45592,43.7282],[5.43872,43.73295],[5.42795,43.73299],[5.42363,43.73406],[5.4301,43.74247],[5.433,43.74446],[5.44599,43.75029],[5.46485,43.75013],[5.47273,43.75263],[5.47832,43.7505],[5.48476,43.74916],[5.49166,43.74841],[5.50098,43.7485],[5.51119,43.74698],[5.51113,43.73519],[5.50869,43.72732]]]]}},{"type":"Feature","properties":{"code":"84003","nom":"Apt","departement":"84","region":"93"},"geometry":{"type":"MultiPolygon","coordinates":[[[[5.4228,43.87852],[5.42043,43.8746],[5.41559,43.87158],[5.41297,43.86833],[5.41004,43.86037],[5.40898,43.85371],[5.40426,43.84573],[5.39602,43.84566],[5.38146,43.84769],[5.37419,43.84727],[5.35916,43.84471],[5.35793,43.8418],[5.34806,43.85228],[5.34507,43.8634],[5.34037,43.86616],[5.32917,43.86288],[5.326,43.85984],[5.31431,43.86068],[5.30653,43.8626],[5.30695,43.86363],[5.30992,43.86536],[5.31906,43.86769],[5.3231,43.87145],[5.33553,43.87835],[5.35088,43.88955],[5.36032,43.88873],[5.36759,43.88655],[5.37081,43.88968],[5.3763,43.90168],[5.37435,43.90635],[5.37907,43.91167],[5.39305,43.91228],[5.39472,43.91128],[5.39641,43.90617],[5.40468,43.90199],[5.40968,43.90146],[5.41961,43.90741],[5.4334,43.92016],[5.43763,43.92117],[5.4394,43.91878],[5.4552,43.90543],[5.45637,43.90404],[5.45515,43.90123],[5.45249,43.89569],[5.44692,43.89908],[5.44372,43.8952],[5.44163,43.88982],[5.42878,43.88172],[5.42285,43.88112],[5.4228,43.87852]]]]}},{"type":"Feature","properties":{"code":"84004","nom":"Aubignan","departement":"84","region":"93"},"geometry":{"type":"MultiPolygon","coordinates":[[[[4.99308,44.09551],[4.99199,44.10079],[5.01465,44.10964],[5.02043,44.11474],[5.02663,44.11727],[5.03627,44.11634],[5.03667,44.11395],[5.0428,44.11163],[5.06064,44.10765],[5.07044,44.10638],[5.07424,44.1018],[5.07353,44.09599],[5.06525,44.09152],[5.06203,44.09496],[5.05596,44.09709],[5.04643,44.09602],[5.04709,44.09216],[5.05106,44.08589],[5.05114,44.08199],[5.05018,44.07996],[5.04389,44.07557],[5.04103,44.07461],[5.03389,44.07616],[5.03092,44.07815],[5.02634,44.0833],[5.02056,44.08693],[5.00689,44.09006],[4.99383,44.09461],[4.99308,44.09551]]]]}},{"type":"Feature","properties":{"code":"84005","nom":"Aurel","departement":"84","region":"93"},"geometry":{"type":"MultiPolygon","coordinates":[[[[5.43598,44.15251],[5.43654,44.14017],[5.43928,44.13782],[5.44775,44.13692],[5.44914,44.1268],[5.45473,44.11917],[5.44749,44.11384],[5.44646,44.11001],[5.43201,44.11198],[5.4196,44.11633],[5.41135,44.12023],[5.3673,44.13162],[5.34807,44.1356],[5.33786,44.14604],[5.3264,44.15959],[5.33637,44.15765],[5.35493,44.16031],[5.3589,44.15771],[5.36929,44.15504],[5.3832,44.15536],[5.39642,44.15211],[5.41542,44.15533],[5.41693,44.15509],[5.42366,44.14924],[5.42725,44.14903],[5.43598,44.15251]]]]}},{"type":"Feature","properties":{"code":"84006","nom":"Auribeau","departement":"84","region":"93"},"geometry":{"type":"MultiPolygon","coordinates":[[[[5.46454,43.84148],[5.46259,43.83027],[5.46315,43.82514],[5.46716,43.8153],[5.46487,43.81461],[5.45668,43.81433],[5.44997,43.81525],[5.44533,43.81765],[5.44564,43.81932],[5.42169,43.8391],[5.43042,43.84282],[5.43303,43.84321],[5.46454,43.84148]]]]}},{"type":"Feature","properties":{"code":"84007","nom":"Avignon","departement":"84","region":"93"},"geometry":{"type":"MultiPolygon","coordinates":[[[[4.82121,43.91295],[4.81129,43.91436],[4.8106,43.91445],[4.77688,43.91926],[4.77363,43.91973],[4.73928,43.92413],[4.74396,43.92886],[4.74985,43.93215],[4.76147,43.93491],[4.76878,43.93381],[4.77742,43.93706],[4.78138,43.94033],[4.78863,43.94692],[4.7919,43.9524],[4.79683,43.95645],[4.80959,43.96069],[4.81296,43.96296],[4.81473,43.96532],[4.81459,43.96963],[4.80968,43.97775],[4.81078,43.98412],[4.81276,43.98779],[4.81473,43.98864],[4.8178,43.98874],[4.83338,43.98511],[4.8409,43.98593],[4.84274,43.98694],[4.84438,43.98931],[4.84557,43.99664],[4.8516,43.98905],[4.85468,43.98214],[4.85385,43.96961],[4.85284,43.96702],[4.85072,43.96442],[4.84565,43.96039],[4.83909,43.95955],[4.83901,43.95874],[4.83818,43.95484],[4.83809,43.95423],[4.8381,43.95246],[4.84248,43.95249],[4.84722,43.95148],[4.85785,43.95079],[4.85841,43.95072],[4.85865,43.95075],[4.86345,43.95218],[4.87125,43.95321],[4.88413,43.95294],[4.88703,43.9506],[4.89086,43.94552],[4.8908,43.94179],[4.89081,43.93845],[4.89562,43.93682],[4.89967,43.9306],[4.89693,43.91776],[4.89794,43.9153],[4.89973,43.91441],[4.9095,43.91195],[4.92723,43.90546],[4.92582,43.90291],[4.92249,43.90045],[4.92293,43.88911],[4.92221,43.88659],[4.90769,43.88647],[4.90228,43.88823],[4.88534,43.90003],[4.88117,43.90169],[4.85305,43.91131],[4.83327,43.91235],[4.82121,43.91295]]]]}},{"type":"Feature","properties":{"code":"84008","nom":"Le Barroux","departement":"84","region":"93"},"geometry":{"type":"MultiPolygon","coordinates":[[[[5.07428,44.15861],[5.07416,44.15965],[5.07687,44.15988],[5.08014,44.16231],[5.0826,44.16884],[5.07511,44.18121],[5.07388,44.18799],[5.08401,44.18425],[5.09597,44.17604],[5.10579,44.1673],[5.12938,44.15548],[5.13399,44.15045],[5.13509,44.14787],[5.1343,44.14442],[5.13197,44.14171],[5.1326,44.14056],[5.1219,44.14019],[5.11155,44.13785],[5.09803,44.13129],[5.09197,44.13008],[5.09243,44.1312],[5.09112,44.13297],[5.08473,44.13255],[5.08064,44.14565],[5.07428,44.15861]]]]}},{"type":"Feature","properties":{"code":"84009","nom":"La Bastide-des-Jourdans","departement":"84","region":"93"},"geometry":{"type":"MultiPolygon","coordinates":[[[[5.64604,43.82631],[5.65448,43.82517],[5.65661,43.81919],[5.66545,43.81082],[5.66805,43.80924],[5.6743,43.80756],[5.67448,43.80562],[5.68293,43.79261],[5.69478,43.78418],[5.67897,43.77258],[5.66771,43.76587],[5.65973,43.76517],[5.65398,43.76786],[5.64661,43.77495],[5.64355,43.77963],[5.63898,43.7831],[5.62876,43.7834],[5.62408,43.78279],[5.61551,43.77894],[5.60624,43.77944],[5.59371,43.78233],[5.6067,43.79039],[5.6108,43.79384],[5.61256,43.80379],[5.61576,43.81089],[5.6227,43.81818],[5.6261,43.8202],[5.64421,43.8214],[5.64604,43.82631]]]]}},{"type":"Feature","properties":{"code":"84010","nom":"La Bastidonne","departement":"84","region":"93"},"geometry":{"type":"MultiPolygon","coordinates":[[[[5.5993,43.67791],[5.58631,43.68018],[5.56503,43.69028],[5.55994,43.6989],[5.5579,43.69987],[5.55402,43.70001],[5.5542,43.70334],[5.55575,43.70679],[5.56697,43.70637],[5.58003,43.7039],[5.58894,43.69934],[5.59286,43.69474],[5.59978,43.68351],[5.5993,43.67791]]]]}},{"type":"Feature","properties":{"code":"84011","nom":"Le Beaucet","departement":"84","region":"93"},"geometry":{"type":"MultiPolygon","coordinates":[[[[5.10384,43.99758],[5.10947,44.00131],[5.11358,44.00259],[5.12056,43.99928],[5.1208,43.99708],[5.12196,43.99674],[5.12552,43.99262],[5.13574,43.97607],[5.15022,43.96715],[5.15797,43.96053],[5.16438,43.95122],[5.16026,43.95035],[5.15975,43.94952],[5.14197,43.95458],[5.13393,43.95607],[5.13016,43.95567],[5.13229,43.95868],[5.13035,43.96506],[5.12114,43.97095],[5.11587,43.97609],[5.10837,43.98767],[5.10384,43.99758]]]]}},{"type":"Feature","properties":{"code":"84012","nom":"Beaumes-de-Venise","departement":"84","region":"93"},"geometry":{"type":"MultiPolygon","coordinates":[[[[4.99199,44.10079],[4.98828,44.1174],[4.98481,44.1255],[4.99578,44.12582],[5.00064,44.13159],[5.00047,44.13305],[4.99692,44.13578],[4.99528,44.13847],[5.00397,44.13713],[5.02153,44.13679],[5.02612,44.13981],[5.03419,44.14308],[5.03807,44.14392],[5.0412,44.14358],[5.05303,44.13802],[5.0557,44.13806],[5.06003,44.13724],[5.0709,44.13227],[5.06908,44.13006],[5.06353,44.12745],[5.06283,44.12457],[5.06382,44.1166],[5.06772,44.10903],[5.07044,44.10638],[5.06064,44.10765],[5.0428,44.11163],[5.03667,44.11395],[5.03627,44.11634],[5.02663,44.11727],[5.02043,44.11474],[5.01465,44.10964],[4.99199,44.10079]]]]}},{"type":"Feature","properties":{"code":"84013","nom":"Beaumettes","departement":"84","region":"93"},"geometry":{"type":"MultiPolygon","coordinates":[[[[5.19878,43.87125],[5.20582,43.87046],[5.21551,43.86701],[5.21374,43.86037],[5.21458,43.85594],[5.2101,43.85522],[5.18835,43.8601],[5.19462,43.86914],[5.19878,43.87125]]]]}},{"type":"Feature","properties":{"code":"84014","nom":"Beaumont-de-Pertuis","departement":"84","region":"93"},"geometry":{"type":"MultiPolygon","coordinates":[[[[5.71289,43.78112],[5.71406,43.77348],[5.71379,43.76712],[5.71645,43.75569],[5.74818,43.74126],[5.75669,43.73161],[5.75734,43.7294],[5.75348,43.72462],[5.74823,43.71985],[5.7406,43.71806],[5.73738,43.71641],[5.71724,43.69345],[5.714,43.69127],[5.70969,43.69004],[5.70633,43.69001],[5.68296,43.69286],[5.69085,43.69655],[5.69535,43.70543],[5.68969,43.70779],[5.68481,43.71129],[5.68169,43.71637],[5.67474,43.71946],[5.64605,43.72461],[5.64105,43.74076],[5.64413,43.743],[5.64509,43.74483],[5.64122,43.75298],[5.64033,43.75746],[5.64097,43.7594],[5.64214,43.76126],[5.65398,43.76786],[5.65973,43.76517],[5.66771,43.76587],[5.67897,43.77258],[5.69478,43.78418],[5.71289,43.78112]]]]}},{"type":"Feature","properties":{"code":"84015","nom":"Beaumont-du-Ventoux","departement":"84","region":"93"},"geometry":{"type":"MultiPolygon","coordinates":[[[[5.24269,44.20141],[5.24235,44.19806],[5.25281,44.19324],[5.26228,44.19215],[5.2774,44.18795],[5.2808,44.18414],[5.27833,44.17397],[5.27141,44.17234],[5.2624,44.17402],[5.25043,44.1737],[5.23755,44.17224],[5.21306,44.16736],[5.17303,44.16261],[5.1725,44.16449],[5.1652,44.17163],[5.15974,44.17869],[5.15833,44.18638],[5.15977,44.19682],[5.18493,44.19598],[5.20936,44.19973],[5.2187,44.19776],[5.23753,44.19744],[5.2397,44.19781],[5.24269,44.20141]]]]}},{"type":"Feature","properties":{"code":"84016","nom":"Bédarrides","departement":"84","region":"93"},"geometry":{"type":"MultiPolygon","coordinates":[[[[4.89755,44.03162],[4.88898,44.03365],[4.88546,44.0345],[4.88604,44.03537],[4.88419,44.036],[4.87638,44.03155],[4.87399,44.0314],[4.8622,44.03604],[4.86502,44.04247],[4.86404,44.05462],[4.86534,44.05696],[4.88702,44.05945],[4.8996,44.06459],[4.90486,44.06875],[4.91149,44.07242],[4.92878,44.07198],[4.93367,44.07461],[4.93287,44.07588],[4.93522,44.07669],[4.939,44.07029],[4.94222,44.05403],[4.94368,44.04719],[4.94233,44.04614],[4.93785,44.04506],[4.93681,44.0322],[4.93643,44.02464],[4.93606,44.02454],[4.91851,44.02059],[4.91921,44.01965],[4.91522,44.01894],[4.91302,44.02679],[4.9068,44.03068],[4.89996,44.03189],[4.89755,44.03162]]]]}},{"type":"Feature","properties":{"code":"84017","nom":"Bédoin","departement":"84","region":"93"},"geometry":{"type":"MultiPolygon","coordinates":[[[[5.3264,44.15959],[5.3279,44.155],[5.32557,44.14303],[5.32128,44.13769],[5.31682,44.13479],[5.31497,44.13114],[5.31546,44.12198],[5.31666,44.11765],[5.31507,44.11859],[5.30633,44.11825],[5.28162,44.11258],[5.26346,44.11164],[5.26022,44.1092],[5.24943,44.10531],[5.23304,44.10257],[5.20583,44.10064],[5.19923,44.1],[5.1697,44.09322],[5.16355,44.09258],[5.15982,44.09948],[5.16458,44.10582],[5.16889,44.11675],[5.16803,44.12095],[5.16556,44.12426],[5.14252,44.13934],[5.14051,44.14071],[5.14255,44.14537],[5.15379,44.15375],[5.15971,44.15679],[5.17118,44.16069],[5.17303,44.16261],[5.21306,44.16736],[5.23755,44.17224],[5.25043,44.1737],[5.2624,44.17402],[5.27141,44.17234],[5.27833,44.17397],[5.28053,44.17489],[5.28366,44.17423],[5.31025,44.16279],[5.3264,44.15959]]]]}},{"type":"Feature","properties":{"code":"84018","nom":"Blauvac","departement":"84","region":"93"},"geometry":{"type":"MultiPolygon","coordinates":[[[[5.17137,44.03409],[5.17345,44.03478],[5.18105,44.03511],[5.18585,44.03663],[5.1971,44.03807],[5.20352,44.04059],[5.21102,44.04237],[5.22247,44.04401],[5.23319,44.04378],[5.24164,44.04231],[5.24923,44.04375],[5.26291,44.05153],[5.26853,44.05389],[5.2844,44.05393],[5.29479,44.05592],[5.2974,44.05781],[5.30094,44.06511],[5.30636,44.06493],[5.31237,44.04234],[5.30512,44.04121],[5.29086,44.04128],[5.28596,44.04504],[5.27942,44.04575],[5.26853,44.03747],[5.25287,44.03137],[5.2224,44.02547],[5.21284,44.01989],[5.20765,44.01496],[5.19471,44.00736],[5.19089,44.00686],[5.1904,44.00604],[5.18612,44.00603],[5.18483,44.00902],[5.18766,44.00953],[5.19308,44.0122],[5.19707,44.0174],[5.19746,44.01944],[5.19485,44.0219],[5.18542,44.02767],[5.17131,44.03314],[5.17137,44.03409]]]]}},{"type":"Feature","properties":{"code":"84019","nom":"Bollène","departement":"84","region":"93"},"geometry":{"type":"MultiPolygon","coordinates":[[[[4.77595,44.2506],[4.76483,44.25021],[4.75807,44.251],[4.75276,44.25387],[4.73168,44.25474],[4.72203,44.25592],[4.72068,44.25661],[4.72242,44.26148],[4.71749,44.26473],[4.70195,44.26725],[4.7018,44.26658],[4.69996,44.26672],[4.69816,44.27054],[4.69578,44.2816],[4.69562,44.28324],[4.70928,44.29233],[4.71164,44.29616],[4.71453,44.3077],[4.71313,44.32053],[4.71242,44.32381],[4.71373,44.32556],[4.71792,44.32695],[4.72154,44.32652],[4.75109,44.32515],[4.76293,44.32552],[4.77583,44.31806],[4.78347,44.31639],[4.79069,44.3076],[4.79941,44.30345],[4.80458,44.30383],[4.80313,44.2978],[4.80349,44.27808],[4.80458,44.2777],[4.80645,44.27349],[4.80403,44.26916],[4.7899,44.25983],[4.77595,44.2506]]]]}},{"type":"Feature","properties":{"code":"84020","nom":"Bonnieux","departement":"84","region":"93"},"geometry":{"type":"MultiPolygon","coordinates":[[[[5.26768,43.85395],[5.2907,43.8609],[5.29637,43.86308],[5.30024,43.86614],[5.30682,43.87787],[5.31119,43.88238],[5.31681,43.86918],[5.31906,43.86769],[5.30992,43.86536],[5.30695,43.86363],[5.30653,43.8626],[5.31431,43.86068],[5.326,43.85984],[5.32917,43.86288],[5.34037,43.86616],[5.34507,43.8634],[5.34806,43.85228],[5.35793,43.8418],[5.35886,43.8413],[5.35782,43.83382],[5.35853,43.8283],[5.36205,43.81971],[5.34782,43.81175],[5.34634,43.80995],[5.34422,43.80668],[5.34257,43.7991],[5.34396,43.79408],[5.33146,43.78519],[5.32202,43.78297],[5.31855,43.78638],[5.27022,43.79313],[5.27308,43.81321],[5.27603,43.82077],[5.28237,43.82948],[5.28367,43.83342],[5.28372,43.83921],[5.27669,43.84941],[5.26974,43.85409],[5.26768,43.85395]]]]}},{"type":"Feature","properties":{"code":"84021","nom":"Brantes","departement":"84","region":"93"},"geometry":{"type":"MultiPolygon","coordinates":[[[[5.35493,44.16031],[5.33637,44.15765],[5.3264,44.15959],[5.31025,44.16279],[5.28366,44.17423],[5.28053,44.17489],[5.27833,44.17397],[5.28959,44.18262],[5.30556,44.19049],[5.30958,44.19419],[5.3105,44.19664],[5.30702,44.20366],[5.30327,44.2057],[5.30367,44.20657],[5.31025,44.20873],[5.31873,44.20997],[5.33099,44.20421],[5.33672,44.20341],[5.34759,44.21042],[5.35781,44.21285],[5.37663,44.20526],[5.38468,44.20111],[5.38317,44.1991],[5.37796,44.20009],[5.37175,44.19701],[5.36609,44.19076],[5.35727,44.17358],[5.35493,44.16031]]]]}},{"type":"Feature","properties":{"code":"84022","nom":"Buisson","departement":"84","region":"93"},"geometry":{"type":"MultiPolygon","coordinates":[[[[4.98947,44.28596],[4.99775,44.28572],[5.00467,44.28645],[5.01702,44.29269],[5.02415,44.28482],[5.02529,44.27295],[5.02571,44.26974],[5.02543,44.26907],[4.9942,44.25902],[4.98956,44.26485],[4.99077,44.26544],[4.98069,44.26856],[4.97462,44.27421],[4.97129,44.27982],[4.98094,44.28467],[4.98511,44.28587],[4.98947,44.28596]]]]}},{"type":"Feature","properties":{"code":"84023","nom":"Buoux","departement":"84","region":"93"},"geometry":{"type":"MultiPolygon","coordinates":[[[[5.40426,43.84573],[5.40789,43.83703],[5.39231,43.82898],[5.39195,43.82501],[5.39632,43.816],[5.39899,43.80746],[5.39312,43.80524],[5.39014,43.80241],[5.37201,43.80174],[5.35616,43.79405],[5.34396,43.79408],[5.34257,43.7991],[5.34422,43.80668],[5.34634,43.80995],[5.34782,43.81175],[5.36205,43.81971],[5.35853,43.8283],[5.35782,43.83382],[5.35886,43.8413],[5.35793,43.8418],[5.35916,43.84471],[5.37419,43.84727],[5.38146,43.84769],[5.39602,43.84566],[5.40426,43.84573]]]]}},{"type":"Feature","properties":{"code":"84024","nom":"Cabrières-d'Aigues","departement":"84","region":"93"},"geometry":{"type":"MultiPolygon","coordinates":[[[[5.47484,43.77046],[5.47538,43.77201],[5.47065,43.78215],[5.4702,43.78752],[5.47214,43.79393],[5.46978,43.80673],[5.46487,43.81461],[5.46716,43.8153],[5.47879,43.81629],[5.48908,43.81825],[5.51184,43.8189],[5.50843,43.80368],[5.50963,43.79517],[5.51268,43.78571],[5.5133,43.77167],[5.50459,43.75853],[5.49883,43.75748],[5.49176,43.76195],[5.49021,43.76513],[5.48642,43.76873],[5.47484,43.77046]]]]}},{"type":"Feature","properties":{"code":"84027","nom":"Caderousse","departement":"84","region":"93"},"geometry":{"type":"MultiPolygon","coordinates":[[[[4.71812,44.15233],[4.72075,44.15278],[4.72413,44.15137],[4.72643,44.14936],[4.72648,44.14724],[4.72756,44.14601],[4.73559,44.13855],[4.74066,44.13818],[4.7483,44.13549],[4.76823,44.125],[4.7793,44.12191],[4.78601,44.11107],[4.7844,44.11124],[4.78336,44.09911],[4.78443,44.08913],[4.77407,44.08271],[4.76054,44.07898],[4.75975,44.08194],[4.76079,44.08671],[4.75741,44.08806],[4.75222,44.08825],[4.73787,44.0838],[4.73036,44.07912],[4.72692,44.07828],[4.72365,44.07902],[4.72088,44.08133],[4.71968,44.08608],[4.71978,44.08976],[4.71859,44.09238],[4.70862,44.1022],[4.70607,44.1078],[4.70693,44.11365],[4.71069,44.11952],[4.71166,44.13463],[4.71745,44.14158],[4.71905,44.14668],[4.71812,44.15233]]]]}},{"type":"Feature","properties":{"code":"84028","nom":"Cairanne","departement":"84","region":"93"},"geometry":{"type":"MultiPolygon","coordinates":[[[[4.92638,44.25262],[4.93096,44.25181],[4.93337,44.24962],[4.93853,44.24862],[4.95151,44.25011],[4.95563,44.25346],[4.9642,44.25679],[4.96584,44.25664],[4.96996,44.25416],[4.96384,44.24854],[4.96102,44.24404],[4.96341,44.23119],[4.96301,44.22578],[4.94887,44.20231],[4.93553,44.19854],[4.93509,44.20502],[4.93288,44.20897],[4.92912,44.21061],[4.9155,44.20812],[4.91496,44.21084],[4.90906,44.21368],[4.90336,44.21813],[4.89867,44.23271],[4.89741,44.23935],[4.89784,44.24244],[4.91665,44.25145],[4.92449,44.25294],[4.92638,44.25262]]]]}},{"type":"Feature","properties":{"code":"84029","nom":"Camaret-sur-Aigues","departement":"84","region":"93"},"geometry":{"type":"MultiPolygon","coordinates":[[[[4.87389,44.13464],[4.87301,44.13474],[4.87094,44.14004],[4.86421,44.14738],[4.85684,44.14963],[4.85159,44.15031],[4.84766,44.15323],[4.84628,44.16058],[4.84807,44.1684],[4.85188,44.17594],[4.85646,44.17418],[4.87205,44.17563],[4.87258,44.17408],[4.87746,44.17161],[4.88188,44.17158],[4.88788,44.17367],[4.88985,44.1752],[4.8979,44.17477],[4.9118,44.17172],[4.92232,44.17355],[4.93564,44.17354],[4.936,44.17018],[4.93208,44.16206],[4.92075,44.16071],[4.91584,44.16063],[4.9115,44.15784],[4.90167,44.14877],[4.89128,44.14414],[4.88396,44.13926],[4.87868,44.13397],[4.87389,44.13464]]]]}},{"type":"Feature","properties":{"code":"84030","nom":"Caromb","departement":"84","region":"93"},"geometry":{"type":"MultiPolygon","coordinates":[[[[5.09197,44.13008],[5.09803,44.13129],[5.11155,44.13785],[5.1219,44.14019],[5.1326,44.14056],[5.13901,44.13576],[5.13097,44.12733],[5.12536,44.11775],[5.1195,44.10462],[5.1188,44.1],[5.11929,44.08526],[5.11726,44.08254],[5.10199,44.07928],[5.09923,44.08455],[5.09329,44.0849],[5.09181,44.08582],[5.08935,44.0955],[5.09078,44.09918],[5.08693,44.1011],[5.07661,44.10339],[5.0819,44.11411],[5.08717,44.12069],[5.09197,44.13008]]]]}},{"type":"Feature","properties":{"code":"84031","nom":"Carpentras","departement":"84","region":"93"},"geometry":{"type":"MultiPolygon","coordinates":[[[[5.08693,44.05989],[5.08979,44.05902],[5.09476,44.05573],[5.09988,44.0503],[5.09948,44.04652],[5.09239,44.02903],[5.09444,44.02733],[5.08198,44.02946],[5.06039,44.02981],[5.05713,44.0289],[5.05238,44.02758],[5.04269,44.02767],[5.03594,44.02233],[5.02789,44.03038],[5.0245,44.04448],[5.0239,44.04599],[5.02275,44.04708],[5.0149,44.05969],[5.0165,44.05968],[5.02684,44.067],[5.03061,44.07441],[5.03209,44.0763],[5.03389,44.07616],[5.04103,44.07461],[5.04389,44.07557],[5.05018,44.07996],[5.05114,44.08199],[5.05106,44.08589],[5.04709,44.09216],[5.04643,44.09602],[5.05596,44.09709],[5.06203,44.09496],[5.06525,44.09152],[5.07353,44.09599],[5.07424,44.1018],[5.07661,44.10339],[5.08693,44.1011],[5.09078,44.09918],[5.08935,44.0955],[5.09181,44.08582],[5.09329,44.0849],[5.09923,44.08455],[5.10199,44.07928],[5.089,44.07486],[5.08299,44.07063],[5.08338,44.06692],[5.0864,44.06093],[5.08693,44.05989]]]]}},{"type":"Feature","properties":{"code":"84032","nom":"Caseneuve","departement":"84","region":"93"},"geometry":{"type":"MultiPolygon","coordinates":[[[[5.51128,43.89369],[5.50996,43.89358],[5.50062,43.88309],[5.49094,43.87545],[5.46669,43.86091],[5.46496,43.8613],[5.46121,43.86413],[5.45365,43.87117],[5.44897,43.87683],[5.44659,43.88142],[5.45249,43.89569],[5.45515,43.90123],[5.46815,43.90199],[5.48087,43.9045],[5.49325,43.90851],[5.51125,43.90824],[5.51411,43.91007],[5.52237,43.90895],[5.52173,43.90567],[5.51585,43.90175],[5.51128,43.89369]]]]}},{"type":"Feature","properties":{"code":"84033","nom":"Castellet-en-Luberon","departement":"84","region":"93"},"geometry":{"type":"MultiPolygon","coordinates":[[[[5.46716,43.8153],[5.46315,43.82514],[5.46259,43.83027],[5.46454,43.84148],[5.4676,43.84692],[5.47403,43.85116],[5.47662,43.85181],[5.48048,43.84968],[5.50302,43.84809],[5.50735,43.84665],[5.51096,43.84305],[5.50883,43.84022],[5.49656,43.83624],[5.48998,43.82246],[5.48908,43.81825],[5.47879,43.81629],[5.46716,43.8153]]]]}},{"type":"Feature","properties":{"code":"84034","nom":"Caumont-sur-Durance","departement":"84","region":"93"},"geometry":{"type":"MultiPolygon","coordinates":[[[[4.96783,43.9117],[4.98671,43.89636],[4.9936,43.89252],[4.99559,43.89061],[4.98436,43.88854],[4.97448,43.88412],[4.97395,43.88256],[4.99221,43.84997],[4.97544,43.86679],[4.96616,43.87182],[4.94724,43.87758],[4.93046,43.88443],[4.92519,43.88658],[4.92221,43.88659],[4.92293,43.88911],[4.92249,43.90045],[4.92582,43.90291],[4.92723,43.90546],[4.92885,43.90979],[4.93144,43.91052],[4.93477,43.90939],[4.94108,43.90861],[4.95259,43.9107],[4.96569,43.91037],[4.96783,43.9117]]]]}},{"type":"Feature","properties":{"code":"84035","nom":"Cavaillon","departement":"84","region":"93"},"geometry":{"type":"MultiPolygon","coordinates":[[[[5.04846,43.87491],[5.06896,43.87351],[5.08462,43.85482],[5.08654,43.84702],[5.07756,43.84583],[5.07904,43.84354],[5.07855,43.84057],[5.06955,43.83074],[5.07664,43.82739],[5.09163,43.82206],[5.09301,43.82006],[5.09226,43.81841],[5.08182,43.81264],[5.07365,43.81071],[5.05516,43.80889],[5.05049,43.80735],[5.04291,43.80649],[5.04125,43.8112],[5.03547,43.81999],[5.03062,43.82659],[5.00485,43.84027],[4.99734,43.845],[4.99221,43.84997],[4.97395,43.88256],[4.97448,43.88412],[4.98436,43.88854],[4.99559,43.89061],[4.9987,43.88309],[5.02214,43.87907],[5.04846,43.87491]]]]}},{"type":"Feature","properties":{"code":"84036","nom":"Châteauneuf-de-Gadagne","departement":"84","region":"93"},"geometry":{"type":"MultiPolygon","coordinates":[[[[4.93144,43.91052],[4.93054,43.91162],[4.92595,43.91361],[4.92286,43.91826],[4.92071,43.92428],[4.92155,43.93514],[4.92033,43.94641],[4.9206,43.94894],[4.92345,43.95194],[4.9259,43.95287],[4.92754,43.95019],[4.92751,43.94708],[4.93032,43.94434],[4.93466,43.9427],[4.95394,43.94796],[4.95975,43.94877],[4.9629,43.9343],[4.96537,43.93072],[4.96651,43.92483],[4.96783,43.9117],[4.96569,43.91037],[4.95259,43.9107],[4.94108,43.90861],[4.93477,43.90939],[4.93144,43.91052]]]]}},{"type":"Feature","properties":{"code":"84037","nom":"Châteauneuf-du-Pape","departement":"84","region":"93"},"geometry":{"type":"MultiPolygon","coordinates":[[[[4.79569,44.04804],[4.78949,44.05152],[4.78748,44.05378],[4.78849,44.06216],[4.78791,44.06504],[4.79233,44.06798],[4.79345,44.07405],[4.80174,44.08186],[4.80843,44.08586],[4.81375,44.08711],[4.82226,44.08594],[4.83925,44.0802],[4.84706,44.07363],[4.8541,44.06973],[4.86534,44.05696],[4.86404,44.05462],[4.86502,44.04247],[4.8622,44.03604],[4.85519,44.03693],[4.84717,44.03554],[4.82778,44.03759],[4.81517,44.04554],[4.79879,44.04879],[4.79569,44.04804]]]]}},{"type":"Feature","properties":{"code":"84038","nom":"Cheval-Blanc","departement":"84","region":"93"},"geometry":{"type":"MultiPolygon","coordinates":[[[[5.12377,43.75883],[5.09075,43.77207],[5.04981,43.78873],[5.04629,43.79096],[5.04452,43.7926],[5.04359,43.79531],[5.04291,43.80649],[5.05049,43.80735],[5.05516,43.80889],[5.07365,43.81071],[5.08182,43.81264],[5.09226,43.81841],[5.09301,43.82006],[5.09163,43.82206],[5.09696,43.82119],[5.10784,43.82172],[5.11573,43.81914],[5.1212,43.81579],[5.1234,43.81529],[5.13481,43.80637],[5.13943,43.80669],[5.14426,43.80812],[5.14557,43.80832],[5.15299,43.80438],[5.1615,43.80669],[5.17347,43.80605],[5.17797,43.80517],[5.19791,43.79815],[5.19796,43.79462],[5.19319,43.76944],[5.18998,43.7655],[5.18321,43.76635],[5.17474,43.76608],[5.16841,43.76438],[5.1635,43.759],[5.1568,43.75666],[5.13832,43.75292],[5.12377,43.75883]]]]}},{"type":"Feature","properties":{"code":"84039","nom":"Courthézon","departement":"84","region":"93"},"geometry":{"type":"MultiPolygon","coordinates":[[[[4.93367,44.07461],[4.92878,44.07198],[4.91149,44.07242],[4.90486,44.06875],[4.8996,44.06459],[4.88702,44.05945],[4.86534,44.05696],[4.8541,44.06973],[4.84706,44.07363],[4.83925,44.0802],[4.84106,44.08013],[4.83939,44.08942],[4.83968,44.09847],[4.8521,44.10838],[4.87089,44.1182],[4.87613,44.11704],[4.88198,44.11242],[4.89218,44.1086],[4.9124,44.10648],[4.91442,44.10564],[4.9156,44.10402],[4.91508,44.10176],[4.93051,44.08233],[4.93287,44.07588],[4.93367,44.07461]]]]}},{"type":"Feature","properties":{"code":"84040","nom":"Crestet","departement":"84","region":"93"},"geometry":{"type":"MultiPolygon","coordinates":[[[[5.1128,44.23122],[5.11339,44.2285],[5.11207,44.22607],[5.10453,44.21864],[5.10505,44.21506],[5.10846,44.20927],[5.08509,44.19196],[5.06815,44.19016],[5.06256,44.19353],[5.05844,44.1968],[5.06044,44.19956],[5.06861,44.21119],[5.07465,44.22235],[5.07803,44.22529],[5.08492,44.22939],[5.08861,44.22922],[5.0929,44.22872],[5.1128,44.23122]]]]}},{"type":"Feature","properties":{"code":"84041","nom":"Crillon-le-Brave","departement":"84","region":"93"},"geometry":{"type":"MultiPolygon","coordinates":[[[[5.15982,44.09948],[5.14903,44.10298],[5.14249,44.10971],[5.14092,44.11373],[5.13982,44.11362],[5.13546,44.12091],[5.13512,44.12296],[5.13648,44.1318],[5.13922,44.1358],[5.14252,44.13934],[5.16556,44.12426],[5.16803,44.12095],[5.16889,44.11675],[5.16458,44.10582],[5.15982,44.09948]]]]}},{"type":"Feature","properties":{"code":"84042","nom":"Cucuron","departement":"84","region":"93"},"geometry":{"type":"MultiPolygon","coordinates":[[[[5.4301,43.74247],[5.417,43.74728],[5.40929,43.75124],[5.40535,43.75648],[5.40716,43.76807],[5.41985,43.77879],[5.4262,43.78902],[5.4199,43.80221],[5.41878,43.81351],[5.42357,43.81282],[5.44023,43.81302],[5.44533,43.81765],[5.44997,43.81525],[5.45668,43.81433],[5.46487,43.81461],[5.46978,43.80673],[5.47214,43.79393],[5.4702,43.78752],[5.47065,43.78215],[5.47538,43.77201],[5.47484,43.77046],[5.47361,43.76823],[5.47244,43.76021],[5.47411,43.75561],[5.47273,43.75263],[5.46485,43.75013],[5.44599,43.75029],[5.433,43.74446],[5.4301,43.74247]]]]}},{"type":"Feature","properties":{"code":"84043","nom":"Entraigues-sur-la-Sorgue","departement":"84","region":"93"},"geometry":{"type":"MultiPolygon","coordinates":[[[[4.95333,43.99889],[4.96284,43.98557],[4.96107,43.98482],[4.95094,43.97476],[4.94618,43.97323],[4.93932,43.96721],[4.93901,43.96818],[4.93385,43.96906],[4.92895,43.96774],[4.91864,43.98234],[4.91479,43.98732],[4.91274,43.99423],[4.91095,43.99297],[4.90728,44.00458],[4.90853,44.01211],[4.91079,44.01682],[4.91495,44.01806],[4.91522,44.01894],[4.91921,44.01965],[4.91851,44.02059],[4.93606,44.02454],[4.94392,44.00903],[4.95333,43.99889]]]]}},{"type":"Feature","properties":{"code":"84044","nom":"Entrechaux","departement":"84","region":"93"},"geometry":{"type":"MultiPolygon","coordinates":[[[[5.16824,44.22513],[5.15688,44.21158],[5.15237,44.20784],[5.14675,44.20507],[5.13252,44.20358],[5.12671,44.20425],[5.10846,44.20927],[5.10505,44.21506],[5.10453,44.21864],[5.11207,44.22607],[5.11339,44.2285],[5.1128,44.23122],[5.11482,44.24434],[5.11889,44.24595],[5.1391,44.23918],[5.14695,44.23814],[5.14915,44.23873],[5.15191,44.23825],[5.15125,44.23709],[5.15435,44.23215],[5.16019,44.22832],[5.16824,44.22513]]]]}},{"type":"Feature","properties":{"code":"84045","nom":"Faucon","departement":"84","region":"93"},"geometry":{"type":"MultiPolygon","coordinates":[[[[5.11889,44.24595],[5.12265,44.24771],[5.12482,44.25572],[5.12201,44.25916],[5.11831,44.26126],[5.11883,44.2616],[5.13854,44.26421],[5.14572,44.26691],[5.14754,44.26958],[5.15734,44.26708],[5.15965,44.26207],[5.16185,44.24582],[5.15191,44.23825],[5.14915,44.23873],[5.14695,44.23814],[5.1391,44.23918],[5.11889,44.24595]]]]}},{"type":"Feature","properties":{"code":"84046","nom":"Flassan","departement":"84","region":"93"},"geometry":{"type":"MultiPolygon","coordinates":[[[[5.20583,44.10064],[5.23304,44.10257],[5.24943,44.10531],[5.26022,44.1092],[5.26346,44.11164],[5.28162,44.11258],[5.30633,44.11825],[5.31507,44.11859],[5.31666,44.11765],[5.31552,44.10974],[5.31136,44.10282],[5.30318,44.09511],[5.30289,44.09351],[5.2993,44.0906],[5.29892,44.08936],[5.28316,44.08875],[5.26733,44.08567],[5.24811,44.0841],[5.22574,44.08096],[5.22494,44.07946],[5.21998,44.08248],[5.21082,44.09223],[5.20757,44.09636],[5.20583,44.10064]]]]}},{"type":"Feature","properties":{"code":"84047","nom":"Gargas","departement":"84","region":"93"},"geometry":{"type":"MultiPolygon","coordinates":[[[[5.33535,43.91497],[5.34071,43.9191],[5.34745,43.91929],[5.36266,43.91572],[5.37237,43.90941],[5.37435,43.90635],[5.3763,43.90168],[5.37081,43.88968],[5.36759,43.88655],[5.36032,43.88873],[5.35088,43.88955],[5.33553,43.87835],[5.3231,43.87145],[5.31906,43.86769],[5.31681,43.86918],[5.31119,43.88238],[5.32125,43.89593],[5.32675,43.90026],[5.33025,43.90454],[5.33535,43.91497]]]]}},{"type":"Feature","properties":{"code":"84048","nom":"Gignac","departement":"84","region":"93"},"geometry":{"type":"MultiPolygon","coordinates":[[[[5.52237,43.90895],[5.51411,43.91007],[5.507,43.91688],[5.51154,43.934],[5.51269,43.94531],[5.52125,43.94473],[5.52781,43.94678],[5.54498,43.93891],[5.53011,43.92559],[5.53707,43.91394],[5.5354,43.91213],[5.52604,43.9092],[5.52237,43.90895]]]]}},{"type":"Feature","properties":{"code":"84049","nom":"Gigondas","departement":"84","region":"93"},"geometry":{"type":"MultiPolygon","coordinates":[[[[5.03314,44.18819],[5.03455,44.18903],[5.06256,44.19353],[5.06815,44.19016],[5.07214,44.18771],[5.03948,44.17328],[5.03193,44.16466],[5.03605,44.16233],[5.0406,44.16196],[5.04082,44.16132],[5.0394,44.16016],[5.03667,44.15474],[5.039,44.15236],[5.0412,44.14358],[5.03807,44.14392],[5.03419,44.14308],[5.02612,44.13981],[5.02153,44.13679],[5.00397,44.13713],[4.99528,44.13847],[4.99229,44.14688],[4.99563,44.15268],[4.99334,44.15702],[4.97931,44.1631],[4.97478,44.16336],[4.96944,44.16261],[4.96766,44.15807],[4.96441,44.15597],[4.95836,44.15711],[4.96844,44.17119],[4.97091,44.17921],[4.98142,44.18881],[4.98203,44.19002],[4.9925,44.18737],[5.01394,44.17975],[5.02704,44.1802],[5.03044,44.18357],[5.03314,44.18819]]]]}},{"type":"Feature","properties":{"code":"84050","nom":"Gordes","departement":"84","region":"93"},"geometry":{"type":"MultiPolygon","coordinates":[[[[5.17705,43.86235],[5.16662,43.86442],[5.16708,43.87085],[5.16512,43.89063],[5.1647,43.9095],[5.16694,43.92351],[5.16556,43.931],[5.15951,43.93793],[5.1594,43.94221],[5.15975,43.94952],[5.16026,43.95035],[5.16438,43.95122],[5.18168,43.95224],[5.1959,43.95032],[5.19775,43.95067],[5.20308,43.94919],[5.20657,43.94723],[5.21401,43.94053],[5.22408,43.93355],[5.23009,43.93306],[5.23889,43.92423],[5.24795,43.9073],[5.24896,43.90282],[5.24704,43.90076],[5.24583,43.89605],[5.24564,43.89451],[5.2376,43.88606],[5.23182,43.88523],[5.22196,43.88586],[5.22066,43.88531],[5.20964,43.87655],[5.20138,43.87378],[5.19878,43.87125],[5.19462,43.86914],[5.18835,43.8601],[5.17705,43.86235]]]]}},{"type":"Feature","properties":{"code":"84051","nom":"Goult","departement":"84","region":"93"},"geometry":{"type":"MultiPolygon","coordinates":[[[[5.24583,43.89605],[5.25235,43.89582],[5.26958,43.88428],[5.28238,43.87293],[5.28875,43.86582],[5.2907,43.8609],[5.26768,43.85395],[5.26661,43.85362],[5.26655,43.8468],[5.2654,43.84489],[5.25214,43.83949],[5.24917,43.83898],[5.24507,43.83941],[5.24006,43.84443],[5.22335,43.85446],[5.2172,43.85694],[5.21458,43.85594],[5.21374,43.86037],[5.21551,43.86701],[5.20582,43.87046],[5.19878,43.87125],[5.20138,43.87378],[5.20964,43.87655],[5.21646,43.87305],[5.21958,43.87251],[5.22115,43.87928],[5.22066,43.88531],[5.22196,43.88586],[5.23182,43.88523],[5.2376,43.88606],[5.24564,43.89451],[5.24583,43.89605]]]]}},{"type":"Feature","properties":{"code":"84052","nom":"Grambois","departement":"84","region":"93"},"geometry":{"type":"MultiPolygon","coordinates":[[[[5.55052,43.77372],[5.56134,43.77447],[5.56498,43.77535],[5.57161,43.77906],[5.58158,43.78225],[5.59272,43.78272],[5.59371,43.78233],[5.60624,43.77944],[5.61551,43.77894],[5.62408,43.78279],[5.62876,43.7834],[5.63898,43.7831],[5.64355,43.77963],[5.64661,43.77495],[5.65398,43.76786],[5.64214,43.76126],[5.64097,43.7594],[5.64033,43.75746],[5.64122,43.75298],[5.64509,43.74483],[5.64413,43.743],[5.64105,43.74076],[5.63745,43.73908],[5.61389,43.73226],[5.59307,43.74236],[5.58642,43.74375],[5.57875,43.74407],[5.57227,43.7468],[5.55917,43.75611],[5.55732,43.75621],[5.55052,43.77372]]]]}},{"type":"Feature","properties":{"code":"84053","nom":"Grillon","departement":"84","region":"93"},"geometry":{"type":"MultiPolygon","coordinates":[[[[4.93066,44.37093],[4.9127,44.37435],[4.90697,44.3746],[4.90874,44.37684],[4.91175,44.38754],[4.91101,44.39188],[4.91319,44.40053],[4.91822,44.40772],[4.92296,44.40821],[4.93753,44.41304],[4.94611,44.41495],[4.95198,44.41884],[4.95193,44.42002],[4.95933,44.41975],[4.96106,44.41554],[4.95647,44.39806],[4.95607,44.39099],[4.94149,44.37779],[4.93066,44.37093]]]]}},{"type":"Feature","properties":{"code":"84054","nom":"L'Isle-sur-la-Sorgue","departement":"84","region":"93"},"geometry":{"type":"MultiPolygon","coordinates":[[[[5.01601,43.89427],[5.01483,43.90373],[5.01559,43.90968],[5.01977,43.91585],[5.02467,43.92075],[5.02327,43.9231],[5.02563,43.92378],[5.02895,43.92666],[5.03319,43.93197],[5.03691,43.93577],[5.02685,43.94125],[5.02526,43.94611],[5.0299,43.94589],[5.04908,43.94796],[5.05896,43.95322],[5.06251,43.95601],[5.0661,43.95931],[5.06824,43.96458],[5.07549,43.96343],[5.0757,43.96338],[5.08676,43.95524],[5.08908,43.93879],[5.08434,43.92795],[5.08192,43.92071],[5.08148,43.9149],[5.0863,43.90926],[5.09208,43.90672],[5.09787,43.90618],[5.1034,43.90827],[5.10502,43.90665],[5.1045,43.90472],[5.10135,43.90099],[5.09873,43.90235],[5.09452,43.90295],[5.09032,43.90063],[5.08844,43.89842],[5.08772,43.896],[5.08834,43.88993],[5.08192,43.88225],[5.08307,43.8743],[5.06896,43.87351],[5.04846,43.87491],[5.02214,43.87907],[5.01953,43.88735],[5.01601,43.89427]]]]}},{"type":"Feature","properties":{"code":"84055","nom":"Jonquerettes","departement":"84","region":"93"},"geometry":{"type":"MultiPolygon","coordinates":[[[[4.95585,43.95667],[4.95935,43.95451],[4.9603,43.95145],[4.95975,43.94877],[4.95394,43.94796],[4.93466,43.9427],[4.93032,43.94434],[4.92751,43.94708],[4.92754,43.95019],[4.94396,43.95521],[4.94911,43.95632],[4.95585,43.95667]]]]}},{"type":"Feature","properties":{"code":"84056","nom":"Jonquières","departement":"84","region":"93"},"geometry":{"type":"MultiPolygon","coordinates":[[[[4.92075,44.16071],[4.93967,44.15088],[4.95208,44.14966],[4.95102,44.14452],[4.95323,44.13795],[4.95182,44.13],[4.94836,44.12839],[4.94092,44.12686],[4.93422,44.12309],[4.93002,44.11976],[4.91885,44.1064],[4.9156,44.10402],[4.91442,44.10564],[4.9124,44.10648],[4.89218,44.1086],[4.88198,44.11242],[4.87613,44.11704],[4.87714,44.11696],[4.87619,44.12804],[4.87868,44.13397],[4.88396,44.13926],[4.89128,44.14414],[4.90167,44.14877],[4.9115,44.15784],[4.91584,44.16063],[4.92075,44.16071]]]]}},{"type":"Feature","properties":{"code":"84057","nom":"Joucas","departement":"84","region":"93"},"geometry":{"type":"MultiPolygon","coordinates":[[[[5.23009,43.93306],[5.23026,43.93553],[5.23229,43.93758],[5.24525,43.94124],[5.25084,43.94177],[5.25727,43.94075],[5.26764,43.93739],[5.26885,43.9354],[5.27423,43.93225],[5.27388,43.92775],[5.27435,43.92682],[5.27239,43.92419],[5.25519,43.90963],[5.24896,43.90282],[5.24795,43.9073],[5.23889,43.92423],[5.23009,43.93306]]]]}},{"type":"Feature","properties":{"code":"84058","nom":"Lacoste","departement":"84","region":"93"},"geometry":{"type":"MultiPolygon","coordinates":[[[[5.27022,43.79313],[5.25679,43.7993],[5.25552,43.80865],[5.25609,43.81767],[5.24883,43.83052],[5.24507,43.83941],[5.24917,43.83898],[5.25214,43.83949],[5.2654,43.84489],[5.26655,43.8468],[5.26661,43.85362],[5.26768,43.85395],[5.26974,43.85409],[5.27669,43.84941],[5.28372,43.83921],[5.28367,43.83342],[5.28237,43.82948],[5.27603,43.82077],[5.27308,43.81321],[5.27022,43.79313]]]]}},{"type":"Feature","properties":{"code":"84059","nom":"Lafare","departement":"84","region":"93"},"geometry":{"type":"MultiPolygon","coordinates":[[[[5.04082,44.16132],[5.04978,44.1688],[5.05623,44.16885],[5.06632,44.16008],[5.06572,44.15956],[5.05446,44.14855],[5.0557,44.13806],[5.05303,44.13802],[5.0412,44.14358],[5.039,44.15236],[5.03667,44.15474],[5.0394,44.16016],[5.04082,44.16132]]]]}},{"type":"Feature","properties":{"code":"84060","nom":"Lagarde-d'Apt","departement":"84","region":"93"},"geometry":{"type":"MultiPolygon","coordinates":[[[[5.51269,43.94531],[5.48349,43.95373],[5.47923,43.95944],[5.4745,43.96243],[5.47486,43.96447],[5.47135,43.96763],[5.46651,43.97936],[5.4662,43.98272],[5.46303,43.98795],[5.45861,43.99383],[5.44755,44.00331],[5.44078,44.01437],[5.45061,44.01485],[5.46204,44.01662],[5.46484,44.0197],[5.47194,44.02311],[5.49415,43.99153],[5.50015,43.98769],[5.50792,43.97911],[5.51095,43.97309],[5.51309,43.97332],[5.50805,43.95887],[5.50947,43.95242],[5.51269,43.94531]]]]}},{"type":"Feature","properties":{"code":"84061","nom":"Lagarde-Paréol","departement":"84","region":"93"},"geometry":{"type":"MultiPolygon","coordinates":[[[[4.82484,44.22231],[4.82404,44.22631],[4.82559,44.22857],[4.82688,44.2285],[4.83957,44.23769],[4.857,44.24584],[4.8623,44.24589],[4.87191,44.22812],[4.87149,44.22382],[4.86736,44.21147],[4.84132,44.2165],[4.82484,44.22231]]]]}},{"type":"Feature","properties":{"code":"84062","nom":"Lagnes","departement":"84","region":"93"},"geometry":{"type":"MultiPolygon","coordinates":[[[[5.10666,43.91178],[5.11439,43.90739],[5.12674,43.90672],[5.1332,43.90926],[5.14419,43.9151],[5.14542,43.91652],[5.1492,43.93085],[5.15481,43.942],[5.15556,43.94206],[5.15418,43.94005],[5.15118,43.92614],[5.15123,43.91917],[5.13405,43.8871],[5.13183,43.87944],[5.11637,43.87245],[5.11198,43.8692],[5.10192,43.86701],[5.09785,43.87037],[5.09007,43.87481],[5.08307,43.8743],[5.08192,43.88225],[5.08834,43.88993],[5.08772,43.896],[5.08844,43.89842],[5.09032,43.90063],[5.09452,43.90295],[5.09873,43.90235],[5.10135,43.90099],[5.1045,43.90472],[5.10502,43.90665],[5.1034,43.90827],[5.10422,43.91054],[5.10666,43.91178]]]]}},{"type":"Feature","properties":{"code":"84063","nom":"Lamotte-du-Rhône","departement":"84","region":"93"},"geometry":{"type":"MultiPolygon","coordinates":[[[[4.64924,44.26442],[4.64945,44.27034],[4.65289,44.29098],[4.65907,44.29053],[4.67354,44.28762],[4.69466,44.2848],[4.69555,44.29066],[4.70033,44.30047],[4.70657,44.29932],[4.71164,44.29616],[4.70928,44.29233],[4.69562,44.28324],[4.69578,44.2816],[4.69816,44.27054],[4.69996,44.26672],[4.69782,44.2667],[4.69304,44.2638],[4.67539,44.26067],[4.65988,44.26063],[4.65158,44.2591],[4.64924,44.26442]]]]}},{"type":"Feature","properties":{"code":"84064","nom":"Lapalud","departement":"84","region":"93"},"geometry":{"type":"MultiPolygon","coordinates":[[[[4.69811,44.32083],[4.71313,44.32053],[4.71453,44.3077],[4.71164,44.29616],[4.70657,44.29932],[4.70033,44.30047],[4.69555,44.29066],[4.69466,44.2848],[4.67354,44.28762],[4.65907,44.29053],[4.65289,44.29098],[4.65315,44.29481],[4.65061,44.3298],[4.67862,44.32071],[4.69811,44.32083]]]]}},{"type":"Feature","properties":{"code":"84065","nom":"Lauris","departement":"84","region":"93"},"geometry":{"type":"MultiPolygon","coordinates":[[[[5.32202,43.78297],[5.3267,43.76272],[5.3335,43.74173],[5.32585,43.72898],[5.31663,43.73613],[5.30854,43.73783],[5.29554,43.7387],[5.28657,43.74042],[5.27022,43.79313],[5.31855,43.78638],[5.32202,43.78297]]]]}},{"type":"Feature","properties":{"code":"84066","nom":"Lioux","departement":"84","region":"93"},"geometry":{"type":"MultiPolygon","coordinates":[[[[5.35948,43.99585],[5.35254,43.98702],[5.34417,43.97831],[5.33518,43.97129],[5.32621,43.95947],[5.29013,43.93792],[5.28245,43.93486],[5.28062,43.93579],[5.27877,43.93834],[5.27239,43.94053],[5.27037,43.94314],[5.26631,43.95127],[5.266,43.9605],[5.26743,43.96391],[5.27354,43.97235],[5.28272,43.98218],[5.28817,43.99426],[5.28672,43.99774],[5.2919,44.00666],[5.29952,44.0136],[5.30633,44.01843],[5.31417,44.02228],[5.31474,44.02063],[5.32171,44.01597],[5.33051,44.01347],[5.33791,44.01243],[5.34949,44.00637],[5.35886,43.99977],[5.35948,43.99585]]]]}},{"type":"Feature","properties":{"code":"84067","nom":"Loriol-du-Comtat","departement":"84","region":"93"},"geometry":{"type":"MultiPolygon","coordinates":[[[[5.03389,44.07616],[5.03209,44.0763],[5.03061,44.07441],[5.02684,44.067],[5.0165,44.05968],[5.0149,44.05969],[4.98662,44.06558],[4.9786,44.06503],[4.97711,44.07154],[4.97968,44.0747],[4.98408,44.07572],[4.98541,44.07675],[4.98472,44.07972],[4.98427,44.08084],[4.98656,44.09073],[4.99308,44.09551],[4.99383,44.09461],[5.00689,44.09006],[5.02056,44.08693],[5.02634,44.0833],[5.03092,44.07815],[5.03389,44.07616]]]]}},{"type":"Feature","properties":{"code":"84068","nom":"Lourmarin","departement":"84","region":"93"},"geometry":{"type":"MultiPolygon","coordinates":[[[[5.34396,43.79408],[5.35616,43.79405],[5.37201,43.80174],[5.39014,43.80241],[5.3894,43.80022],[5.39096,43.7943],[5.39293,43.79079],[5.39315,43.78764],[5.38629,43.75757],[5.38045,43.75377],[5.36596,43.75176],[5.35401,43.75407],[5.34917,43.75544],[5.34375,43.76495],[5.3348,43.77722],[5.33146,43.78519],[5.34396,43.79408]]]]}},{"type":"Feature","properties":{"code":"84069","nom":"Malaucène","departement":"84","region":"93"},"geometry":{"type":"MultiPolygon","coordinates":[[[[5.23823,44.21343],[5.23781,44.20675],[5.24158,44.20488],[5.24364,44.20195],[5.24269,44.20141],[5.2397,44.19781],[5.23753,44.19744],[5.2187,44.19776],[5.20936,44.19973],[5.18493,44.19598],[5.15977,44.19682],[5.15833,44.18638],[5.15974,44.17869],[5.1652,44.17163],[5.1725,44.16449],[5.17303,44.16261],[5.17118,44.16069],[5.15971,44.15679],[5.15379,44.15375],[5.14255,44.14537],[5.14051,44.14071],[5.14252,44.13934],[5.13922,44.1358],[5.13901,44.13576],[5.1326,44.14056],[5.13197,44.14171],[5.1343,44.14442],[5.13509,44.14787],[5.13399,44.15045],[5.12938,44.15548],[5.10579,44.1673],[5.09597,44.17604],[5.08401,44.18425],[5.07388,44.18799],[5.07214,44.18771],[5.06815,44.19016],[5.08509,44.19196],[5.10846,44.20927],[5.12671,44.20425],[5.13252,44.20358],[5.14675,44.20507],[5.15237,44.20784],[5.15688,44.21158],[5.16824,44.22513],[5.17583,44.22041],[5.1843,44.21953],[5.21035,44.21421],[5.23823,44.21343]]]]}},{"type":"Feature","properties":{"code":"84070","nom":"Malemort-du-Comtat","departement":"84","region":"93"},"geometry":{"type":"MultiPolygon","coordinates":[[[[5.17137,44.03409],[5.17131,44.03314],[5.18542,44.02767],[5.19485,44.0219],[5.19746,44.01944],[5.19707,44.0174],[5.19308,44.0122],[5.18766,44.00953],[5.18483,44.00902],[5.18612,44.00603],[5.1904,44.00604],[5.1903,44.00457],[5.18216,44.00268],[5.17004,44.00146],[5.16137,44.00378],[5.15418,44.00769],[5.15512,44.01162],[5.1503,44.0161],[5.14264,44.02071],[5.13175,44.02198],[5.13697,44.02859],[5.14623,44.03248],[5.16587,44.03499],[5.17137,44.03409]]]]}},{"type":"Feature","properties":{"code":"84071","nom":"Maubec","departement":"84","region":"93"},"geometry":{"type":"MultiPolygon","coordinates":[[[[5.13665,43.8686],[5.14806,43.86801],[5.15096,43.8472],[5.14768,43.83457],[5.14296,43.82267],[5.14428,43.81156],[5.14557,43.80832],[5.14426,43.80812],[5.13878,43.81335],[5.1215,43.83853],[5.1207,43.84093],[5.12347,43.84997],[5.12753,43.85552],[5.13383,43.85839],[5.13589,43.85817],[5.13738,43.86709],[5.13665,43.8686]]]]}},{"type":"Feature","properties":{"code":"84072","nom":"Mazan","departement":"84","region":"93"},"geometry":{"type":"MultiPolygon","coordinates":[[[[5.17137,44.03409],[5.16587,44.03499],[5.14623,44.03248],[5.13697,44.02859],[5.13175,44.02198],[5.12644,44.01888],[5.12181,44.01954],[5.1157,44.02194],[5.1068,44.02491],[5.09444,44.02733],[5.09239,44.02903],[5.09948,44.04652],[5.09988,44.0503],[5.09476,44.05573],[5.08979,44.05902],[5.08693,44.05989],[5.0864,44.06093],[5.08338,44.06692],[5.08299,44.07063],[5.089,44.07486],[5.10199,44.07928],[5.11726,44.08254],[5.12951,44.08475],[5.12943,44.08388],[5.14526,44.08552],[5.15414,44.08549],[5.15904,44.0875],[5.16187,44.08323],[5.16459,44.08141],[5.16153,44.06102],[5.16259,44.05772],[5.16683,44.05161],[5.17492,44.04801],[5.18392,44.0421],[5.18585,44.03663],[5.18105,44.03511],[5.17345,44.03478],[5.17137,44.03409]]]]}},{"type":"Feature","properties":{"code":"84073","nom":"Ménerbes","departement":"84","region":"93"},"geometry":{"type":"MultiPolygon","coordinates":[[[[5.24507,43.83941],[5.24883,43.83052],[5.25609,43.81767],[5.25552,43.80865],[5.25679,43.7993],[5.22784,43.79208],[5.22202,43.79191],[5.19796,43.79462],[5.19791,43.79815],[5.19674,43.80819],[5.19869,43.81849],[5.1967,43.82749],[5.19182,43.84115],[5.1847,43.85407],[5.17705,43.86235],[5.18835,43.8601],[5.2101,43.85522],[5.21458,43.85594],[5.2172,43.85694],[5.22335,43.85446],[5.24006,43.84443],[5.24507,43.83941]]]]}},{"type":"Feature","properties":{"code":"84074","nom":"Mérindol","departement":"84","region":"93"},"geometry":{"type":"MultiPolygon","coordinates":[[[[5.22784,43.79208],[5.23641,43.77563],[5.23613,43.74758],[5.22917,43.74748],[5.18777,43.73507],[5.17335,43.7388],[5.13832,43.75292],[5.1568,43.75666],[5.1635,43.759],[5.16841,43.76438],[5.17474,43.76608],[5.18321,43.76635],[5.18998,43.7655],[5.19319,43.76944],[5.19796,43.79462],[5.22202,43.79191],[5.22784,43.79208]]]]}},{"type":"Feature","properties":{"code":"84075","nom":"Méthamis","departement":"84","region":"93"},"geometry":{"type":"MultiPolygon","coordinates":[[[[5.28672,43.99774],[5.28411,43.99627],[5.27664,43.9955],[5.2665,43.9963],[5.2553,43.99415],[5.23683,43.98508],[5.22434,43.98311],[5.22265,43.98575],[5.21583,43.98939],[5.19479,43.99416],[5.18853,43.99752],[5.18216,44.00268],[5.1903,44.00457],[5.1904,44.00604],[5.19089,44.00686],[5.19471,44.00736],[5.20765,44.01496],[5.21284,44.01989],[5.2224,44.02547],[5.25287,44.03137],[5.26853,44.03747],[5.27942,44.04575],[5.28596,44.04504],[5.29086,44.04128],[5.30512,44.04121],[5.31237,44.04234],[5.31417,44.02228],[5.30633,44.01843],[5.29952,44.0136],[5.2919,44.00666],[5.28672,43.99774]]]]}},{"type":"Feature","properties":{"code":"84076","nom":"Mirabeau","departement":"84","region":"93"},"geometry":{"type":"MultiPolygon","coordinates":[[[[5.62376,43.66626],[5.6193,43.66932],[5.6278,43.67266],[5.62675,43.67628],[5.61374,43.69336],[5.6008,43.7046],[5.60282,43.70875],[5.61079,43.71731],[5.61389,43.73226],[5.63745,43.73908],[5.64105,43.74076],[5.64605,43.72461],[5.67474,43.71946],[5.68169,43.71637],[5.68481,43.71129],[5.68969,43.70779],[5.69535,43.70543],[5.69085,43.69655],[5.68296,43.69286],[5.66561,43.68958],[5.65494,43.68297],[5.64783,43.67585],[5.64416,43.67344],[5.6292,43.6672],[5.62376,43.66626]]]]}},{"type":"Feature","properties":{"code":"84077","nom":"Modène","departement":"84","region":"93"},"geometry":{"type":"MultiPolygon","coordinates":[[[[5.11726,44.08254],[5.11929,44.08526],[5.1188,44.1],[5.1195,44.10462],[5.12536,44.11775],[5.13097,44.12733],[5.13901,44.13576],[5.13922,44.1358],[5.13648,44.1318],[5.13512,44.12296],[5.13546,44.12091],[5.13982,44.11362],[5.13247,44.10537],[5.12951,44.08475],[5.11726,44.08254]]]]}},{"type":"Feature","properties":{"code":"84078","nom":"Mondragon","departement":"84","region":"93"},"geometry":{"type":"MultiPolygon","coordinates":[[[[4.77478,44.23604],[4.77427,44.2348],[4.71971,44.22397],[4.71132,44.21507],[4.70805,44.21305],[4.70588,44.21471],[4.70212,44.21588],[4.6942,44.21545],[4.68106,44.21218],[4.67666,44.21264],[4.67404,44.21474],[4.67313,44.21855],[4.67818,44.22953],[4.6777,44.2347],[4.67336,44.23963],[4.66096,44.24776],[4.65405,44.25443],[4.65158,44.2591],[4.65988,44.26063],[4.67539,44.26067],[4.69304,44.2638],[4.69782,44.2667],[4.69996,44.26672],[4.7018,44.26658],[4.70195,44.26725],[4.71749,44.26473],[4.72242,44.26148],[4.72068,44.25661],[4.72203,44.25592],[4.73168,44.25474],[4.75276,44.25387],[4.75807,44.251],[4.76483,44.25021],[4.77595,44.2506],[4.7899,44.25983],[4.80403,44.26916],[4.80518,44.26902],[4.80957,44.26339],[4.81269,44.2574],[4.8121,44.24204],[4.78618,44.24053],[4.77524,44.24189],[4.77337,44.23738],[4.77478,44.23604]]]]}},{"type":"Feature","properties":{"code":"84095","nom":"Puyvert","departement":"84","region":"93"},"geometry":{"type":"MultiPolygon","coordinates":[[[[5.35401,43.75407],[5.35139,43.75126],[5.34756,43.73788],[5.35495,43.72955],[5.3436,43.71857],[5.33908,43.7202],[5.32585,43.72898],[5.3335,43.74173],[5.3267,43.76272],[5.32202,43.78297],[5.33146,43.78519],[5.3348,43.77722],[5.34375,43.76495],[5.34917,43.75544],[5.35401,43.75407]]]]}},{"type":"Feature","properties":{"code":"84079","nom":"Monieux","departement":"84","region":"93"},"geometry":{"type":"MultiPolygon","coordinates":[[[[5.29892,44.08936],[5.2993,44.0906],[5.30289,44.09351],[5.30318,44.09511],[5.3192,44.09727],[5.33311,44.0959],[5.35887,44.09164],[5.3626,44.0904],[5.39064,44.07091],[5.39039,44.06707],[5.38306,44.05489],[5.37233,44.04335],[5.36703,44.03522],[5.36028,44.01862],[5.35581,44.01232],[5.34949,44.00637],[5.33791,44.01243],[5.33051,44.01347],[5.32171,44.01597],[5.31474,44.02063],[5.31417,44.02228],[5.31237,44.04234],[5.30636,44.06493],[5.3055,44.06903],[5.29888,44.0849],[5.29892,44.08936]]]]}},{"type":"Feature","properties":{"code":"84080","nom":"Monteux","departement":"84","region":"93"},"geometry":{"type":"MultiPolygon","coordinates":[[[[4.97327,44.00527],[4.96391,44.01096],[4.95872,44.01511],[4.95426,44.01864],[4.94633,44.02247],[4.9419,44.02405],[4.93643,44.02464],[4.93681,44.0322],[4.93785,44.04506],[4.94233,44.04614],[4.94368,44.04719],[4.94222,44.05403],[4.9786,44.06503],[4.98662,44.06558],[5.0149,44.05969],[5.02275,44.04708],[5.0239,44.04599],[5.0245,44.04448],[5.02789,44.03038],[5.03594,44.02233],[5.01922,44.01203],[4.98087,43.99642],[4.97327,44.00527]]]]}},{"type":"Feature","properties":{"code":"84081","nom":"Morières-lès-Avignon","departement":"84","region":"93"},"geometry":{"type":"MultiPolygon","coordinates":[[[[4.9095,43.91195],[4.89973,43.91441],[4.89794,43.9153],[4.89693,43.91776],[4.89967,43.9306],[4.89562,43.93682],[4.89081,43.93845],[4.8908,43.94179],[4.89086,43.94552],[4.88703,43.9506],[4.88413,43.95294],[4.90191,43.95409],[4.90678,43.95388],[4.91765,43.95391],[4.92247,43.95387],[4.92345,43.95194],[4.9206,43.94894],[4.92033,43.94641],[4.92155,43.93514],[4.92071,43.92428],[4.92286,43.91826],[4.92595,43.91361],[4.93054,43.91162],[4.93144,43.91052],[4.92885,43.90979],[4.92723,43.90546],[4.9095,43.91195]]]]}},{"type":"Feature","properties":{"code":"84082","nom":"Mormoiron","departement":"84","region":"93"},"geometry":{"type":"MultiPolygon","coordinates":[[[[5.16355,44.09258],[5.1697,44.09322],[5.19923,44.1],[5.20583,44.10064],[5.20757,44.09636],[5.21082,44.09223],[5.21998,44.08248],[5.22494,44.07946],[5.21951,44.07213],[5.21822,44.0635],[5.21557,44.05652],[5.20793,44.04724],[5.21102,44.04237],[5.20352,44.04059],[5.1971,44.03807],[5.18585,44.03663],[5.18392,44.0421],[5.17492,44.04801],[5.16683,44.05161],[5.16259,44.05772],[5.16153,44.06102],[5.16459,44.08141],[5.16187,44.08323],[5.15904,44.0875],[5.16005,44.08793],[5.15995,44.09006],[5.16355,44.09258]]]]}},{"type":"Feature","properties":{"code":"84083","nom":"Mornas","departement":"84","region":"93"},"geometry":{"type":"MultiPolygon","coordinates":[[[[4.70805,44.21305],[4.71132,44.21507],[4.71971,44.22397],[4.77427,44.2348],[4.77478,44.23604],[4.77943,44.23071],[4.77729,44.22217],[4.77878,44.2107],[4.76891,44.21081],[4.75913,44.19932],[4.74891,44.19875],[4.74251,44.18245],[4.74639,44.17742],[4.74937,44.17561],[4.74758,44.17212],[4.74216,44.16736],[4.73212,44.16466],[4.72234,44.1651],[4.7208,44.16619],[4.71586,44.16595],[4.72247,44.18732],[4.71966,44.18949],[4.71229,44.19158],[4.70462,44.19641],[4.70425,44.1975],[4.70467,44.20071],[4.7097,44.20724],[4.70956,44.21011],[4.70805,44.21305]]]]}},{"type":"Feature","properties":{"code":"84084","nom":"La Motte-d'Aigues","departement":"84","region":"93"},"geometry":{"type":"MultiPolygon","coordinates":[[[[5.51184,43.8189],[5.52096,43.82003],[5.53123,43.81877],[5.53061,43.81113],[5.53172,43.80559],[5.53269,43.80273],[5.53923,43.79744],[5.54026,43.79575],[5.54194,43.78406],[5.53621,43.78327],[5.52744,43.77907],[5.53035,43.76863],[5.52993,43.75999],[5.52897,43.75712],[5.52308,43.74885],[5.52446,43.74701],[5.52496,43.74509],[5.52154,43.74286],[5.51119,43.74698],[5.50459,43.75853],[5.5133,43.77167],[5.51268,43.78571],[5.50963,43.79517],[5.50843,43.80368],[5.51184,43.8189]]]]}},{"type":"Feature","properties":{"code":"84085","nom":"Murs","departement":"84","region":"93"},"geometry":{"type":"MultiPolygon","coordinates":[[[[5.28672,43.99774],[5.28817,43.99426],[5.28272,43.98218],[5.27354,43.97235],[5.26743,43.96391],[5.266,43.9605],[5.26631,43.95127],[5.27037,43.94314],[5.27239,43.94053],[5.27877,43.93834],[5.28062,43.93579],[5.27423,43.93225],[5.26885,43.9354],[5.26764,43.93739],[5.25727,43.94075],[5.25084,43.94177],[5.24525,43.94124],[5.23229,43.93758],[5.23026,43.93553],[5.23009,43.93306],[5.22408,43.93355],[5.21401,43.94053],[5.20657,43.94723],[5.20308,43.94919],[5.19775,43.95067],[5.1959,43.95032],[5.19556,43.95214],[5.20037,43.96281],[5.20861,43.97274],[5.21624,43.98051],[5.22434,43.98311],[5.23683,43.98508],[5.2553,43.99415],[5.2665,43.9963],[5.27664,43.9955],[5.28411,43.99627],[5.28672,43.99774]]]]}},{"type":"Feature","properties":{"code":"84086","nom":"Oppède","departement":"84","region":"93"},"geometry":{"type":"MultiPolygon","coordinates":[[[[5.17705,43.86235],[5.1847,43.85407],[5.19182,43.84115],[5.1967,43.82749],[5.19869,43.81849],[5.19674,43.80819],[5.19791,43.79815],[5.17797,43.80517],[5.17347,43.80605],[5.1615,43.80669],[5.15299,43.80438],[5.14557,43.80832],[5.14428,43.81156],[5.14296,43.82267],[5.14768,43.83457],[5.15096,43.8472],[5.14806,43.86801],[5.16662,43.86442],[5.17705,43.86235]]]]}},{"type":"Feature","properties":{"code":"84087","nom":"Orange","departement":"84","region":"93"},"geometry":{"type":"MultiPolygon","coordinates":[[[[4.78336,44.09911],[4.7844,44.11124],[4.78601,44.11107],[4.7793,44.12191],[4.76823,44.125],[4.7483,44.13549],[4.74066,44.13818],[4.73559,44.13855],[4.72756,44.14601],[4.7318,44.14775],[4.73497,44.15066],[4.73576,44.15554],[4.74449,44.15561],[4.75875,44.15403],[4.77345,44.15472],[4.78683,44.16227],[4.78725,44.16361],[4.79348,44.16795],[4.8015,44.17244],[4.80138,44.17662],[4.81288,44.18233],[4.81548,44.18767],[4.82042,44.18784],[4.82178,44.18139],[4.82061,44.17212],[4.82088,44.16595],[4.82361,44.16439],[4.83276,44.17265],[4.83903,44.17668],[4.84681,44.17745],[4.85188,44.17594],[4.84807,44.1684],[4.84628,44.16058],[4.84766,44.15323],[4.85159,44.15031],[4.85684,44.14963],[4.86421,44.14738],[4.87094,44.14004],[4.87301,44.13474],[4.87389,44.13464],[4.87868,44.13397],[4.87619,44.12804],[4.87714,44.11696],[4.87613,44.11704],[4.87089,44.1182],[4.8521,44.10838],[4.83968,44.09847],[4.83939,44.08942],[4.84106,44.08013],[4.83925,44.0802],[4.82226,44.08594],[4.81375,44.08711],[4.80843,44.08586],[4.80174,44.08186],[4.79345,44.07405],[4.79233,44.06798],[4.78791,44.06504],[4.78504,44.06739],[4.76193,44.07517],[4.75966,44.075],[4.75795,44.07728],[4.76054,44.07898],[4.77407,44.08271],[4.78443,44.08913],[4.78336,44.09911]]]]}},{"type":"Feature","properties":{"code":"84088","nom":"Pernes-les-Fontaines","departement":"84","region":"93"},"geometry":{"type":"MultiPolygon","coordinates":[[[[5.06425,43.97078],[5.0511,43.97316],[5.04344,43.97582],[5.03983,43.9773],[5.03629,43.97726],[5.02227,43.97482],[5.0087,43.97151],[4.99595,43.97055],[4.9596,43.97254],[4.95094,43.97476],[4.96107,43.98482],[4.96284,43.98557],[4.97457,43.99118],[4.98087,43.99642],[5.01922,44.01203],[5.03594,44.02233],[5.04269,44.02767],[5.05238,44.02758],[5.05713,44.0289],[5.06039,44.02981],[5.08198,44.02946],[5.09444,44.02733],[5.1068,44.02491],[5.09791,44.01238],[5.09838,44.00118],[5.08763,43.98982],[5.08457,43.98237],[5.08632,43.97274],[5.07918,43.9655],[5.0757,43.96338],[5.07549,43.96343],[5.06824,43.96458],[5.06646,43.9685],[5.06425,43.97078]]]]}},{"type":"Feature","properties":{"code":"84089","nom":"Pertuis","departement":"84","region":"93"},"geometry":{"type":"MultiPolygon","coordinates":[[[[5.56503,43.69028],[5.58631,43.68018],[5.5993,43.67791],[5.61029,43.67929],[5.6193,43.66932],[5.62376,43.66626],[5.6134,43.66371],[5.60929,43.66124],[5.6071,43.65872],[5.59506,43.65972],[5.58734,43.6614],[5.57513,43.66209],[5.55936,43.66136],[5.54988,43.6598],[5.54391,43.6609],[5.53232,43.65917],[5.51938,43.66131],[5.50377,43.66573],[5.48772,43.66757],[5.45065,43.67962],[5.44517,43.68001],[5.45292,43.70704],[5.45995,43.71391],[5.46229,43.71392],[5.4652,43.71457],[5.47726,43.71984],[5.503,43.72689],[5.50869,43.72732],[5.52086,43.71627],[5.53069,43.70871],[5.54666,43.70137],[5.55402,43.70001],[5.5579,43.69987],[5.55994,43.6989],[5.56503,43.69028]]]]}},{"type":"Feature","properties":{"code":"84090","nom":"Peypin-d'Aigues","departement":"84","region":"93"},"geometry":{"type":"MultiPolygon","coordinates":[[[[5.55091,43.81745],[5.55275,43.81694],[5.56225,43.81752],[5.56689,43.81652],[5.57273,43.81189],[5.57882,43.80668],[5.59246,43.79203],[5.59272,43.78272],[5.58158,43.78225],[5.57161,43.77906],[5.56498,43.77535],[5.56134,43.77447],[5.55052,43.77372],[5.53901,43.77405],[5.53824,43.77462],[5.53821,43.77782],[5.54194,43.78406],[5.54026,43.79575],[5.53923,43.79744],[5.53269,43.80273],[5.53172,43.80559],[5.53061,43.81113],[5.53123,43.81877],[5.54473,43.81761],[5.55091,43.81745]]]]}},{"type":"Feature","properties":{"code":"84091","nom":"Piolenc","departement":"84","region":"93"},"geometry":{"type":"MultiPolygon","coordinates":[[[[4.72756,44.14601],[4.72648,44.14724],[4.72643,44.14936],[4.72413,44.15137],[4.72075,44.15278],[4.71812,44.15233],[4.71668,44.16262],[4.71586,44.16595],[4.7208,44.16619],[4.72234,44.1651],[4.73212,44.16466],[4.74216,44.16736],[4.74758,44.17212],[4.74937,44.17561],[4.74639,44.17742],[4.74251,44.18245],[4.74891,44.19875],[4.75913,44.19932],[4.76891,44.21081],[4.77878,44.2107],[4.78303,44.21086],[4.78605,44.20929],[4.78915,44.20201],[4.79879,44.19536],[4.80087,44.19548],[4.80138,44.17662],[4.8015,44.17244],[4.79348,44.16795],[4.78725,44.16361],[4.78683,44.16227],[4.77345,44.15472],[4.75875,44.15403],[4.74449,44.15561],[4.73576,44.15554],[4.73497,44.15066],[4.7318,44.14775],[4.72756,44.14601]]]]}},{"type":"Feature","properties":{"code":"84092","nom":"Le Pontet","departement":"84","region":"93"},"geometry":{"type":"MultiPolygon","coordinates":[[[[4.84248,43.95249],[4.8381,43.95246],[4.83809,43.95423],[4.83818,43.95484],[4.83901,43.95874],[4.83909,43.95955],[4.84565,43.96039],[4.85072,43.96442],[4.85284,43.96702],[4.85385,43.96961],[4.85468,43.98214],[4.8516,43.98905],[4.85886,43.99071],[4.86266,43.99003],[4.87474,43.98637],[4.88458,43.9816],[4.88487,43.97629],[4.88217,43.9719],[4.88244,43.96842],[4.8833,43.96049],[4.88413,43.95294],[4.87125,43.95321],[4.86345,43.95218],[4.85865,43.95075],[4.85841,43.95072],[4.85785,43.95079],[4.84722,43.95148],[4.84248,43.95249]]]]}},{"type":"Feature","properties":{"code":"84093","nom":"Puget","departement":"84","region":"93"},"geometry":{"type":"MultiPolygon","coordinates":[[[[5.27022,43.79313],[5.28657,43.74042],[5.27449,43.74156],[5.26424,43.74433],[5.25679,43.74644],[5.24608,43.74734],[5.23613,43.74758],[5.23641,43.77563],[5.22784,43.79208],[5.25679,43.7993],[5.27022,43.79313]]]]}},{"type":"Feature","properties":{"code":"84094","nom":"Puyméras","departement":"84","region":"93"},"geometry":{"type":"MultiPolygon","coordinates":[[[[5.16639,44.31485],[5.16829,44.31473],[5.16892,44.31403],[5.17282,44.30909],[5.17012,44.29888],[5.16766,44.28988],[5.16291,44.28743],[5.1545,44.28501],[5.14869,44.28077],[5.14664,44.27347],[5.14754,44.26958],[5.14572,44.26691],[5.13854,44.26421],[5.11883,44.2616],[5.11994,44.26364],[5.11433,44.27026],[5.09591,44.27986],[5.09147,44.28057],[5.0742,44.27713],[5.07428,44.28083],[5.07666,44.28395],[5.08369,44.28289],[5.08552,44.283],[5.08651,44.28399],[5.10401,44.28013],[5.10779,44.28084],[5.14055,44.2966],[5.15343,44.30687],[5.16639,44.31485]]]]}},{"type":"Feature","properties":{"code":"84096","nom":"Rasteau","departement":"84","region":"93"},"geometry":{"type":"MultiPolygon","coordinates":[[[[4.9942,44.25902],[4.99998,44.25494],[5.00268,44.25055],[5.00519,44.24212],[5.00998,44.23811],[4.99581,44.2222],[4.98978,44.21003],[4.98892,44.2059],[4.95933,44.20342],[4.94887,44.20231],[4.96301,44.22578],[4.96341,44.23119],[4.96102,44.24404],[4.96384,44.24854],[4.96996,44.25416],[4.98419,44.26367],[4.98956,44.26485],[4.9942,44.25902]]]]}},{"type":"Feature","properties":{"code":"84097","nom":"Richerenches","departement":"84","region":"93"},"geometry":{"type":"MultiPolygon","coordinates":[[[[4.93755,44.36121],[4.93013,44.35915],[4.90724,44.33876],[4.90394,44.3373],[4.8994,44.33644],[4.89536,44.33817],[4.87981,44.34531],[4.86926,44.3449],[4.87017,44.34822],[4.87361,44.35112],[4.89073,44.35986],[4.89248,44.36196],[4.89288,44.36497],[4.89319,44.36729],[4.89473,44.36929],[4.90253,44.37136],[4.90697,44.3746],[4.9127,44.37435],[4.93066,44.37093],[4.92801,44.37],[4.92243,44.36556],[4.92371,44.36415],[4.92697,44.36338],[4.93428,44.36598],[4.93755,44.36121]]]]}},{"type":"Feature","properties":{"code":"84098","nom":"Roaix","departement":"84","region":"93"},"geometry":{"type":"MultiPolygon","coordinates":[[[[4.9942,44.25902],[5.02543,44.26907],[5.02571,44.26974],[5.02782,44.2687],[5.02965,44.26561],[5.02953,44.25622],[5.02891,44.25284],[5.02462,44.24547],[5.02195,44.24394],[5.0183,44.24219],[5.0152,44.24264],[5.00998,44.23811],[5.00519,44.24212],[5.00268,44.25055],[4.99998,44.25494],[4.9942,44.25902]]]]}},{"type":"Feature","properties":{"code":"84099","nom":"Robion","departement":"84","region":"93"},"geometry":{"type":"MultiPolygon","coordinates":[[[[5.1234,43.81529],[5.12237,43.82022],[5.11921,43.82502],[5.10665,43.83549],[5.0868,43.84627],[5.08654,43.84702],[5.08462,43.85482],[5.06896,43.87351],[5.08307,43.8743],[5.09007,43.87481],[5.09785,43.87037],[5.10192,43.86701],[5.11198,43.8692],[5.11637,43.87245],[5.13183,43.87944],[5.13591,43.87227],[5.13665,43.8686],[5.13738,43.86709],[5.13589,43.85817],[5.13383,43.85839],[5.12753,43.85552],[5.12347,43.84997],[5.1207,43.84093],[5.1215,43.83853],[5.13878,43.81335],[5.14426,43.80812],[5.13943,43.80669],[5.13481,43.80637],[5.1234,43.81529]]]]}},{"type":"Feature","properties":{"code":"84100","nom":"La Roque-Alric","departement":"84","region":"93"},"geometry":{"type":"MultiPolygon","coordinates":[[[[5.08473,44.13255],[5.08164,44.13199],[5.07818,44.13302],[5.0709,44.13227],[5.06003,44.13724],[5.0557,44.13806],[5.05446,44.14855],[5.06572,44.15956],[5.06906,44.15757],[5.07428,44.15861],[5.08064,44.14565],[5.08473,44.13255]]]]}},{"type":"Feature","properties":{"code":"84101","nom":"La Roque-sur-Pernes","departement":"84","region":"93"},"geometry":{"type":"MultiPolygon","coordinates":[[[[5.08676,43.95524],[5.0757,43.96338],[5.07918,43.9655],[5.08632,43.97274],[5.08457,43.98237],[5.08763,43.98982],[5.09838,44.00118],[5.10384,43.99758],[5.10837,43.98767],[5.11587,43.97609],[5.12114,43.97095],[5.13035,43.96506],[5.13229,43.95868],[5.13016,43.95567],[5.12478,43.95538],[5.10489,43.96086],[5.09317,43.96142],[5.08828,43.95789],[5.08676,43.95524]]]]}},{"type":"Feature","properties":{"code":"84102","nom":"Roussillon","departement":"84","region":"93"},"geometry":{"type":"MultiPolygon","coordinates":[[[[5.24896,43.90282],[5.25519,43.90963],[5.27239,43.92419],[5.27435,43.92682],[5.27388,43.92775],[5.27955,43.92636],[5.28955,43.92897],[5.30337,43.93096],[5.31284,43.92399],[5.32766,43.92109],[5.33535,43.91497],[5.33025,43.90454],[5.32675,43.90026],[5.32125,43.89593],[5.31119,43.88238],[5.30682,43.87787],[5.30024,43.86614],[5.29637,43.86308],[5.2907,43.8609],[5.28875,43.86582],[5.28238,43.87293],[5.26958,43.88428],[5.25235,43.89582],[5.24583,43.89605],[5.24704,43.90076],[5.24896,43.90282]]]]}},{"type":"Feature","properties":{"code":"84103","nom":"Rustrel","departement":"84","region":"93"},"geometry":{"type":"MultiPolygon","coordinates":[[[[5.45515,43.90123],[5.45637,43.90404],[5.4552,43.90543],[5.4394,43.91878],[5.43763,43.92117],[5.44297,43.93474],[5.45539,43.95869],[5.45841,43.96017],[5.4745,43.96243],[5.47923,43.95944],[5.48349,43.95373],[5.51269,43.94531],[5.51154,43.934],[5.507,43.91688],[5.51411,43.91007],[5.51125,43.90824],[5.49325,43.90851],[5.48087,43.9045],[5.46815,43.90199],[5.45515,43.90123]]]]}},{"type":"Feature","properties":{"code":"84104","nom":"Sablet","departement":"84","region":"93"},"geometry":{"type":"MultiPolygon","coordinates":[[[[5.03314,44.18819],[5.03044,44.18357],[5.02704,44.1802],[5.01394,44.17975],[4.9925,44.18737],[4.98203,44.19002],[4.98142,44.18881],[4.9764,44.18906],[4.97092,44.1921],[4.96338,44.19776],[4.95933,44.20342],[4.98892,44.2059],[5.01327,44.20365],[5.02578,44.20365],[5.03035,44.19324],[5.03024,44.19112],[5.03314,44.18819]]]]}},{"type":"Feature","properties":{"code":"84105","nom":"Saignon","departement":"84","region":"93"},"geometry":{"type":"MultiPolygon","coordinates":[[[[5.42169,43.8391],[5.40789,43.83703],[5.40426,43.84573],[5.40898,43.85371],[5.41004,43.86037],[5.41297,43.86833],[5.41559,43.87158],[5.42043,43.8746],[5.4228,43.87852],[5.42285,43.88112],[5.42878,43.88172],[5.44163,43.88982],[5.44372,43.8952],[5.44692,43.89908],[5.45249,43.89569],[5.44659,43.88142],[5.44897,43.87683],[5.45365,43.87117],[5.46121,43.86413],[5.46496,43.8613],[5.46669,43.86091],[5.47186,43.85855],[5.47662,43.85181],[5.47403,43.85116],[5.4676,43.84692],[5.46454,43.84148],[5.43303,43.84321],[5.43042,43.84282],[5.42169,43.8391]]]]}},{"type":"Feature","properties":{"code":"84106","nom":"Sainte-Cécile-les-Vignes","departement":"84","region":"93"},"geometry":{"type":"MultiPolygon","coordinates":[[[[4.88353,44.20439],[4.86909,44.20737],[4.86736,44.21147],[4.87149,44.22382],[4.87191,44.22812],[4.8623,44.24589],[4.857,44.24584],[4.85725,44.24778],[4.86632,44.25303],[4.87242,44.25813],[4.88013,44.26174],[4.88571,44.26147],[4.89654,44.26431],[4.9011,44.26414],[4.89898,44.26146],[4.9052,44.26028],[4.9181,44.26013],[4.92819,44.26251],[4.93302,44.26222],[4.92674,44.25509],[4.92638,44.25262],[4.92449,44.25294],[4.91665,44.25145],[4.89784,44.24244],[4.89741,44.23935],[4.89867,44.23271],[4.90336,44.21813],[4.90906,44.21368],[4.91496,44.21084],[4.9155,44.20812],[4.90096,44.20552],[4.88353,44.20439]]]]}},{"type":"Feature","properties":{"code":"84107","nom":"Saint-Christol","departement":"84","region":"93"},"geometry":{"type":"MultiPolygon","coordinates":[[[[5.54459,44.06988],[5.54356,44.02593],[5.53596,44.01358],[5.52739,44.00645],[5.51938,43.99473],[5.51763,43.99154],[5.51606,43.98257],[5.51309,43.97332],[5.51095,43.97309],[5.50792,43.97911],[5.50015,43.98769],[5.49415,43.99153],[5.47194,44.02311],[5.46484,44.0197],[5.46204,44.01662],[5.45061,44.01485],[5.44078,44.01437],[5.43927,44.01414],[5.452,44.02575],[5.46406,44.02808],[5.46285,44.03217],[5.46013,44.03554],[5.46115,44.0399],[5.46841,44.04956],[5.47125,44.05552],[5.47527,44.0701],[5.49657,44.06548],[5.50269,44.06347],[5.51866,44.06416],[5.54459,44.06988]]]]}},{"type":"Feature","properties":{"code":"84108","nom":"Saint-Didier","departement":"84","region":"93"},"geometry":{"type":"MultiPolygon","coordinates":[[[[5.10384,43.99758],[5.09838,44.00118],[5.09791,44.01238],[5.1068,44.02491],[5.1157,44.02194],[5.11304,44.01585],[5.12211,44.00398],[5.1228,44.00095],[5.12196,43.99674],[5.1208,43.99708],[5.12056,43.99928],[5.11358,44.00259],[5.10947,44.00131],[5.10384,43.99758]]]]}},{"type":"Feature","properties":{"code":"84109","nom":"Saint-Hippolyte-le-Graveyron","departement":"84","region":"93"},"geometry":{"type":"MultiPolygon","coordinates":[[[[5.07044,44.10638],[5.06772,44.10903],[5.06382,44.1166],[5.06283,44.12457],[5.06353,44.12745],[5.06908,44.13006],[5.0709,44.13227],[5.07818,44.13302],[5.08164,44.13199],[5.08473,44.13255],[5.09112,44.13297],[5.09243,44.1312],[5.09197,44.13008],[5.08717,44.12069],[5.0819,44.11411],[5.07661,44.10339],[5.07424,44.1018],[5.07044,44.10638]]]]}},{"type":"Feature","properties":{"code":"84110","nom":"Saint-Léger-du-Ventoux","departement":"84","region":"93"},"geometry":{"type":"MultiPolygon","coordinates":[[[[5.24269,44.20141],[5.24364,44.20195],[5.24158,44.20488],[5.23781,44.20675],[5.23823,44.21343],[5.24051,44.23086],[5.24829,44.23107],[5.24982,44.23147],[5.25674,44.23003],[5.28063,44.21972],[5.28477,44.21765],[5.29805,44.20767],[5.30327,44.2057],[5.30702,44.20366],[5.3105,44.19664],[5.30958,44.19419],[5.30556,44.19049],[5.28959,44.18262],[5.27833,44.17397],[5.2808,44.18414],[5.2774,44.18795],[5.26228,44.19215],[5.25281,44.19324],[5.24235,44.19806],[5.24269,44.20141]]]]}},{"type":"Feature","properties":{"code":"84111","nom":"Saint-Marcellin-lès-Vaison","departement":"84","region":"93"},"geometry":{"type":"MultiPolygon","coordinates":[[[[5.08861,44.22922],[5.09233,44.23607],[5.08984,44.23897],[5.08935,44.24001],[5.09129,44.24091],[5.09528,44.24873],[5.11482,44.24434],[5.1128,44.23122],[5.0929,44.22872],[5.08861,44.22922]]]]}},{"type":"Feature","properties":{"code":"84112","nom":"Saint-Martin-de-Castillon","departement":"84","region":"93"},"geometry":{"type":"MultiPolygon","coordinates":[[[[5.47662,43.85181],[5.47186,43.85855],[5.46669,43.86091],[5.49094,43.87545],[5.50062,43.88309],[5.50996,43.89358],[5.51128,43.89369],[5.51258,43.89223],[5.52908,43.88927],[5.53828,43.89111],[5.54686,43.89154],[5.55201,43.87139],[5.55386,43.86733],[5.56152,43.8575],[5.54857,43.85182],[5.54869,43.83966],[5.54473,43.81761],[5.53123,43.81877],[5.52096,43.82003],[5.51184,43.8189],[5.48908,43.81825],[5.48998,43.82246],[5.49656,43.83624],[5.50883,43.84022],[5.51096,43.84305],[5.50735,43.84665],[5.50302,43.84809],[5.48048,43.84968],[5.47662,43.85181]]]]}},{"type":"Feature","properties":{"code":"84113","nom":"Saint-Martin-de-la-Brasque","departement":"84","region":"93"},"geometry":{"type":"MultiPolygon","coordinates":[[[[5.55052,43.77372],[5.55732,43.75621],[5.54574,43.75426],[5.52446,43.74701],[5.52308,43.74885],[5.52897,43.75712],[5.52993,43.75999],[5.53035,43.76863],[5.52744,43.77907],[5.53621,43.78327],[5.54194,43.78406],[5.53821,43.77782],[5.53824,43.77462],[5.53901,43.77405],[5.55052,43.77372]]]]}},{"type":"Feature","properties":{"code":"84114","nom":"Saint-Pantaléon","departement":"84","region":"93"},"geometry":{"type":"MultiPolygon","coordinates":[[[[5.20964,43.87655],[5.22066,43.88531],[5.22115,43.87928],[5.21958,43.87251],[5.21646,43.87305],[5.20964,43.87655]]]]}},{"type":"Feature","properties":{"code":"84115","nom":"Saint-Pierre-de-Vassols","departement":"84","region":"93"},"geometry":{"type":"MultiPolygon","coordinates":[[[[5.15904,44.0875],[5.15414,44.08549],[5.14526,44.08552],[5.12943,44.08388],[5.12951,44.08475],[5.13247,44.10537],[5.13982,44.11362],[5.14092,44.11373],[5.14249,44.10971],[5.14903,44.10298],[5.15982,44.09948],[5.16355,44.09258],[5.15995,44.09006],[5.16005,44.08793],[5.15904,44.0875]]]]}},{"type":"Feature","properties":{"code":"84116","nom":"Saint-Romain-en-Viennois","departement":"84","region":"93"},"geometry":{"type":"MultiPolygon","coordinates":[[[[5.11482,44.24434],[5.09528,44.24873],[5.09402,44.24793],[5.0907,44.25099],[5.08834,44.25483],[5.08363,44.27187],[5.0742,44.27713],[5.09147,44.28057],[5.09591,44.27986],[5.11433,44.27026],[5.11994,44.26364],[5.11883,44.2616],[5.11831,44.26126],[5.12201,44.25916],[5.12482,44.25572],[5.12265,44.24771],[5.11889,44.24595],[5.11482,44.24434]]]]}},{"type":"Feature","properties":{"code":"84117","nom":"Saint-Roman-de-Malegarde","departement":"84","region":"93"},"geometry":{"type":"MultiPolygon","coordinates":[[[[4.93302,44.26222],[4.9376,44.26607],[4.94275,44.26897],[4.95999,44.27426],[4.97129,44.27982],[4.97462,44.27421],[4.98069,44.26856],[4.99077,44.26544],[4.98956,44.26485],[4.98419,44.26367],[4.96996,44.25416],[4.96584,44.25664],[4.9642,44.25679],[4.95563,44.25346],[4.95151,44.25011],[4.93853,44.24862],[4.93337,44.24962],[4.93096,44.25181],[4.92638,44.25262],[4.92674,44.25509],[4.93302,44.26222]]]]}},{"type":"Feature","properties":{"code":"84118","nom":"Saint-Saturnin-lès-Apt","departement":"84","region":"93"},"geometry":{"type":"MultiPolygon","coordinates":[[[[5.37435,43.90635],[5.37237,43.90941],[5.36266,43.91572],[5.34745,43.91929],[5.34071,43.9191],[5.33535,43.91497],[5.32766,43.92109],[5.31284,43.92399],[5.30337,43.93096],[5.28955,43.92897],[5.27955,43.92636],[5.27388,43.92775],[5.27423,43.93225],[5.28062,43.93579],[5.28245,43.93486],[5.29013,43.93792],[5.32621,43.95947],[5.33518,43.97129],[5.34417,43.97831],[5.35254,43.98702],[5.35948,43.99585],[5.36153,43.99527],[5.36884,43.9962],[5.38989,44.00474],[5.4079,44.00833],[5.41824,44.01296],[5.43275,44.01426],[5.43927,44.01414],[5.43787,43.99548],[5.43429,43.9791],[5.41868,43.95103],[5.4047,43.93725],[5.39891,43.92835],[5.3978,43.92239],[5.39305,43.91228],[5.37907,43.91167],[5.37435,43.90635]]]]}},{"type":"Feature","properties":{"code":"84119","nom":"Saint-Saturnin-lès-Avignon","departement":"84","region":"93"},"geometry":{"type":"MultiPolygon","coordinates":[[[[4.92895,43.96774],[4.93385,43.96906],[4.93901,43.96818],[4.93932,43.96721],[4.94618,43.97323],[4.95094,43.97476],[4.9596,43.97254],[4.97627,43.96812],[4.9521,43.96277],[4.95262,43.96098],[4.95524,43.95932],[4.95585,43.95667],[4.94911,43.95632],[4.94396,43.95521],[4.92754,43.95019],[4.9259,43.95287],[4.92345,43.95194],[4.92247,43.95387],[4.91765,43.95391],[4.9178,43.95498],[4.914,43.95938],[4.91458,43.9606],[4.92474,43.9666],[4.92895,43.96774]]]]}},{"type":"Feature","properties":{"code":"84120","nom":"Saint-Trinit","departement":"84","region":"93"},"geometry":{"type":"MultiPolygon","coordinates":[[[[5.49889,44.11605],[5.49871,44.11058],[5.50043,44.10001],[5.49793,44.07443],[5.50269,44.06347],[5.49657,44.06548],[5.47527,44.0701],[5.47392,44.07877],[5.47217,44.08205],[5.45361,44.10069],[5.44646,44.11001],[5.44749,44.11384],[5.45473,44.11917],[5.48078,44.11809],[5.49447,44.11549],[5.49889,44.11605]]]]}},{"type":"Feature","properties":{"code":"84121","nom":"Sannes","departement":"84","region":"93"},"geometry":{"type":"MultiPolygon","coordinates":[[[[5.50459,43.75853],[5.51119,43.74698],[5.50098,43.7485],[5.49166,43.74841],[5.48476,43.74916],[5.47832,43.7505],[5.47273,43.75263],[5.47411,43.75561],[5.47244,43.76021],[5.47361,43.76823],[5.47484,43.77046],[5.48642,43.76873],[5.49021,43.76513],[5.49176,43.76195],[5.49883,43.75748],[5.50459,43.75853]]]]}},{"type":"Feature","properties":{"code":"84122","nom":"Sarrians","departement":"84","region":"93"},"geometry":{"type":"MultiPolygon","coordinates":[[[[4.99308,44.09551],[4.98656,44.09073],[4.98427,44.08084],[4.98472,44.07972],[4.98541,44.07675],[4.98408,44.07572],[4.97968,44.0747],[4.97711,44.07154],[4.9786,44.06503],[4.94222,44.05403],[4.939,44.07029],[4.93522,44.07669],[4.93287,44.07588],[4.93051,44.08233],[4.91508,44.10176],[4.9156,44.10402],[4.91885,44.1064],[4.93002,44.11976],[4.93422,44.12309],[4.94092,44.12686],[4.94836,44.12839],[4.95182,44.13],[4.95323,44.13795],[4.95102,44.14452],[4.95208,44.14966],[4.96711,44.14178],[4.9762,44.13122],[4.98366,44.12731],[4.98481,44.1255],[4.98828,44.1174],[4.99199,44.10079],[4.99308,44.09551]]]]}},{"type":"Feature","properties":{"code":"84123","nom":"Sault","departement":"84","region":"93"},"geometry":{"type":"MultiPolygon","coordinates":[[[[5.34949,44.00637],[5.35581,44.01232],[5.36028,44.01862],[5.36703,44.03522],[5.37233,44.04335],[5.38306,44.05489],[5.39039,44.06707],[5.39064,44.07091],[5.3626,44.0904],[5.35887,44.09164],[5.33311,44.0959],[5.3192,44.09727],[5.30318,44.09511],[5.31136,44.10282],[5.31552,44.10974],[5.31666,44.11765],[5.31546,44.12198],[5.31497,44.13114],[5.31682,44.13479],[5.32128,44.13769],[5.32557,44.14303],[5.3279,44.155],[5.3264,44.15959],[5.33786,44.14604],[5.34807,44.1356],[5.3673,44.13162],[5.41135,44.12023],[5.4196,44.11633],[5.43201,44.11198],[5.44646,44.11001],[5.45361,44.10069],[5.47217,44.08205],[5.47392,44.07877],[5.47527,44.0701],[5.47125,44.05552],[5.46841,44.04956],[5.46115,44.0399],[5.46013,44.03554],[5.46285,44.03217],[5.46406,44.02808],[5.452,44.02575],[5.43927,44.01414],[5.43275,44.01426],[5.41824,44.01296],[5.4079,44.00833],[5.38989,44.00474],[5.36884,43.9962],[5.36153,43.99527],[5.35948,43.99585],[5.35886,43.99977],[5.34949,44.00637]]]]}},{"type":"Feature","properties":{"code":"84124","nom":"Saumane-de-Vaucluse","departement":"84","region":"93"},"geometry":{"type":"MultiPolygon","coordinates":[[[[5.08676,43.95524],[5.08828,43.95789],[5.09317,43.96142],[5.10489,43.96086],[5.12478,43.95538],[5.13016,43.95567],[5.13393,43.95607],[5.14197,43.95458],[5.15975,43.94952],[5.1594,43.94221],[5.15556,43.94206],[5.15481,43.942],[5.14568,43.93977],[5.13866,43.93481],[5.12351,43.93079],[5.11781,43.92518],[5.10966,43.91367],[5.10666,43.91178],[5.10422,43.91054],[5.1034,43.90827],[5.09787,43.90618],[5.09208,43.90672],[5.0863,43.90926],[5.08148,43.9149],[5.08192,43.92071],[5.08434,43.92795],[5.08908,43.93879],[5.08676,43.95524]]]]}},{"type":"Feature","properties":{"code":"84125","nom":"Savoillan","departement":"84","region":"93"},"geometry":{"type":"MultiPolygon","coordinates":[[[[5.3832,44.15536],[5.36929,44.15504],[5.3589,44.15771],[5.35493,44.16031],[5.35727,44.17358],[5.36609,44.19076],[5.37175,44.19701],[5.37796,44.20009],[5.38317,44.1991],[5.38053,44.19585],[5.38142,44.19172],[5.38604,44.18618],[5.38651,44.181],[5.38369,44.16475],[5.3832,44.15536]]]]}},{"type":"Feature","properties":{"code":"84126","nom":"Séguret","departement":"84","region":"93"},"geometry":{"type":"MultiPolygon","coordinates":[[[[5.06256,44.19353],[5.03455,44.18903],[5.03314,44.18819],[5.03024,44.19112],[5.03035,44.19324],[5.02578,44.20365],[5.01327,44.20365],[4.98892,44.2059],[4.98978,44.21003],[4.99581,44.2222],[5.00998,44.23811],[5.0152,44.24264],[5.0183,44.24219],[5.02195,44.24394],[5.02441,44.2387],[5.0297,44.23451],[5.03465,44.23282],[5.03901,44.23367],[5.04057,44.23679],[5.043,44.23773],[5.04987,44.23797],[5.05682,44.23457],[5.05808,44.23274],[5.0552,44.21402],[5.06044,44.19956],[5.05844,44.1968],[5.06256,44.19353]]]]}},{"type":"Feature","properties":{"code":"84127","nom":"Sérignan-du-Comtat","departement":"84","region":"93"},"geometry":{"type":"MultiPolygon","coordinates":[[[[4.88353,44.20439],[4.88377,44.19967],[4.87825,44.19463],[4.87635,44.17833],[4.87509,44.1767],[4.87205,44.17563],[4.85646,44.17418],[4.85188,44.17594],[4.84681,44.17745],[4.83903,44.17668],[4.83276,44.17265],[4.82361,44.16439],[4.82088,44.16595],[4.82061,44.17212],[4.82178,44.18139],[4.82042,44.18784],[4.81548,44.18767],[4.81523,44.19023],[4.82,44.19433],[4.82565,44.21072],[4.82622,44.21644],[4.82484,44.22231],[4.84132,44.2165],[4.86736,44.21147],[4.86909,44.20737],[4.88353,44.20439]]]]}},{"type":"Feature","properties":{"code":"84128","nom":"Sivergues","departement":"84","region":"93"},"geometry":{"type":"MultiPolygon","coordinates":[[[[5.41878,43.81351],[5.40411,43.80789],[5.39899,43.80746],[5.39632,43.816],[5.39195,43.82501],[5.39231,43.82898],[5.40789,43.83703],[5.42169,43.8391],[5.44564,43.81932],[5.44533,43.81765],[5.44023,43.81302],[5.42357,43.81282],[5.41878,43.81351]]]]}},{"type":"Feature","properties":{"code":"84129","nom":"Sorgues","departement":"84","region":"93"},"geometry":{"type":"MultiPolygon","coordinates":[[[[4.88458,43.9816],[4.87474,43.98637],[4.86266,43.99003],[4.85886,43.99071],[4.8516,43.98905],[4.84557,43.99664],[4.84432,44.00283],[4.84271,44.011],[4.8399,44.01365],[4.83685,44.01505],[4.82843,44.01617],[4.82306,44.01602],[4.81962,44.01725],[4.81794,44.02124],[4.81645,44.03146],[4.80777,44.04036],[4.79569,44.04804],[4.79879,44.04879],[4.81517,44.04554],[4.82778,44.03759],[4.84717,44.03554],[4.85519,44.03693],[4.8622,44.03604],[4.87399,44.0314],[4.87638,44.03155],[4.88419,44.036],[4.88604,44.03537],[4.88546,44.0345],[4.88898,44.03365],[4.89755,44.03162],[4.89996,44.03189],[4.9068,44.03068],[4.91302,44.02679],[4.91522,44.01894],[4.91495,44.01806],[4.91079,44.01682],[4.90853,44.01211],[4.90728,44.00458],[4.91095,43.99297],[4.90569,43.99031],[4.89532,43.98743],[4.89172,43.98635],[4.88458,43.9816]]]]}},{"type":"Feature","properties":{"code":"84130","nom":"Suzette","departement":"84","region":"93"},"geometry":{"type":"MultiPolygon","coordinates":[[[[5.07388,44.18799],[5.07511,44.18121],[5.0826,44.16884],[5.08014,44.16231],[5.07687,44.15988],[5.07416,44.15965],[5.07428,44.15861],[5.06906,44.15757],[5.06572,44.15956],[5.06632,44.16008],[5.05623,44.16885],[5.04978,44.1688],[5.04082,44.16132],[5.0406,44.16196],[5.03605,44.16233],[5.03193,44.16466],[5.03948,44.17328],[5.07214,44.18771],[5.07388,44.18799]]]]}},{"type":"Feature","properties":{"code":"84131","nom":"Taillades","departement":"84","region":"93"},"geometry":{"type":"MultiPolygon","coordinates":[[[[5.1234,43.81529],[5.1212,43.81579],[5.11573,43.81914],[5.10784,43.82172],[5.09696,43.82119],[5.09163,43.82206],[5.07664,43.82739],[5.06955,43.83074],[5.07855,43.84057],[5.07904,43.84354],[5.07756,43.84583],[5.08654,43.84702],[5.0868,43.84627],[5.10665,43.83549],[5.11921,43.82502],[5.12237,43.82022],[5.1234,43.81529]]]]}},{"type":"Feature","properties":{"code":"84132","nom":"Le Thor","departement":"84","region":"93"},"geometry":{"type":"MultiPolygon","coordinates":[[[[4.9936,43.89252],[4.98671,43.89636],[4.96783,43.9117],[4.96651,43.92483],[4.96537,43.93072],[4.9629,43.9343],[4.95975,43.94877],[4.9603,43.95145],[4.95935,43.95451],[4.95585,43.95667],[4.95524,43.95932],[4.95262,43.96098],[4.9521,43.96277],[4.97627,43.96812],[4.98067,43.96761],[5.00124,43.96149],[5.00167,43.95488],[5.00288,43.95142],[5.00509,43.94806],[5.00782,43.94604],[5.01491,43.94448],[5.02214,43.94619],[5.02526,43.94611],[5.02685,43.94125],[5.03691,43.93577],[5.03319,43.93197],[5.02895,43.92666],[5.02563,43.92378],[5.02327,43.9231],[5.02467,43.92075],[5.01977,43.91585],[5.01559,43.90968],[5.01483,43.90373],[5.01601,43.89427],[5.01953,43.88735],[5.02214,43.87907],[4.9987,43.88309],[4.99559,43.89061],[4.9936,43.89252]]]]}},{"type":"Feature","properties":{"code":"84133","nom":"La Tour-d'Aigues","departement":"84","region":"93"},"geometry":{"type":"MultiPolygon","coordinates":[[[[5.50869,43.72732],[5.51113,43.73519],[5.51119,43.74698],[5.52154,43.74286],[5.52496,43.74509],[5.52446,43.74701],[5.54574,43.75426],[5.55732,43.75621],[5.55917,43.75611],[5.57227,43.7468],[5.57875,43.74407],[5.58642,43.74375],[5.59307,43.74236],[5.61389,43.73226],[5.61079,43.71731],[5.60282,43.70875],[5.6008,43.7046],[5.61374,43.69336],[5.62675,43.67628],[5.6278,43.67266],[5.6193,43.66932],[5.61029,43.67929],[5.5993,43.67791],[5.59978,43.68351],[5.59286,43.69474],[5.58894,43.69934],[5.58003,43.7039],[5.56697,43.70637],[5.55575,43.70679],[5.5542,43.70334],[5.55402,43.70001],[5.54666,43.70137],[5.53069,43.70871],[5.52086,43.71627],[5.50869,43.72732]]]]}},{"type":"Feature","properties":{"code":"84134","nom":"Travaillan","departement":"84","region":"93"},"geometry":{"type":"MultiPolygon","coordinates":[[[[4.88353,44.20439],[4.90096,44.20552],[4.9155,44.20812],[4.92912,44.21061],[4.93288,44.20897],[4.93509,44.20502],[4.93553,44.19854],[4.93827,44.19019],[4.93894,44.18254],[4.93414,44.17955],[4.93564,44.17354],[4.92232,44.17355],[4.9118,44.17172],[4.8979,44.17477],[4.88985,44.1752],[4.88788,44.17367],[4.88188,44.17158],[4.87746,44.17161],[4.87258,44.17408],[4.87205,44.17563],[4.87509,44.1767],[4.87635,44.17833],[4.87825,44.19463],[4.88377,44.19967],[4.88353,44.20439]]]]}},{"type":"Feature","properties":{"code":"84135","nom":"Uchaux","departement":"84","region":"93"},"geometry":{"type":"MultiPolygon","coordinates":[[[[4.80138,44.17662],[4.80087,44.19548],[4.79879,44.19536],[4.78915,44.20201],[4.78605,44.20929],[4.78303,44.21086],[4.77878,44.2107],[4.77729,44.22217],[4.77943,44.23071],[4.77478,44.23604],[4.77337,44.23738],[4.77524,44.24189],[4.78618,44.24053],[4.8121,44.24204],[4.81478,44.23205],[4.81734,44.22976],[4.82559,44.22857],[4.82404,44.22631],[4.82484,44.22231],[4.82622,44.21644],[4.82565,44.21072],[4.82,44.19433],[4.81523,44.19023],[4.81548,44.18767],[4.81288,44.18233],[4.80138,44.17662]]]]}},{"type":"Feature","properties":{"code":"84136","nom":"Vacqueyras","departement":"84","region":"93"},"geometry":{"type":"MultiPolygon","coordinates":[[[[4.95208,44.14966],[4.95268,44.15138],[4.95836,44.15711],[4.96441,44.15597],[4.96766,44.15807],[4.96944,44.16261],[4.97478,44.16336],[4.97931,44.1631],[4.99334,44.15702],[4.99563,44.15268],[4.99229,44.14688],[4.99528,44.13847],[4.99692,44.13578],[5.00047,44.13305],[5.00064,44.13159],[4.99578,44.12582],[4.98481,44.1255],[4.98366,44.12731],[4.9762,44.13122],[4.96711,44.14178],[4.95208,44.14966]]]]}},{"type":"Feature","properties":{"code":"84137","nom":"Vaison-la-Romaine","departement":"84","region":"93"},"geometry":{"type":"MultiPolygon","coordinates":[[[[5.02529,44.27295],[5.04242,44.27463],[5.0447,44.27668],[5.0443,44.27897],[5.04514,44.27941],[5.05006,44.27709],[5.06272,44.27659],[5.0742,44.27713],[5.08363,44.27187],[5.08834,44.25483],[5.0907,44.25099],[5.09402,44.24793],[5.09528,44.24873],[5.09129,44.24091],[5.08935,44.24001],[5.08984,44.23897],[5.09233,44.23607],[5.08861,44.22922],[5.08492,44.22939],[5.07803,44.22529],[5.07465,44.22235],[5.06861,44.21119],[5.06044,44.19956],[5.0552,44.21402],[5.05808,44.23274],[5.05682,44.23457],[5.04987,44.23797],[5.043,44.23773],[5.04057,44.23679],[5.03901,44.23367],[5.03465,44.23282],[5.0297,44.23451],[5.02441,44.2387],[5.02195,44.24394],[5.02462,44.24547],[5.02891,44.25284],[5.02953,44.25622],[5.02965,44.26561],[5.02782,44.2687],[5.02571,44.26974],[5.02529,44.27295]]]]}},{"type":"Feature","properties":{"code":"84138","nom":"Valréas","departement":"84","region":"93"},"geometry":{"type":"MultiPolygon","coordinates":[[[[5.02198,44.35085],[5.0174,44.34048],[5.00902,44.33389],[5.00707,44.32973],[5.00144,44.32753],[4.99515,44.32657],[4.9898,44.3285],[4.97065,44.33986],[4.97102,44.34786],[4.96998,44.35291],[4.96649,44.35547],[4.94913,44.36482],[4.93755,44.36121],[4.93428,44.36598],[4.92697,44.36338],[4.92371,44.36415],[4.92243,44.36556],[4.92801,44.37],[4.93066,44.37093],[4.94149,44.37779],[4.95607,44.39099],[4.95647,44.39806],[4.96106,44.41554],[4.95933,44.41975],[4.96245,44.42123],[4.97887,44.42344],[4.98886,44.42324],[4.99063,44.42065],[5.00246,44.41252],[5.00914,44.41113],[5.01182,44.41557],[5.01855,44.41576],[5.01916,44.41281],[5.01703,44.40817],[5.01763,44.40726],[5.01378,44.40338],[5.01478,44.3975],[5.0158,44.39273],[5.02014,44.3914],[5.0403,44.3874],[5.05599,44.38325],[5.06036,44.38419],[5.071,44.38318],[5.07219,44.37932],[5.07032,44.37645],[5.06423,44.37314],[5.05683,44.3676],[5.0547,44.3648],[5.02736,44.36295],[5.02466,44.36113],[5.02171,44.35706],[5.02198,44.35085]]]]}},{"type":"Feature","properties":{"code":"84139","nom":"Fontaine-de-Vaucluse","departement":"84","region":"93"},"geometry":{"type":"MultiPolygon","coordinates":[[[[5.10666,43.91178],[5.10966,43.91367],[5.11781,43.92518],[5.12351,43.93079],[5.13866,43.93481],[5.14568,43.93977],[5.15481,43.942],[5.1492,43.93085],[5.14542,43.91652],[5.14419,43.9151],[5.1332,43.90926],[5.12674,43.90672],[5.11439,43.90739],[5.10666,43.91178]]]]}},{"type":"Feature","properties":{"code":"84140","nom":"Vaugines","departement":"84","region":"93"},"geometry":{"type":"MultiPolygon","coordinates":[[[[5.39899,43.80746],[5.40411,43.80789],[5.41878,43.81351],[5.4199,43.80221],[5.4262,43.78902],[5.41985,43.77879],[5.40716,43.76807],[5.40535,43.75648],[5.40929,43.75124],[5.417,43.74728],[5.4301,43.74247],[5.42363,43.73406],[5.41189,43.7385],[5.39017,43.75664],[5.38629,43.75757],[5.39315,43.78764],[5.39293,43.79079],[5.39096,43.7943],[5.3894,43.80022],[5.39014,43.80241],[5.39312,43.80524],[5.39899,43.80746]]]]}},{"type":"Feature","properties":{"code":"84141","nom":"Vedène","departement":"84","region":"93"},"geometry":{"type":"MultiPolygon","coordinates":[[[[4.92895,43.96774],[4.92474,43.9666],[4.91458,43.9606],[4.914,43.95938],[4.9178,43.95498],[4.91765,43.95391],[4.90678,43.95388],[4.90191,43.95409],[4.88413,43.95294],[4.8833,43.96049],[4.88244,43.96842],[4.88217,43.9719],[4.88487,43.97629],[4.88458,43.9816],[4.89172,43.98635],[4.89532,43.98743],[4.90569,43.99031],[4.91095,43.99297],[4.91274,43.99423],[4.91479,43.98732],[4.91864,43.98234],[4.92895,43.96774]]]]}},{"type":"Feature","properties":{"code":"84142","nom":"Velleron","departement":"84","region":"93"},"geometry":{"type":"MultiPolygon","coordinates":[[[[5.02526,43.94611],[5.02214,43.94619],[5.01491,43.94448],[5.00782,43.94604],[5.00509,43.94806],[5.00288,43.95142],[5.00167,43.95488],[5.00124,43.96149],[4.98067,43.96761],[4.97627,43.96812],[4.9596,43.97254],[4.99595,43.97055],[5.0087,43.97151],[5.02227,43.97482],[5.03629,43.97726],[5.03983,43.9773],[5.04344,43.97582],[5.0511,43.97316],[5.06425,43.97078],[5.06646,43.9685],[5.06824,43.96458],[5.0661,43.95931],[5.06251,43.95601],[5.05896,43.95322],[5.04908,43.94796],[5.0299,43.94589],[5.02526,43.94611]]]]}},{"type":"Feature","properties":{"code":"84143","nom":"Venasque","departement":"84","region":"93"},"geometry":{"type":"MultiPolygon","coordinates":[[[[5.1157,44.02194],[5.12181,44.01954],[5.12644,44.01888],[5.13175,44.02198],[5.14264,44.02071],[5.1503,44.0161],[5.15512,44.01162],[5.15418,44.00769],[5.16137,44.00378],[5.17004,44.00146],[5.18216,44.00268],[5.18853,43.99752],[5.19479,43.99416],[5.21583,43.98939],[5.22265,43.98575],[5.22434,43.98311],[5.21624,43.98051],[5.20861,43.97274],[5.20037,43.96281],[5.19556,43.95214],[5.1959,43.95032],[5.18168,43.95224],[5.16438,43.95122],[5.15797,43.96053],[5.15022,43.96715],[5.13574,43.97607],[5.12552,43.99262],[5.12196,43.99674],[5.1228,44.00095],[5.12211,44.00398],[5.11304,44.01585],[5.1157,44.02194]]]]}},{"type":"Feature","properties":{"code":"84144","nom":"Viens","departement":"84","region":"93"},"geometry":{"type":"MultiPolygon","coordinates":[[[[5.59021,43.88715],[5.5876,43.88611],[5.5808,43.87497],[5.57314,43.86496],[5.57015,43.86198],[5.56152,43.8575],[5.55386,43.86733],[5.55201,43.87139],[5.54686,43.89154],[5.53828,43.89111],[5.52908,43.88927],[5.51258,43.89223],[5.51128,43.89369],[5.51585,43.90175],[5.52173,43.90567],[5.52237,43.90895],[5.52604,43.9092],[5.5354,43.91213],[5.53707,43.91394],[5.53011,43.92559],[5.54498,43.93891],[5.55105,43.94098],[5.55964,43.94274],[5.56894,43.94252],[5.5815,43.91969],[5.58486,43.91716],[5.60555,43.91652],[5.60615,43.91593],[5.60783,43.91478],[5.59071,43.89055],[5.59021,43.88715]]]]}},{"type":"Feature","properties":{"code":"84145","nom":"Villars","departement":"84","region":"93"},"geometry":{"type":"MultiPolygon","coordinates":[[[[5.43927,44.01414],[5.44078,44.01437],[5.44755,44.00331],[5.45861,43.99383],[5.46303,43.98795],[5.4662,43.98272],[5.46651,43.97936],[5.47135,43.96763],[5.47486,43.96447],[5.4745,43.96243],[5.45841,43.96017],[5.45539,43.95869],[5.44297,43.93474],[5.43763,43.92117],[5.4334,43.92016],[5.41961,43.90741],[5.40968,43.90146],[5.40468,43.90199],[5.39641,43.90617],[5.39472,43.91128],[5.39305,43.91228],[5.3978,43.92239],[5.39891,43.92835],[5.4047,43.93725],[5.41868,43.95103],[5.43429,43.9791],[5.43787,43.99548],[5.43927,44.01414]]]]}},{"type":"Feature","properties":{"code":"84146","nom":"Villedieu","departement":"84","region":"93"},"geometry":{"type":"MultiPolygon","coordinates":[[[[5.06054,44.30821],[5.06572,44.3025],[5.06808,44.29627],[5.07666,44.28395],[5.07428,44.28083],[5.0742,44.27713],[5.06272,44.27659],[5.05006,44.27709],[5.04514,44.27941],[5.0443,44.27897],[5.0447,44.27668],[5.04242,44.27463],[5.02529,44.27295],[5.02415,44.28482],[5.01702,44.29269],[5.02928,44.29794],[5.04616,44.30197],[5.06054,44.30821]]]]}},{"type":"Feature","properties":{"code":"84147","nom":"Villelaure","departement":"84","region":"93"},"geometry":{"type":"MultiPolygon","coordinates":[[[[5.3881,43.7022],[5.39363,43.70996],[5.40868,43.71257],[5.41753,43.71494],[5.42071,43.71676],[5.42835,43.72935],[5.42795,43.73299],[5.43872,43.73295],[5.45592,43.7282],[5.4652,43.71457],[5.46229,43.71392],[5.45995,43.71391],[5.45292,43.70704],[5.44517,43.68001],[5.43912,43.68113],[5.42393,43.68682],[5.41292,43.69294],[5.40579,43.69627],[5.3881,43.7022]]]]}},{"type":"Feature","properties":{"code":"84148","nom":"Villes-sur-Auzon","departement":"84","region":"93"},"geometry":{"type":"MultiPolygon","coordinates":[[[[5.30636,44.06493],[5.30094,44.06511],[5.2974,44.05781],[5.29479,44.05592],[5.2844,44.05393],[5.26853,44.05389],[5.26291,44.05153],[5.24923,44.04375],[5.24164,44.04231],[5.23319,44.04378],[5.22247,44.04401],[5.21102,44.04237],[5.20793,44.04724],[5.21557,44.05652],[5.21822,44.0635],[5.21951,44.07213],[5.22494,44.07946],[5.22574,44.08096],[5.24811,44.0841],[5.26733,44.08567],[5.28316,44.08875],[5.29892,44.08936],[5.29888,44.0849],[5.3055,44.06903],[5.30636,44.06493]]]]}},{"type":"Feature","properties":{"code":"84149","nom":"Violès","departement":"84","region":"93"},"geometry":{"type":"MultiPolygon","coordinates":[[[[4.98142,44.18881],[4.97091,44.17921],[4.96844,44.17119],[4.95836,44.15711],[4.95268,44.15138],[4.95208,44.14966],[4.93967,44.15088],[4.92075,44.16071],[4.93208,44.16206],[4.936,44.17018],[4.93564,44.17354],[4.93414,44.17955],[4.93894,44.18254],[4.93827,44.19019],[4.93553,44.19854],[4.94887,44.20231],[4.95933,44.20342],[4.96338,44.19776],[4.97092,44.1921],[4.9764,44.18906],[4.98142,44.18881]]]]}},{"type":"Feature","properties":{"code":"84150","nom":"Visan","departement":"84","region":"93"},"geometry":{"type":"MultiPolygon","coordinates":[[[[4.88928,44.30404],[4.89154,44.30732],[4.89084,44.31386],[4.88524,44.31891],[4.8817,44.32482],[4.88294,44.32752],[4.88951,44.33307],[4.89428,44.333],[4.89536,44.33817],[4.8994,44.33644],[4.90394,44.3373],[4.90724,44.33876],[4.93013,44.35915],[4.93755,44.36121],[4.94913,44.36482],[4.96649,44.35547],[4.96998,44.35291],[4.97102,44.34786],[4.97065,44.33986],[4.9898,44.3285],[4.99515,44.32657],[5.00144,44.32753],[5.00707,44.32973],[5.00902,44.33389],[5.01004,44.33069],[5.01378,44.32579],[5.00258,44.32072],[4.99257,44.31375],[4.99129,44.31214],[4.98766,44.30093],[4.98885,44.29693],[4.98713,44.29273],[4.98106,44.29659],[4.97307,44.29868],[4.95939,44.30012],[4.95366,44.30125],[4.94636,44.3046],[4.94009,44.30606],[4.92191,44.30865],[4.91736,44.3087],[4.90989,44.30695],[4.88928,44.30404]]]]}},{"type":"Feature","properties":{"code":"84151","nom":"Vitrolles-en-Lubéron","departement":"84","region":"93"},"geometry":{"type":"MultiPolygon","coordinates":[[[[5.59371,43.78233],[5.59272,43.78272],[5.59246,43.79203],[5.57882,43.80668],[5.57273,43.81189],[5.56689,43.81652],[5.56225,43.81752],[5.55275,43.81694],[5.55091,43.81745],[5.57927,43.82959],[5.59508,43.82691],[5.62257,43.83018],[5.62875,43.8298],[5.63115,43.8289],[5.63585,43.82759],[5.64604,43.82631],[5.64421,43.8214],[5.6261,43.8202],[5.6227,43.81818],[5.61576,43.81089],[5.61256,43.80379],[5.6108,43.79384],[5.6067,43.79039],[5.59371,43.78233]]]]}}]}