{"type":"FeatureCollection","features":[{"type":"Feature","properties":{"code":"90044","nom":"Felon","departement":"90","region":"27"},"geometry":{"type":"MultiPolygon","coordinates":[[[[7.00076,47.70469],[6.97822,47.6943],[6.96586,47.70486],[6.96074,47.70818],[6.95858,47.71033],[6.95725,47.71348],[6.97337,47.71324],[6.98422,47.71636],[6.98782,47.71797],[6.99193,47.71442],[6.99511,47.70844],[7.00076,47.70469]]]]}},{"type":"Feature","properties":{"code":"90086","nom":"Romagny-sous-Rougemont","departement":"90","region":"27"},"geometry":{"type":"MultiPolygon","coordinates":[[[[6.9473,47.72196],[6.95077,47.72396],[6.96808,47.72701],[6.97092,47.7229],[6.98169,47.7189],[6.98422,47.71636],[6.97337,47.71324],[6.95725,47.71348],[6.95589,47.71791],[6.95394,47.71734],[6.95157,47.72278],[6.9473,47.72196]]]]}},{"type":"Feature","properties":{"code":"90087","nom":"Roppe","departement":"90","region":"27"},"geometry":{"type":"MultiPolygon","coordinates":[[[[6.90884,47.66486],[6.90983,47.66938],[6.90799,47.67099],[6.89755,47.67477],[6.88557,47.68041],[6.89226,47.69272],[6.9093,47.69081],[6.9267,47.69025],[6.92843,47.67743],[6.92799,47.66394],[6.92626,47.66147],[6.92397,47.6601],[6.91024,47.66287],[6.90884,47.66486]]]]}},{"type":"Feature","properties":{"code":"90001","nom":"Andelnans","departement":"90","region":"27"},"geometry":{"type":"MultiPolygon","coordinates":[[[[6.8393,47.60735],[6.84612,47.60932],[6.85495,47.60992],[6.86533,47.60932],[6.88099,47.61075],[6.88099,47.61055],[6.8855,47.6037],[6.88575,47.5988],[6.88457,47.59803],[6.87295,47.59666],[6.86707,47.59487],[6.86653,47.59269],[6.86302,47.59223],[6.86309,47.59493],[6.85963,47.59794],[6.84959,47.60297],[6.84021,47.60288],[6.83875,47.60741],[6.8393,47.60735]]]]}},{"type":"Feature","properties":{"code":"90002","nom":"Angeot","departement":"90","region":"27"},"geometry":{"type":"MultiPolygon","coordinates":[[[[7.02755,47.70532],[7.02756,47.70357],[7.03823,47.69262],[7.03636,47.69216],[7.00934,47.68756],[7.00096,47.68874],[6.99678,47.68857],[6.98583,47.68711],[6.98352,47.68602],[6.96873,47.68986],[6.96824,47.69054],[6.97822,47.6943],[7.00076,47.70469],[7.00112,47.70423],[7.01465,47.70543],[7.02755,47.70532]]]]}},{"type":"Feature","properties":{"code":"90003","nom":"Anjoutey","departement":"90","region":"27"},"geometry":{"type":"MultiPolygon","coordinates":[[[[6.89047,47.69448],[6.89136,47.69799],[6.8907,47.70042],[6.90774,47.7009],[6.92252,47.70588],[6.94331,47.72234],[6.94455,47.72176],[6.9473,47.72196],[6.95157,47.72278],[6.95394,47.71734],[6.95248,47.7169],[6.94768,47.71333],[6.94612,47.71102],[6.94366,47.70354],[6.9444,47.70033],[6.94653,47.69822],[6.95069,47.69676],[6.9513,47.69552],[6.9545,47.69436],[6.95488,47.69308],[6.95016,47.69212],[6.93847,47.69398],[6.93429,47.69296],[6.9267,47.69025],[6.9093,47.69081],[6.89226,47.69272],[6.89047,47.69448]]]]}},{"type":"Feature","properties":{"code":"90004","nom":"Argiésans","departement":"90","region":"27"},"geometry":{"type":"MultiPolygon","coordinates":[[[[6.83875,47.60741],[6.84021,47.60288],[6.83926,47.6028],[6.8359,47.59916],[6.83411,47.59855],[6.8323,47.59993],[6.82382,47.59985],[6.80821,47.59919],[6.80408,47.5982],[6.8017,47.59881],[6.80082,47.6002],[6.80829,47.60261],[6.81318,47.60542],[6.81541,47.60882],[6.81319,47.6154],[6.81546,47.61662],[6.82764,47.60986],[6.83875,47.60741]]]]}},{"type":"Feature","properties":{"code":"90005","nom":"Auxelles-Bas","departement":"90","region":"27"},"geometry":{"type":"MultiPolygon","coordinates":[[[[6.75958,47.73915],[6.76019,47.73999],[6.77018,47.74127],[6.78333,47.73969],[6.7907,47.73968],[6.80483,47.7415],[6.81197,47.73089],[6.81301,47.72738],[6.8045,47.7223],[6.77158,47.71257],[6.76351,47.72049],[6.75847,47.72744],[6.76103,47.73009],[6.75958,47.73915]]]]}},{"type":"Feature","properties":{"code":"90006","nom":"Auxelles-Haut","departement":"90","region":"27"},"geometry":{"type":"MultiPolygon","coordinates":[[[[6.79958,47.74862],[6.80194,47.74731],[6.80418,47.74457],[6.80483,47.7415],[6.7907,47.73968],[6.78333,47.73969],[6.77018,47.74127],[6.76019,47.73999],[6.75958,47.73915],[6.75793,47.7479],[6.75986,47.74892],[6.76575,47.75937],[6.77235,47.76565],[6.77458,47.76673],[6.77903,47.76634],[6.78131,47.76517],[6.78766,47.76024],[6.79138,47.75434],[6.79655,47.74995],[6.79958,47.74862]]]]}},{"type":"Feature","properties":{"code":"90007","nom":"Banvillars","departement":"90","region":"27"},"geometry":{"type":"MultiPolygon","coordinates":[[[[6.7913,47.59629],[6.79329,47.59927],[6.79591,47.59953],[6.79732,47.60056],[6.80082,47.6002],[6.8017,47.59881],[6.80408,47.5982],[6.80821,47.59919],[6.82382,47.59985],[6.8323,47.59993],[6.83411,47.59855],[6.82693,47.59124],[6.82278,47.57949],[6.82032,47.57546],[6.81442,47.57927],[6.80818,47.58162],[6.80274,47.58591],[6.80078,47.59195],[6.7913,47.59629]]]]}},{"type":"Feature","properties":{"code":"90008","nom":"Bavilliers","departement":"90","region":"27"},"geometry":{"type":"MultiPolygon","coordinates":[[[[6.80692,47.62273],[6.81186,47.62522],[6.82197,47.62429],[6.82523,47.62579],[6.83493,47.63588],[6.83626,47.63129],[6.83782,47.63132],[6.84025,47.62791],[6.84536,47.62703],[6.84545,47.62763],[6.84547,47.62776],[6.8469,47.62717],[6.8472,47.62197],[6.84671,47.61635],[6.84309,47.6129],[6.83988,47.61117],[6.8393,47.60735],[6.83875,47.60741],[6.82764,47.60986],[6.81546,47.61662],[6.80692,47.62273]]]]}},{"type":"Feature","properties":{"code":"90009","nom":"Beaucourt","departement":"90","region":"27"},"geometry":{"type":"MultiPolygon","coordinates":[[[[6.9157,47.47823],[6.91104,47.48545],[6.90928,47.49095],[6.90953,47.49444],[6.90749,47.49485],[6.91704,47.49789],[6.92001,47.49802],[6.92006,47.49712],[6.92346,47.49798],[6.92271,47.50008],[6.92695,47.49991],[6.93212,47.49746],[6.93412,47.49364],[6.93444,47.48858],[6.93522,47.48562],[6.94104,47.48602],[6.94267,47.48492],[6.93848,47.47313],[6.9157,47.47823]]]]}},{"type":"Feature","properties":{"code":"90010","nom":"Belfort","departement":"90","region":"27"},"geometry":{"type":"MultiPolygon","coordinates":[[[[6.84545,47.62763],[6.84536,47.62703],[6.84025,47.62791],[6.83782,47.63132],[6.83626,47.63129],[6.83493,47.63588],[6.83489,47.63595],[6.83286,47.63895],[6.82639,47.64347],[6.82035,47.64647],[6.81683,47.64659],[6.81754,47.64707],[6.83471,47.64708],[6.83618,47.64941],[6.83656,47.65408],[6.83743,47.65639],[6.83691,47.65907],[6.83578,47.6594],[6.83282,47.6569],[6.81895,47.65249],[6.8102,47.65292],[6.7984,47.6505],[6.79385,47.65388],[6.79061,47.65491],[6.79556,47.65936],[6.80432,47.66526],[6.80744,47.66675],[6.8245,47.6689],[6.83027,47.67034],[6.83072,47.67131],[6.83489,47.6653],[6.83495,47.6613],[6.83593,47.66059],[6.84336,47.66143],[6.84988,47.66121],[6.85032,47.66116],[6.85274,47.65944],[6.86445,47.65437],[6.88155,47.65031],[6.89047,47.65304],[6.89414,47.65506],[6.89488,47.65441],[6.89402,47.65259],[6.8846,47.64808],[6.88614,47.6457],[6.88847,47.64644],[6.88593,47.64124],[6.88135,47.63808],[6.87974,47.63833],[6.87379,47.63095],[6.87433,47.62991],[6.87862,47.6297],[6.86339,47.62482],[6.86297,47.62472],[6.86105,47.62426],[6.85782,47.62616],[6.85526,47.62634],[6.85494,47.62585],[6.85251,47.62034],[6.84968,47.62042],[6.8472,47.62197],[6.8469,47.62717],[6.84547,47.62776],[6.84545,47.62763]]]]}},{"type":"Feature","properties":{"code":"90011","nom":"Bermont","departement":"90","region":"27"},"geometry":{"type":"MultiPolygon","coordinates":[[[[6.85914,47.58492],[6.85888,47.58231],[6.86141,47.58237],[6.85662,47.56787],[6.85463,47.5667],[6.8411,47.56748],[6.82897,47.5692],[6.82173,47.57331],[6.82122,47.57444],[6.83004,47.57396],[6.83669,47.57534],[6.84073,47.57664],[6.84101,47.57968],[6.84509,47.5821],[6.85472,47.58461],[6.85914,47.58492]]]]}},{"type":"Feature","properties":{"code":"90012","nom":"Bessoncourt","departement":"90","region":"27"},"geometry":{"type":"MultiPolygon","coordinates":[[[[6.97101,47.63675],[6.96638,47.63705],[6.95754,47.63852],[6.94978,47.63636],[6.94125,47.63587],[6.92442,47.63845],[6.91077,47.63861],[6.91125,47.64069],[6.90953,47.64495],[6.92082,47.6511],[6.92617,47.65542],[6.93207,47.65606],[6.93515,47.65525],[6.93743,47.6527],[6.94546,47.6527],[6.97015,47.65479],[6.97076,47.64881],[6.97396,47.64244],[6.97101,47.63675]]]]}},{"type":"Feature","properties":{"code":"90013","nom":"Bethonvilliers","departement":"90","region":"27"},"geometry":{"type":"MultiPolygon","coordinates":[[[[6.97679,47.67824],[6.9737,47.67369],[6.96315,47.67053],[6.96194,47.67205],[6.96259,47.67563],[6.96165,47.67966],[6.95768,47.68909],[6.96758,47.69041],[6.97561,47.68091],[6.97679,47.67824]]]]}},{"type":"Feature","properties":{"code":"90014","nom":"Boron","departement":"90","region":"27"},"geometry":{"type":"MultiPolygon","coordinates":[[[[7.01319,47.54442],[7.01009,47.54641],[7.00492,47.54564],[6.99715,47.54711],[6.99245,47.54965],[6.9928,47.55388],[6.99754,47.55837],[6.99753,47.56002],[7.00082,47.56076],[7.00201,47.56419],[7.00601,47.56691],[7.02165,47.56398],[7.02158,47.56268],[7.03245,47.5555],[7.03959,47.54626],[7.02795,47.5418],[7.0259,47.54499],[7.01319,47.54442]]]]}},{"type":"Feature","properties":{"code":"90015","nom":"Botans","departement":"90","region":"27"},"geometry":{"type":"MultiPolygon","coordinates":[[[[6.84021,47.60288],[6.84959,47.60297],[6.85963,47.59794],[6.86309,47.59493],[6.86302,47.59223],[6.85998,47.5922],[6.85931,47.58907],[6.85452,47.58923],[6.84605,47.59095],[6.83684,47.59447],[6.83577,47.5961],[6.8359,47.59916],[6.83926,47.6028],[6.84021,47.60288]]]]}},{"type":"Feature","properties":{"code":"90016","nom":"Bourg-sous-Châtelet","departement":"90","region":"27"},"geometry":{"type":"MultiPolygon","coordinates":[[[[6.95248,47.7169],[6.95069,47.69676],[6.94653,47.69822],[6.9444,47.70033],[6.94366,47.70354],[6.94612,47.71102],[6.94768,47.71333],[6.95248,47.7169]]]]}},{"type":"Feature","properties":{"code":"90017","nom":"Bourogne","departement":"90","region":"27"},"geometry":{"type":"MultiPolygon","coordinates":[[[[6.93925,47.55626],[6.92834,47.55427],[6.91541,47.54606],[6.91278,47.54395],[6.9072,47.54236],[6.90687,47.54363],[6.90152,47.54716],[6.89601,47.54975],[6.89019,47.55009],[6.88556,47.55467],[6.88337,47.55551],[6.87745,47.5636],[6.88455,47.58087],[6.88819,47.58026],[6.91146,47.58232],[6.91804,47.58104],[6.92195,47.57813],[6.92708,47.57361],[6.92979,47.57312],[6.9356,47.57029],[6.9382,47.56694],[6.93758,47.56674],[6.93651,47.56661],[6.93387,47.56293],[6.93348,47.56056],[6.93542,47.56082],[6.93925,47.55626]]]]}},{"type":"Feature","properties":{"code":"90018","nom":"Brebotte","departement":"90","region":"27"},"geometry":{"type":"MultiPolygon","coordinates":[[[[6.97488,47.58794],[6.97848,47.58916],[6.98428,47.58911],[6.99494,47.5847],[6.99323,47.58072],[6.98572,47.58074],[6.98329,47.58026],[6.97755,47.57711],[6.96684,47.56568],[6.96576,47.56447],[6.96026,47.56705],[6.9543,47.57446],[6.96157,47.57836],[6.96255,47.58212],[6.96178,47.58238],[6.97488,47.58794]]]]}},{"type":"Feature","properties":{"code":"90019","nom":"Bretagne","departement":"90","region":"27"},"geometry":{"type":"MultiPolygon","coordinates":[[[[7.0091,47.59954],[7.01298,47.59925],[7.01955,47.59593],[7.02156,47.59368],[7.01965,47.58864],[7.01871,47.58693],[7.0088,47.58189],[6.99323,47.58072],[6.99494,47.5847],[6.98428,47.58911],[6.97848,47.58916],[6.97488,47.58794],[6.97409,47.59187],[6.97962,47.59536],[6.9865,47.59578],[7.0091,47.59954]]]]}},{"type":"Feature","properties":{"code":"90020","nom":"Buc","departement":"90","region":"27"},"geometry":{"type":"MultiPolygon","coordinates":[[[[6.78934,47.60469],[6.7883,47.60511],[6.78706,47.61005],[6.78463,47.61199],[6.78052,47.62528],[6.79093,47.62739],[6.79339,47.62522],[6.79925,47.62361],[6.79835,47.6138],[6.79281,47.60966],[6.78934,47.60469]]]]}},{"type":"Feature","properties":{"code":"90021","nom":"Charmois","departement":"90","region":"27"},"geometry":{"type":"MultiPolygon","coordinates":[[[[6.93758,47.56674],[6.9382,47.56694],[6.9356,47.57029],[6.92979,47.57312],[6.92708,47.57361],[6.92195,47.57813],[6.9484,47.59302],[6.95073,47.59324],[6.95174,47.59411],[6.95844,47.58536],[6.95768,47.58168],[6.95647,47.58078],[6.95535,47.58094],[6.95231,47.57867],[6.9488,47.57016],[6.94246,47.56558],[6.94008,47.5652],[6.93758,47.56674]]]]}},{"type":"Feature","properties":{"code":"90022","nom":"Châtenois-les-Forges","departement":"90","region":"27"},"geometry":{"type":"MultiPolygon","coordinates":[[[[6.85463,47.5667],[6.85835,47.56086],[6.85586,47.54798],[6.84743,47.54814],[6.83064,47.54644],[6.81678,47.54783],[6.80709,47.56307],[6.81698,47.57151],[6.82173,47.57331],[6.82897,47.5692],[6.8411,47.56748],[6.85463,47.5667]]]]}},{"type":"Feature","properties":{"code":"90023","nom":"Chaux","departement":"90","region":"27"},"geometry":{"type":"MultiPolygon","coordinates":[[[[6.83454,47.73083],[6.83358,47.72904],[6.84254,47.71874],[6.856,47.71722],[6.86024,47.7148],[6.86497,47.70767],[6.87261,47.69924],[6.86142,47.69987],[6.86017,47.69899],[6.85339,47.69777],[6.82909,47.69816],[6.82897,47.70307],[6.8279,47.7073],[6.82631,47.70928],[6.81503,47.71505],[6.8045,47.7223],[6.81301,47.72738],[6.83454,47.73083]]]]}},{"type":"Feature","properties":{"code":"90024","nom":"Chavanatte","departement":"90","region":"27"},"geometry":{"type":"MultiPolygon","coordinates":[[[[7.08646,47.58555],[7.07872,47.57703],[7.05784,47.56928],[7.05499,47.57255],[7.05552,47.57678],[7.06567,47.58679],[7.08529,47.59317],[7.0851,47.58612],[7.08646,47.58555]]]]}},{"type":"Feature","properties":{"code":"90025","nom":"Chavannes-les-Grands","departement":"90","region":"27"},"geometry":{"type":"MultiPolygon","coordinates":[[[[7.02549,47.59274],[7.03429,47.59456],[7.03915,47.60035],[7.06234,47.60063],[7.06987,47.59835],[7.07016,47.59633],[7.07358,47.59767],[7.07406,47.59892],[7.07424,47.59891],[7.07819,47.59691],[7.08529,47.59317],[7.06567,47.58679],[7.05552,47.57678],[7.05448,47.57628],[7.05051,47.57663],[7.04418,47.58126],[7.04048,47.58253],[7.03705,47.58202],[7.03312,47.57814],[7.03199,47.58056],[7.01871,47.58693],[7.01965,47.58864],[7.02482,47.5892],[7.02549,47.59274]]]]}},{"type":"Feature","properties":{"code":"90026","nom":"Chèvremont","departement":"90","region":"27"},"geometry":{"type":"MultiPolygon","coordinates":[[[[6.91077,47.63861],[6.92442,47.63845],[6.94125,47.63587],[6.94978,47.63636],[6.95754,47.63852],[6.96638,47.63705],[6.96305,47.63433],[6.96223,47.6285],[6.95193,47.62672],[6.94856,47.62289],[6.94792,47.62023],[6.94961,47.61504],[6.93701,47.61753],[6.9185,47.61763],[6.90927,47.62025],[6.89414,47.62188],[6.89531,47.62476],[6.90595,47.63177],[6.91077,47.63861]]]]}},{"type":"Feature","properties":{"code":"90027","nom":"Courcelles","departement":"90","region":"27"},"geometry":{"type":"MultiPolygon","coordinates":[[[[7.0916,47.50773],[7.09474,47.50616],[7.0949,47.50109],[7.09691,47.49517],[7.09423,47.49544],[7.08686,47.49245],[7.0785,47.49153],[7.05458,47.49582],[7.03694,47.49751],[7.03665,47.4992],[7.08174,47.50832],[7.0916,47.50773]]]]}},{"type":"Feature","properties":{"code":"90028","nom":"Courtelevant","departement":"90","region":"27"},"geometry":{"type":"MultiPolygon","coordinates":[[[[7.0916,47.50773],[7.08174,47.50832],[7.0763,47.51147],[7.07449,47.51996],[7.07426,47.52867],[7.07589,47.53618],[7.06683,47.54201],[7.08105,47.54403],[7.08341,47.54378],[7.0886,47.53646],[7.10077,47.53375],[7.10227,47.53198],[7.09714,47.5237],[7.0916,47.50773]]]]}},{"type":"Feature","properties":{"code":"90029","nom":"Cravanche","departement":"90","region":"27"},"geometry":{"type":"MultiPolygon","coordinates":[[[[6.83618,47.64941],[6.83471,47.64708],[6.81754,47.64707],[6.81683,47.64659],[6.81395,47.64837],[6.8102,47.65292],[6.81895,47.65249],[6.83282,47.6569],[6.83578,47.6594],[6.83691,47.65907],[6.83743,47.65639],[6.83656,47.65408],[6.83618,47.64941]]]]}},{"type":"Feature","properties":{"code":"90030","nom":"Croix","departement":"90","region":"27"},"geometry":{"type":"MultiPolygon","coordinates":[[[[6.93504,47.4472],[6.93251,47.45585],[6.93597,47.45576],[6.94378,47.4534],[6.95419,47.45454],[6.96614,47.45185],[6.9712,47.44909],[6.97029,47.44711],[6.96628,47.43765],[6.96371,47.43579],[6.95757,47.43381],[6.94846,47.4342],[6.9403,47.43332],[6.9391,47.43361],[6.93298,47.44062],[6.93504,47.4472]]]]}},{"type":"Feature","properties":{"code":"90031","nom":"Cunelières","departement":"90","region":"27"},"geometry":{"type":"MultiPolygon","coordinates":[[[[6.98493,47.62216],[6.98199,47.62502],[6.97751,47.62726],[6.97872,47.62777],[6.98587,47.63049],[6.99247,47.63204],[7.00182,47.63113],[7.0066,47.62642],[7.00693,47.62495],[7.00501,47.6196],[6.98785,47.62292],[6.98493,47.62216]]]]}},{"type":"Feature","properties":{"code":"90032","nom":"Danjoutin","departement":"90","region":"27"},"geometry":{"type":"MultiPolygon","coordinates":[[[[6.8393,47.60735],[6.83988,47.61117],[6.84309,47.6129],[6.84671,47.61635],[6.8472,47.62197],[6.84968,47.62042],[6.85251,47.62034],[6.85494,47.62585],[6.85526,47.62634],[6.85782,47.62616],[6.86105,47.62426],[6.86297,47.62472],[6.86339,47.62482],[6.87862,47.6297],[6.87944,47.6301],[6.8841,47.62853],[6.8885,47.62481],[6.89009,47.62218],[6.88423,47.61131],[6.88099,47.61075],[6.86533,47.60932],[6.85495,47.60992],[6.84612,47.60932],[6.8393,47.60735]]]]}},{"type":"Feature","properties":{"code":"90033","nom":"Delle","departement":"90","region":"27"},"geometry":{"type":"MultiPolygon","coordinates":[[[[6.98286,47.4943],[6.96385,47.49634],[6.96725,47.50609],[6.96992,47.50666],[6.96986,47.51108],[6.99255,47.51797],[6.99446,47.52077],[6.99566,47.52096],[6.99853,47.5245],[7.0013,47.52229],[7.01439,47.52018],[7.01963,47.52009],[7.02149,47.51974],[7.02652,47.51169],[7.0275,47.51068],[7.02493,47.50429],[7.02015,47.5044],[7.01352,47.50295],[7.00372,47.50074],[6.98286,47.4943]]]]}},{"type":"Feature","properties":{"code":"90034","nom":"Denney","departement":"90","region":"27"},"geometry":{"type":"MultiPolygon","coordinates":[[[[6.89414,47.65506],[6.89655,47.65806],[6.89587,47.65852],[6.89469,47.65964],[6.89815,47.66241],[6.90471,47.66452],[6.90884,47.66486],[6.91024,47.66287],[6.92397,47.6601],[6.92617,47.65542],[6.92082,47.6511],[6.90953,47.64495],[6.90617,47.64721],[6.90693,47.64814],[6.89856,47.65068],[6.89487,47.65026],[6.88847,47.64644],[6.88614,47.6457],[6.8846,47.64808],[6.89402,47.65259],[6.89488,47.65441],[6.89414,47.65506]]]]}},{"type":"Feature","properties":{"code":"90035","nom":"Dorans","departement":"90","region":"27"},"geometry":{"type":"MultiPolygon","coordinates":[[[[6.85931,47.58907],[6.85914,47.58492],[6.85472,47.58461],[6.84509,47.5821],[6.84101,47.57968],[6.84073,47.57664],[6.83669,47.57534],[6.83004,47.57396],[6.82122,47.57444],[6.82032,47.57546],[6.82278,47.57949],[6.82693,47.59124],[6.83411,47.59855],[6.8359,47.59916],[6.83577,47.5961],[6.83684,47.59447],[6.84605,47.59095],[6.85452,47.58923],[6.85931,47.58907]]]]}},{"type":"Feature","properties":{"code":"90036","nom":"Eguenigue","departement":"90","region":"27"},"geometry":{"type":"MultiPolygon","coordinates":[[[[6.93429,47.69296],[6.93781,47.6887],[6.93866,47.66679],[6.92799,47.66394],[6.92843,47.67743],[6.9267,47.69025],[6.93429,47.69296]]]]}},{"type":"Feature","properties":{"code":"90037","nom":"Éloie","departement":"90","region":"27"},"geometry":{"type":"MultiPolygon","coordinates":[[[[6.86369,47.67811],[6.86186,47.67803],[6.85378,47.68411],[6.86324,47.69754],[6.86142,47.69987],[6.87261,47.69924],[6.88251,47.69806],[6.89047,47.69448],[6.89226,47.69272],[6.88557,47.68041],[6.88638,47.67605],[6.8852,47.67399],[6.86369,47.67811]]]]}},{"type":"Feature","properties":{"code":"90039","nom":"Essert","departement":"90","region":"27"},"geometry":{"type":"MultiPolygon","coordinates":[[[[6.80692,47.62273],[6.8028,47.62419],[6.79925,47.62361],[6.79339,47.62522],[6.79093,47.62739],[6.80032,47.63468],[6.80104,47.63605],[6.79732,47.64488],[6.79492,47.64651],[6.7904,47.64789],[6.79298,47.64954],[6.7984,47.6505],[6.8102,47.65292],[6.81395,47.64837],[6.81683,47.64659],[6.82035,47.64647],[6.82639,47.64347],[6.83286,47.63895],[6.83489,47.63595],[6.83493,47.63588],[6.82523,47.62579],[6.82197,47.62429],[6.81186,47.62522],[6.80692,47.62273]]]]}},{"type":"Feature","properties":{"code":"90041","nom":"Étueffont","departement":"90","region":"27"},"geometry":{"type":"MultiPolygon","coordinates":[[[[6.89538,47.71323],[6.90117,47.71361],[6.90603,47.71543],[6.90844,47.718],[6.9088,47.72041],[6.90378,47.73238],[6.89718,47.73812],[6.88961,47.74939],[6.89661,47.74932],[6.90446,47.74688],[6.9105,47.74596],[6.92216,47.74709],[6.93892,47.73195],[6.94185,47.72838],[6.94455,47.72176],[6.94331,47.72234],[6.92252,47.70588],[6.90774,47.7009],[6.8907,47.70042],[6.89538,47.71323]]]]}},{"type":"Feature","properties":{"code":"90042","nom":"Évette-Salbert","departement":"90","region":"27"},"geometry":{"type":"MultiPolygon","coordinates":[[[[6.77865,47.67587],[6.78017,47.68977],[6.79736,47.69064],[6.80856,47.68184],[6.82958,47.67362],[6.83072,47.67131],[6.83027,47.67034],[6.8245,47.6689],[6.80744,47.66675],[6.80432,47.66526],[6.79556,47.65936],[6.79061,47.65491],[6.79385,47.65388],[6.7984,47.6505],[6.79298,47.64954],[6.7904,47.64789],[6.78749,47.65166],[6.78101,47.65839],[6.77613,47.66808],[6.77865,47.67587]]]]}},{"type":"Feature","properties":{"code":"90043","nom":"Faverois","departement":"90","region":"27"},"geometry":{"type":"MultiPolygon","coordinates":[[[[7.01963,47.52009],[7.02373,47.52594],[7.02487,47.53702],[7.02795,47.5418],[7.03959,47.54626],[7.04335,47.54619],[7.04897,47.54247],[7.05222,47.52425],[7.04676,47.51731],[7.03809,47.51402],[7.02652,47.51169],[7.02149,47.51974],[7.01963,47.52009]]]]}},{"type":"Feature","properties":{"code":"90045","nom":"Fêche-l'Église","departement":"90","region":"27"},"geometry":{"type":"MultiPolygon","coordinates":[[[[6.96986,47.51108],[6.96992,47.50666],[6.96725,47.50609],[6.96385,47.49634],[6.96042,47.49494],[6.95355,47.48995],[6.95241,47.48508],[6.94912,47.4857],[6.94767,47.48967],[6.94616,47.51131],[6.945,47.51334],[6.94944,47.51609],[6.95186,47.51654],[6.95803,47.51557],[6.96986,47.51108]]]]}},{"type":"Feature","properties":{"code":"90046","nom":"Florimont","departement":"90","region":"27"},"geometry":{"type":"MultiPolygon","coordinates":[[[[7.02493,47.50429],[7.0275,47.51068],[7.02652,47.51169],[7.03809,47.51402],[7.04676,47.51731],[7.05222,47.52425],[7.04897,47.54247],[7.04335,47.54619],[7.03959,47.54626],[7.03245,47.5555],[7.02158,47.56268],[7.02165,47.56398],[7.03312,47.57814],[7.03705,47.58202],[7.04048,47.58253],[7.04418,47.58126],[7.05051,47.57663],[7.05448,47.57628],[7.05552,47.57678],[7.05499,47.57255],[7.05784,47.56928],[7.05052,47.56333],[7.05731,47.55581],[7.06224,47.54757],[7.06683,47.54201],[7.07589,47.53618],[7.07426,47.52867],[7.07449,47.51996],[7.0763,47.51147],[7.08174,47.50832],[7.03665,47.4992],[7.0342,47.49919],[7.02765,47.50132],[7.02493,47.50429]]]]}},{"type":"Feature","properties":{"code":"90047","nom":"Fontaine","departement":"90","region":"27"},"geometry":{"type":"MultiPolygon","coordinates":[[[[6.97185,47.66855],[6.98677,47.66867],[6.99937,47.66974],[7.0084,47.66952],[7.00925,47.66884],[7.00964,47.66802],[7.01214,47.66538],[7.01642,47.66483],[7.01903,47.66534],[7.02292,47.66269],[7.02254,47.65554],[7.01895,47.65092],[7.01661,47.64538],[7.01093,47.64527],[6.9943,47.65119],[6.99283,47.65112],[6.98844,47.65413],[6.97117,47.65525],[6.97126,47.65821],[6.97266,47.66429],[6.97185,47.66855]]]]}},{"type":"Feature","properties":{"code":"90048","nom":"Fontenelle","departement":"90","region":"27"},"geometry":{"type":"MultiPolygon","coordinates":[[[[6.94961,47.61504],[6.94792,47.62023],[6.94856,47.62289],[6.95193,47.62672],[6.96223,47.6285],[6.96337,47.62868],[6.96403,47.6279],[6.96476,47.62267],[6.963,47.61792],[6.96185,47.61729],[6.96337,47.61609],[6.95888,47.61417],[6.94994,47.61276],[6.94961,47.61504]]]]}},{"type":"Feature","properties":{"code":"90049","nom":"Foussemagne","departement":"90","region":"27"},"geometry":{"type":"MultiPolygon","coordinates":[[[[7.01661,47.64538],[7.01888,47.64123],[7.01054,47.63031],[7.00593,47.62892],[7.0066,47.62642],[7.00182,47.63113],[6.99247,47.63204],[6.98587,47.63049],[6.97872,47.62777],[6.9751,47.62826],[6.97316,47.63059],[6.97244,47.63679],[6.97836,47.63734],[6.99291,47.64167],[6.99283,47.65112],[6.9943,47.65119],[7.01093,47.64527],[7.01661,47.64538]]]]}},{"type":"Feature","properties":{"code":"90050","nom":"Frais","departement":"90","region":"27"},"geometry":{"type":"MultiPolygon","coordinates":[[[[6.97117,47.65525],[6.98844,47.65413],[6.99283,47.65112],[6.99291,47.64167],[6.97836,47.63734],[6.97244,47.63679],[6.97101,47.63675],[6.97396,47.64244],[6.97076,47.64881],[6.97015,47.65479],[6.97117,47.65525]]]]}},{"type":"Feature","properties":{"code":"90051","nom":"Froidefontaine","departement":"90","region":"27"},"geometry":{"type":"MultiPolygon","coordinates":[[[[6.9808,47.56375],[6.98528,47.55949],[6.97816,47.5579],[6.96471,47.55737],[6.95471,47.5544],[6.95437,47.55544],[6.93925,47.55626],[6.93542,47.56082],[6.93348,47.56056],[6.93387,47.56293],[6.93651,47.56661],[6.93758,47.56674],[6.94008,47.5652],[6.94246,47.56558],[6.9488,47.57016],[6.95231,47.57867],[6.95535,47.58094],[6.95647,47.58078],[6.95875,47.57939],[6.95981,47.57958],[6.96178,47.58238],[6.96255,47.58212],[6.96157,47.57836],[6.9543,47.57446],[6.96026,47.56705],[6.96576,47.56447],[6.96684,47.56568],[6.97587,47.56291],[6.9808,47.56375]]]]}},{"type":"Feature","properties":{"code":"90052","nom":"Giromagny","departement":"90","region":"27"},"geometry":{"type":"MultiPolygon","coordinates":[[[[6.79958,47.74862],[6.80203,47.74924],[6.80983,47.74695],[6.81532,47.74684],[6.82162,47.74947],[6.83171,47.75738],[6.83452,47.7575],[6.83861,47.74653],[6.83758,47.74369],[6.83815,47.73722],[6.84,47.73543],[6.83454,47.73083],[6.81301,47.72738],[6.81197,47.73089],[6.80483,47.7415],[6.80418,47.74457],[6.80194,47.74731],[6.79958,47.74862]]]]}},{"type":"Feature","properties":{"code":"90053","nom":"Grandvillars","departement":"90","region":"27"},"geometry":{"type":"MultiPolygon","coordinates":[[[[6.93757,47.51742],[6.93965,47.51995],[6.939,47.52155],[6.94044,47.52206],[6.94573,47.53453],[6.95007,47.542],[6.95441,47.55147],[6.95471,47.5544],[6.96471,47.55737],[6.97816,47.5579],[6.98528,47.55949],[6.99186,47.56167],[6.99724,47.56233],[6.99753,47.56002],[6.99754,47.55837],[6.9928,47.55388],[6.99245,47.54965],[6.99715,47.54711],[7.00492,47.54564],[7.01009,47.54641],[7.01319,47.54442],[7.00844,47.54331],[6.98992,47.53504],[6.98798,47.53357],[6.98899,47.53326],[6.98405,47.5243],[6.97112,47.52028],[6.96089,47.51843],[6.95803,47.51557],[6.95186,47.51654],[6.94944,47.51609],[6.945,47.51334],[6.94276,47.51361],[6.93757,47.51742]]]]}},{"type":"Feature","properties":{"code":"90054","nom":"Grosmagny","departement":"90","region":"27"},"geometry":{"type":"MultiPolygon","coordinates":[[[[6.89538,47.71323],[6.8907,47.70042],[6.89136,47.69799],[6.89047,47.69448],[6.88251,47.69806],[6.87261,47.69924],[6.86497,47.70767],[6.86024,47.7148],[6.8616,47.71556],[6.86415,47.72023],[6.86477,47.72378],[6.88033,47.73122],[6.88367,47.73358],[6.88588,47.73642],[6.8861,47.74708],[6.88828,47.75078],[6.88961,47.74939],[6.89718,47.73812],[6.89335,47.72814],[6.89244,47.72308],[6.8939,47.71562],[6.89538,47.71323]]]]}},{"type":"Feature","properties":{"code":"90055","nom":"Grosne","departement":"90","region":"27"},"geometry":{"type":"MultiPolygon","coordinates":[[[[6.99323,47.58072],[7.0088,47.58189],[7.00733,47.57863],[7.00707,47.57426],[7.00201,47.56419],[7.00082,47.56076],[6.99753,47.56002],[6.99724,47.56233],[6.99186,47.56167],[6.98528,47.55949],[6.9808,47.56375],[6.97923,47.56513],[6.98578,47.57793],[6.98572,47.58074],[6.99323,47.58072]]]]}},{"type":"Feature","properties":{"code":"90056","nom":"Joncherey","departement":"90","region":"27"},"geometry":{"type":"MultiPolygon","coordinates":[[[[7.02795,47.5418],[7.02487,47.53702],[7.02373,47.52594],[7.01963,47.52009],[7.01439,47.52018],[7.0013,47.52229],[6.99853,47.5245],[6.99424,47.52965],[6.98899,47.53326],[6.98798,47.53357],[6.98992,47.53504],[7.00844,47.54331],[7.01319,47.54442],[7.0259,47.54499],[7.02795,47.5418]]]]}},{"type":"Feature","properties":{"code":"90057","nom":"Lachapelle-sous-Chaux","departement":"90","region":"27"},"geometry":{"type":"MultiPolygon","coordinates":[[[[6.77008,47.7034],[6.77245,47.71015],[6.77158,47.71257],[6.8045,47.7223],[6.81503,47.71505],[6.82631,47.70928],[6.8279,47.7073],[6.82897,47.70307],[6.82909,47.69816],[6.81633,47.69406],[6.81138,47.69298],[6.80776,47.69341],[6.79736,47.69064],[6.78017,47.68977],[6.77922,47.69305],[6.77514,47.69895],[6.77008,47.7034]]]]}},{"type":"Feature","properties":{"code":"90058","nom":"Lachapelle-sous-Rougemont","departement":"90","region":"27"},"geometry":{"type":"MultiPolygon","coordinates":[[[[7.03778,47.72162],[7.03587,47.72136],[7.03615,47.71894],[7.02755,47.70532],[7.01465,47.70543],[7.00112,47.70423],[7.00076,47.70469],[6.99511,47.70844],[6.99193,47.71442],[7.00689,47.71895],[7.02013,47.72175],[7.03249,47.72611],[7.03277,47.72627],[7.03516,47.72462],[7.03778,47.72162]]]]}},{"type":"Feature","properties":{"code":"90059","nom":"Lacollonge","departement":"90","region":"27"},"geometry":{"type":"MultiPolygon","coordinates":[[[[6.94085,47.6669],[6.97217,47.66982],[6.97185,47.66855],[6.97266,47.66429],[6.97126,47.65821],[6.96196,47.65606],[6.9575,47.65665],[6.94345,47.66261],[6.9412,47.66467],[6.94085,47.6669]]]]}},{"type":"Feature","properties":{"code":"90060","nom":"Lagrange","departement":"90","region":"27"},"geometry":{"type":"MultiPolygon","coordinates":[[[[6.97679,47.67824],[6.97561,47.68091],[6.96758,47.69041],[6.96824,47.69054],[6.96873,47.68986],[6.98352,47.68602],[6.98217,47.68513],[6.98482,47.68326],[6.98408,47.67882],[6.97679,47.67824]]]]}},{"type":"Feature","properties":{"code":"90061","nom":"Lamadeleine-Val-des-Anges","departement":"90","region":"27"},"geometry":{"type":"MultiPolygon","coordinates":[[[[6.92216,47.74709],[6.9105,47.74596],[6.90446,47.74688],[6.89661,47.74932],[6.88961,47.74939],[6.88828,47.75078],[6.88851,47.75383],[6.88966,47.75483],[6.90153,47.76599],[6.90318,47.77336],[6.9023,47.77663],[6.90766,47.77769],[6.91121,47.77808],[6.91362,47.77738],[6.92229,47.7724],[6.92275,47.77188],[6.92358,47.76173],[6.92216,47.74709]]]]}},{"type":"Feature","properties":{"code":"90062","nom":"Larivière","departement":"90","region":"27"},"geometry":{"type":"MultiPolygon","coordinates":[[[[6.9737,47.67369],[6.97679,47.67824],[6.98408,47.67882],[6.98482,47.68326],[6.98217,47.68513],[6.98352,47.68602],[6.98583,47.68711],[6.99678,47.68857],[7.00096,47.68874],[7.00934,47.68756],[7.00467,47.68071],[7.00318,47.6745],[7.00694,47.67418],[7.01451,47.67546],[7.01316,47.6706],[7.00925,47.66884],[7.0084,47.66952],[6.99937,47.66974],[6.98677,47.66867],[6.97185,47.66855],[6.97217,47.66982],[6.9737,47.67369]]]]}},{"type":"Feature","properties":{"code":"90063","nom":"Lebetain","departement":"90","region":"27"},"geometry":{"type":"MultiPolygon","coordinates":[[[[6.98286,47.4943],[6.98851,47.48308],[6.9883,47.4731],[6.98142,47.47314],[6.96265,47.48148],[6.95241,47.48508],[6.95355,47.48995],[6.96042,47.49494],[6.96385,47.49634],[6.98286,47.4943]]]]}},{"type":"Feature","properties":{"code":"90064","nom":"Lepuix-Neuf","departement":"90","region":"27"},"geometry":{"type":"MultiPolygon","coordinates":[[[[7.10227,47.53198],[7.10077,47.53375],[7.0886,47.53646],[7.08341,47.54378],[7.08105,47.54403],[7.08979,47.54894],[7.10571,47.5516],[7.1189,47.54759],[7.12235,47.54443],[7.12743,47.5428],[7.13157,47.54028],[7.13299,47.53952],[7.1285,47.53657],[7.12244,47.5341],[7.10529,47.53173],[7.10227,47.53198]]]]}},{"type":"Feature","properties":{"code":"90065","nom":"Lepuix","departement":"90","region":"27"},"geometry":{"type":"MultiPolygon","coordinates":[[[[6.82361,47.81328],[6.82384,47.81426],[6.82719,47.81571],[6.8394,47.82467],[6.84235,47.82509],[6.84588,47.82289],[6.84158,47.8182],[6.84297,47.81282],[6.86234,47.7859],[6.86538,47.78489],[6.85558,47.77318],[6.85037,47.77232],[6.84325,47.76964],[6.83452,47.7575],[6.83171,47.75738],[6.82162,47.74947],[6.81532,47.74684],[6.80983,47.74695],[6.80203,47.74924],[6.79958,47.74862],[6.79655,47.74995],[6.79138,47.75434],[6.78766,47.76024],[6.78131,47.76517],[6.77903,47.76634],[6.77458,47.76673],[6.77479,47.76848],[6.7847,47.78144],[6.79802,47.78719],[6.8094,47.79382],[6.81593,47.80098],[6.82361,47.81328]]]]}},{"type":"Feature","properties":{"code":"90066","nom":"Leval","departement":"90","region":"27"},"geometry":{"type":"MultiPolygon","coordinates":[[[[6.98169,47.7189],[6.97092,47.7229],[6.96808,47.72701],[6.97275,47.72801],[6.9765,47.72989],[6.98234,47.73648],[6.99901,47.74595],[7.01289,47.74145],[7.01583,47.7438],[7.02097,47.7346],[7.01364,47.73209],[7.00632,47.7273],[7.00033,47.72473],[6.98169,47.7189]]]]}},{"type":"Feature","properties":{"code":"90067","nom":"Menoncourt","departement":"90","region":"27"},"geometry":{"type":"MultiPolygon","coordinates":[[[[6.95768,47.68909],[6.96165,47.67966],[6.96259,47.67563],[6.96194,47.67205],[6.96315,47.67053],[6.9737,47.67369],[6.97217,47.66982],[6.94085,47.6669],[6.93866,47.66679],[6.93781,47.6887],[6.93429,47.69296],[6.93847,47.69398],[6.95016,47.69212],[6.95488,47.69308],[6.95768,47.68909]]]]}},{"type":"Feature","properties":{"code":"90068","nom":"Meroux-Moval","departement":"90","region":"27"},"geometry":{"type":"MultiPolygon","coordinates":[[[[6.88455,47.58087],[6.87944,47.58234],[6.87711,47.58485],[6.87941,47.58581],[6.88457,47.59803],[6.88575,47.5988],[6.8855,47.6037],[6.88099,47.61055],[6.89125,47.61087],[6.90897,47.60076],[6.92048,47.59663],[6.93848,47.59408],[6.94418,47.59598],[6.94447,47.59443],[6.95073,47.59324],[6.9484,47.59302],[6.92195,47.57813],[6.91804,47.58104],[6.91146,47.58232],[6.88819,47.58026],[6.88455,47.58087]]]]}},{"type":"Feature","properties":{"code":"90069","nom":"Méziré","departement":"90","region":"27"},"geometry":{"type":"MultiPolygon","coordinates":[[[[6.93461,47.51776],[6.93273,47.5191],[6.92517,47.51959],[6.90744,47.52593],[6.90719,47.52711],[6.91258,47.52745],[6.91645,47.5307],[6.91415,47.53567],[6.9072,47.54236],[6.91278,47.54395],[6.91541,47.54606],[6.92974,47.53817],[6.93279,47.52409],[6.9358,47.52052],[6.939,47.52155],[6.93965,47.51995],[6.93757,47.51742],[6.93461,47.51776]]]]}},{"type":"Feature","properties":{"code":"90070","nom":"Montbouton","departement":"90","region":"27"},"geometry":{"type":"MultiPolygon","coordinates":[[[[6.93251,47.45585],[6.93075,47.45836],[6.9202,47.46593],[6.91244,47.47111],[6.90744,47.47293],[6.90834,47.47443],[6.91236,47.47704],[6.91549,47.4776],[6.9157,47.47823],[6.93848,47.47313],[6.93815,47.45918],[6.93597,47.45576],[6.93251,47.45585]]]]}},{"type":"Feature","properties":{"code":"90071","nom":"Montreux-Château","departement":"90","region":"27"},"geometry":{"type":"MultiPolygon","coordinates":[[[[6.97886,47.60661],[6.98063,47.6072],[6.98567,47.61146],[6.98849,47.61725],[6.98493,47.62216],[6.98785,47.62292],[7.00501,47.6196],[7.00733,47.61075],[7.01032,47.60474],[7.00565,47.6021],[7.0091,47.59954],[6.9865,47.59578],[6.97962,47.59536],[6.97776,47.59641],[6.98023,47.60182],[6.97886,47.60661]]]]}},{"type":"Feature","properties":{"code":"90072","nom":"Morvillars","departement":"90","region":"27"},"geometry":{"type":"MultiPolygon","coordinates":[[[[6.939,47.52155],[6.9358,47.52052],[6.93279,47.52409],[6.92974,47.53817],[6.91541,47.54606],[6.92834,47.55427],[6.93925,47.55626],[6.95437,47.55544],[6.95471,47.5544],[6.95441,47.55147],[6.95007,47.542],[6.94573,47.53453],[6.94044,47.52206],[6.939,47.52155]]]]}},{"type":"Feature","properties":{"code":"90074","nom":"Novillard","departement":"90","region":"27"},"geometry":{"type":"MultiPolygon","coordinates":[[[[6.96337,47.61609],[6.96573,47.61291],[6.96986,47.611],[6.97303,47.61043],[6.97886,47.60661],[6.98023,47.60182],[6.97776,47.59641],[6.97702,47.59733],[6.97104,47.59915],[6.96527,47.60007],[6.95761,47.59998],[6.9532,47.59862],[6.95174,47.59411],[6.95073,47.59324],[6.94447,47.59443],[6.94418,47.59598],[6.94482,47.60426],[6.94898,47.60919],[6.94994,47.61276],[6.95888,47.61417],[6.96337,47.61609]]]]}},{"type":"Feature","properties":{"code":"90075","nom":"Offemont","departement":"90","region":"27"},"geometry":{"type":"MultiPolygon","coordinates":[[[[6.8852,47.67399],[6.88331,47.67153],[6.88232,47.6676],[6.89456,47.65856],[6.89587,47.65852],[6.89655,47.65806],[6.89414,47.65506],[6.89047,47.65304],[6.88155,47.65031],[6.86445,47.65437],[6.85274,47.65944],[6.85032,47.66116],[6.8517,47.66034],[6.85416,47.66038],[6.8653,47.66794],[6.86568,47.67173],[6.86357,47.67584],[6.86369,47.67811],[6.8852,47.67399]]]]}},{"type":"Feature","properties":{"code":"90076","nom":"Pérouse","departement":"90","region":"27"},"geometry":{"type":"MultiPolygon","coordinates":[[[[6.87974,47.63833],[6.88135,47.63808],[6.88593,47.64124],[6.88847,47.64644],[6.89487,47.65026],[6.89856,47.65068],[6.90693,47.64814],[6.90617,47.64721],[6.90953,47.64495],[6.91125,47.64069],[6.91077,47.63861],[6.90595,47.63177],[6.89531,47.62476],[6.89414,47.62188],[6.89009,47.62218],[6.8885,47.62481],[6.8841,47.62853],[6.87944,47.6301],[6.87862,47.6297],[6.87433,47.62991],[6.87379,47.63095],[6.87974,47.63833]]]]}},{"type":"Feature","properties":{"code":"90077","nom":"Petit-Croix","departement":"90","region":"27"},"geometry":{"type":"MultiPolygon","coordinates":[[[[6.96638,47.63705],[6.97101,47.63675],[6.97244,47.63679],[6.97316,47.63059],[6.9751,47.62826],[6.97872,47.62777],[6.97751,47.62726],[6.98199,47.62502],[6.98493,47.62216],[6.98849,47.61725],[6.98567,47.61146],[6.98063,47.6072],[6.97886,47.60661],[6.97303,47.61043],[6.96986,47.611],[6.96573,47.61291],[6.96337,47.61609],[6.96185,47.61729],[6.963,47.61792],[6.96476,47.62267],[6.96403,47.6279],[6.96337,47.62868],[6.96223,47.6285],[6.96305,47.63433],[6.96638,47.63705]]]]}},{"type":"Feature","properties":{"code":"90078","nom":"Petitefontaine","departement":"90","region":"27"},"geometry":{"type":"MultiPolygon","coordinates":[[[[6.98422,47.71636],[6.98169,47.7189],[7.00033,47.72473],[7.00632,47.7273],[7.01364,47.73209],[7.02097,47.7346],[7.02237,47.73283],[7.02968,47.72865],[7.03249,47.72611],[7.02013,47.72175],[7.00689,47.71895],[6.99193,47.71442],[6.98782,47.71797],[6.98422,47.71636]]]]}},{"type":"Feature","properties":{"code":"90079","nom":"Petitmagny","departement":"90","region":"27"},"geometry":{"type":"MultiPolygon","coordinates":[[[[6.89718,47.73812],[6.90378,47.73238],[6.9088,47.72041],[6.90844,47.718],[6.90603,47.71543],[6.90117,47.71361],[6.89538,47.71323],[6.8939,47.71562],[6.89244,47.72308],[6.89335,47.72814],[6.89718,47.73812]]]]}},{"type":"Feature","properties":{"code":"90080","nom":"Phaffans","departement":"90","region":"27"},"geometry":{"type":"MultiPolygon","coordinates":[[[[6.97117,47.65525],[6.97015,47.65479],[6.94546,47.6527],[6.93743,47.6527],[6.93515,47.65525],[6.93207,47.65606],[6.92617,47.65542],[6.92397,47.6601],[6.92626,47.66147],[6.92799,47.66394],[6.93866,47.66679],[6.94085,47.6669],[6.9412,47.66467],[6.94345,47.66261],[6.9575,47.65665],[6.96196,47.65606],[6.97126,47.65821],[6.97117,47.65525]]]]}},{"type":"Feature","properties":{"code":"90081","nom":"Réchésy","departement":"90","region":"27"},"geometry":{"type":"MultiPolygon","coordinates":[[[[7.0916,47.50773],[7.09714,47.5237],[7.10227,47.53198],[7.10529,47.53173],[7.12244,47.5341],[7.1285,47.53657],[7.13299,47.53952],[7.13519,47.53759],[7.13617,47.53273],[7.1381,47.53065],[7.13835,47.52772],[7.14199,47.52516],[7.14336,47.52459],[7.13944,47.51935],[7.13738,47.50935],[7.13424,47.50496],[7.13026,47.50295],[7.128,47.50388],[7.11569,47.4963],[7.11253,47.49511],[7.10004,47.49432],[7.09691,47.49517],[7.0949,47.50109],[7.09474,47.50616],[7.0916,47.50773]]]]}},{"type":"Feature","properties":{"code":"90082","nom":"Autrechêne","departement":"90","region":"27"},"geometry":{"type":"MultiPolygon","coordinates":[[[[6.97488,47.58794],[6.96178,47.58238],[6.95981,47.57958],[6.95875,47.57939],[6.95647,47.58078],[6.95768,47.58168],[6.95844,47.58536],[6.95174,47.59411],[6.9532,47.59862],[6.95761,47.59998],[6.96527,47.60007],[6.97104,47.59915],[6.97702,47.59733],[6.97776,47.59641],[6.97962,47.59536],[6.97409,47.59187],[6.97488,47.58794]]]]}},{"type":"Feature","properties":{"code":"90083","nom":"Recouvrance","departement":"90","region":"27"},"geometry":{"type":"MultiPolygon","coordinates":[[[[6.96684,47.56568],[6.97755,47.57711],[6.98329,47.58026],[6.98572,47.58074],[6.98578,47.57793],[6.97923,47.56513],[6.9808,47.56375],[6.97587,47.56291],[6.96684,47.56568]]]]}},{"type":"Feature","properties":{"code":"90084","nom":"Reppe","departement":"90","region":"27"},"geometry":{"type":"MultiPolygon","coordinates":[[[[7.04137,47.67237],[7.04268,47.67204],[7.04105,47.66862],[7.03481,47.66144],[7.0393,47.65051],[7.02545,47.64964],[7.01895,47.65092],[7.02254,47.65554],[7.02292,47.66269],[7.01903,47.66534],[7.01642,47.66483],[7.01214,47.66538],[7.00964,47.66802],[7.03745,47.67537],[7.03817,47.6739],[7.04137,47.67237]]]]}},{"type":"Feature","properties":{"code":"90085","nom":"Riervescemont","departement":"90","region":"27"},"geometry":{"type":"MultiPolygon","coordinates":[[[[6.9023,47.77663],[6.90318,47.77336],[6.90153,47.76599],[6.88966,47.75483],[6.87207,47.75553],[6.86574,47.75862],[6.86221,47.76193],[6.85974,47.76811],[6.85558,47.77318],[6.86538,47.78489],[6.86634,47.78369],[6.872,47.78177],[6.8919,47.77875],[6.893,47.77757],[6.9023,47.77663]]]]}},{"type":"Feature","properties":{"code":"90088","nom":"Rougegoutte","departement":"90","region":"27"},"geometry":{"type":"MultiPolygon","coordinates":[[[[6.88828,47.75078],[6.8861,47.74708],[6.88588,47.73642],[6.88367,47.73358],[6.88033,47.73122],[6.86477,47.72378],[6.86415,47.72023],[6.8616,47.71556],[6.86024,47.7148],[6.856,47.71722],[6.84254,47.71874],[6.83358,47.72904],[6.83454,47.73083],[6.84,47.73543],[6.84774,47.73629],[6.85598,47.73838],[6.85878,47.74054],[6.86078,47.7452],[6.86935,47.75072],[6.88495,47.7522],[6.88828,47.75078]]]]}},{"type":"Feature","properties":{"code":"90089","nom":"Rougemont-le-Château","departement":"90","region":"27"},"geometry":{"type":"MultiPolygon","coordinates":[[[[6.92275,47.77188],[6.92545,47.76956],[6.93166,47.7697],[6.94255,47.76864],[6.951,47.76331],[6.97101,47.7531],[6.9953,47.74619],[6.99901,47.74595],[6.98234,47.73648],[6.9765,47.72989],[6.97275,47.72801],[6.96808,47.72701],[6.95077,47.72396],[6.9473,47.72196],[6.94455,47.72176],[6.94185,47.72838],[6.93892,47.73195],[6.92216,47.74709],[6.92358,47.76173],[6.92275,47.77188]]]]}},{"type":"Feature","properties":{"code":"90090","nom":"Saint-Dizier-l'Évêque","departement":"90","region":"27"},"geometry":{"type":"MultiPolygon","coordinates":[[[[6.93848,47.47313],[6.94267,47.48492],[6.94912,47.4857],[6.95241,47.48508],[6.96265,47.48148],[6.98142,47.47314],[6.9883,47.4731],[6.99024,47.4724],[6.99171,47.4664],[6.99177,47.46482],[6.99017,47.46322],[6.98176,47.46023],[6.97668,47.45667],[6.97258,47.45218],[6.9712,47.44909],[6.96614,47.45185],[6.95419,47.45454],[6.94378,47.4534],[6.93597,47.45576],[6.93815,47.45918],[6.93848,47.47313]]]]}},{"type":"Feature","properties":{"code":"90091","nom":"Saint-Germain-le-Châtelet","departement":"90","region":"27"},"geometry":{"type":"MultiPolygon","coordinates":[[[[6.95248,47.7169],[6.95394,47.71734],[6.95589,47.71791],[6.95725,47.71348],[6.95858,47.71033],[6.96074,47.70818],[6.96586,47.70486],[6.97822,47.6943],[6.96824,47.69054],[6.96758,47.69041],[6.95768,47.68909],[6.95488,47.69308],[6.9545,47.69436],[6.9513,47.69552],[6.95069,47.69676],[6.95248,47.7169]]]]}},{"type":"Feature","properties":{"code":"90093","nom":"Sermamagny","departement":"90","region":"27"},"geometry":{"type":"MultiPolygon","coordinates":[[[[6.86142,47.69987],[6.86324,47.69754],[6.85378,47.68411],[6.8512,47.68451],[6.83116,47.67587],[6.82958,47.67362],[6.80856,47.68184],[6.79736,47.69064],[6.80776,47.69341],[6.81138,47.69298],[6.81633,47.69406],[6.82909,47.69816],[6.85339,47.69777],[6.86017,47.69899],[6.86142,47.69987]]]]}},{"type":"Feature","properties":{"code":"90094","nom":"Sevenans","departement":"90","region":"27"},"geometry":{"type":"MultiPolygon","coordinates":[[[[6.87711,47.58485],[6.87352,47.58288],[6.86141,47.58237],[6.85888,47.58231],[6.85914,47.58492],[6.85931,47.58907],[6.85998,47.5922],[6.86302,47.59223],[6.86653,47.59269],[6.86707,47.59487],[6.87295,47.59666],[6.88457,47.59803],[6.87941,47.58581],[6.87711,47.58485]]]]}},{"type":"Feature","properties":{"code":"90095","nom":"Suarce","departement":"90","region":"27"},"geometry":{"type":"MultiPolygon","coordinates":[[[[7.05784,47.56928],[7.07872,47.57703],[7.08646,47.58555],[7.08893,47.58377],[7.09302,47.57736],[7.09414,47.5735],[7.0995,47.57284],[7.10542,47.56829],[7.10827,47.56388],[7.10788,47.55865],[7.10727,47.5561],[7.10824,47.55214],[7.10571,47.5516],[7.08979,47.54894],[7.08105,47.54403],[7.06683,47.54201],[7.06224,47.54757],[7.05731,47.55581],[7.05052,47.56333],[7.05784,47.56928]]]]}},{"type":"Feature","properties":{"code":"90096","nom":"Thiancourt","departement":"90","region":"27"},"geometry":{"type":"MultiPolygon","coordinates":[[[[6.99566,47.52096],[6.99446,47.52077],[6.99255,47.51797],[6.96986,47.51108],[6.95803,47.51557],[6.96089,47.51843],[6.97112,47.52028],[6.98405,47.5243],[6.98899,47.53326],[6.99424,47.52965],[6.99853,47.5245],[6.99566,47.52096]]]]}},{"type":"Feature","properties":{"code":"90097","nom":"Trévenans","departement":"90","region":"27"},"geometry":{"type":"MultiPolygon","coordinates":[[[[6.85586,47.54798],[6.85835,47.56086],[6.85463,47.5667],[6.85662,47.56787],[6.86141,47.58237],[6.87352,47.58288],[6.87711,47.58485],[6.87944,47.58234],[6.88455,47.58087],[6.87745,47.5636],[6.88337,47.55551],[6.87433,47.55132],[6.86021,47.5477],[6.85586,47.54798]]]]}},{"type":"Feature","properties":{"code":"90098","nom":"Urcerey","departement":"90","region":"27"},"geometry":{"type":"MultiPolygon","coordinates":[[[[6.81546,47.61662],[6.81319,47.6154],[6.81541,47.60882],[6.81318,47.60542],[6.80829,47.60261],[6.80082,47.6002],[6.79732,47.60056],[6.79591,47.59953],[6.79329,47.59927],[6.78934,47.60469],[6.79281,47.60966],[6.79835,47.6138],[6.79925,47.62361],[6.8028,47.62419],[6.80692,47.62273],[6.81546,47.61662]]]]}},{"type":"Feature","properties":{"code":"90099","nom":"Valdoie","departement":"90","region":"27"},"geometry":{"type":"MultiPolygon","coordinates":[[[[6.82958,47.67362],[6.83116,47.67587],[6.8512,47.68451],[6.85378,47.68411],[6.86186,47.67803],[6.86369,47.67811],[6.86357,47.67584],[6.86568,47.67173],[6.8653,47.66794],[6.85416,47.66038],[6.8517,47.66034],[6.85032,47.66116],[6.84988,47.66121],[6.84336,47.66143],[6.83593,47.66059],[6.83495,47.6613],[6.83489,47.6653],[6.83072,47.67131],[6.82958,47.67362]]]]}},{"type":"Feature","properties":{"code":"90100","nom":"Vauthiermont","departement":"90","region":"27"},"geometry":{"type":"MultiPolygon","coordinates":[[[[7.03636,47.69216],[7.03858,47.68783],[7.03745,47.67537],[7.00964,47.66802],[7.00925,47.66884],[7.01316,47.6706],[7.01451,47.67546],[7.00694,47.67418],[7.00318,47.6745],[7.00467,47.68071],[7.00934,47.68756],[7.03636,47.69216]]]]}},{"type":"Feature","properties":{"code":"90101","nom":"Vellescot","departement":"90","region":"27"},"geometry":{"type":"MultiPolygon","coordinates":[[[[7.0088,47.58189],[7.01871,47.58693],[7.03199,47.58056],[7.03312,47.57814],[7.02165,47.56398],[7.00601,47.56691],[7.00201,47.56419],[7.00707,47.57426],[7.00733,47.57863],[7.0088,47.58189]]]]}},{"type":"Feature","properties":{"code":"90102","nom":"Vescemont","departement":"90","region":"27"},"geometry":{"type":"MultiPolygon","coordinates":[[[[6.84,47.73543],[6.83815,47.73722],[6.83758,47.74369],[6.83861,47.74653],[6.83452,47.7575],[6.84325,47.76964],[6.85037,47.77232],[6.85558,47.77318],[6.85974,47.76811],[6.86221,47.76193],[6.86574,47.75862],[6.87207,47.75553],[6.88966,47.75483],[6.88851,47.75383],[6.88828,47.75078],[6.88495,47.7522],[6.86935,47.75072],[6.86078,47.7452],[6.85878,47.74054],[6.85598,47.73838],[6.84774,47.73629],[6.84,47.73543]]]]}},{"type":"Feature","properties":{"code":"90103","nom":"Vétrigne","departement":"90","region":"27"},"geometry":{"type":"MultiPolygon","coordinates":[[[[6.90884,47.66486],[6.90471,47.66452],[6.89815,47.66241],[6.89469,47.65964],[6.89587,47.65852],[6.89456,47.65856],[6.88232,47.6676],[6.88331,47.67153],[6.8852,47.67399],[6.88638,47.67605],[6.88557,47.68041],[6.89755,47.67477],[6.90799,47.67099],[6.90983,47.66938],[6.90884,47.66486]]]]}},{"type":"Feature","properties":{"code":"90104","nom":"Vézelois","departement":"90","region":"27"},"geometry":{"type":"MultiPolygon","coordinates":[[[[6.88099,47.61055],[6.88099,47.61075],[6.88423,47.61131],[6.89009,47.62218],[6.89414,47.62188],[6.90927,47.62025],[6.9185,47.61763],[6.93701,47.61753],[6.94961,47.61504],[6.94994,47.61276],[6.94898,47.60919],[6.94482,47.60426],[6.94418,47.59598],[6.93848,47.59408],[6.92048,47.59663],[6.90897,47.60076],[6.89125,47.61087],[6.88099,47.61055]]]]}},{"type":"Feature","properties":{"code":"90105","nom":"Villars-le-Sec","departement":"90","region":"27"},"geometry":{"type":"MultiPolygon","coordinates":[[[[6.97029,47.44711],[6.9712,47.44909],[6.97258,47.45218],[6.97668,47.45667],[6.98176,47.46023],[6.99017,47.46322],[6.99177,47.46482],[6.99171,47.4664],[7.00048,47.4672],[6.99912,47.45247],[6.99588,47.44965],[6.99019,47.44798],[6.97029,47.44711]]]]}}]}