{"type":"FeatureCollection","features":[{"type":"Feature","properties":{"code":"92002","nom":"Antony","departement":"92","region":"11"},"geometry":{"type":"MultiPolygon","coordinates":[[[[2.27700355,48.7359918],[2.2745531,48.74069816],[2.28321013,48.74487442],[2.2833243,48.7448796],[2.28482764,48.74563696],[2.28411998,48.74616429],[2.28535822,48.74751278],[2.27505806,48.7551661],[2.276122,48.75662425],[2.27858646,48.76000486],[2.28513853,48.76067925],[2.28810283,48.76048649],[2.28817362,48.76108144],[2.29082979,48.76093894],[2.29193932,48.76449288],[2.2902549,48.76660014],[2.30657692,48.7692333],[2.30743438,48.7707529],[2.30996074,48.77088984],[2.31183164,48.77068837],[2.31239901,48.77213701],[2.31992041,48.7707302],[2.31618601,48.76704193],[2.31587804,48.76676674],[2.31437887,48.76209011],[2.31361715,48.76228631],[2.31323753,48.76094487],[2.30966822,48.75638216],[2.30928152,48.75599856],[2.3086935,48.75540963],[2.31101725,48.75362958],[2.31162515,48.75302057],[2.31011945,48.75219159],[2.31234629,48.75135177],[2.31679093,48.75013965],[2.32072071,48.74875805],[2.31931663,48.74712207],[2.32046578,48.7468174],[2.31755301,48.74449012],[2.31616667,48.74431939],[2.3143441,48.74329616],[2.31622529,48.74025783],[2.31638141,48.7373697],[2.31638003,48.73446267],[2.3144424,48.73042111],[2.30791937,48.72935359],[2.30384006,48.72948996],[2.30154726,48.73623687],[2.30157338,48.73631707],[2.30245456,48.74079519],[2.29930672,48.73904441],[2.29417621,48.73701111],[2.29222138,48.73636543],[2.28931398,48.73547658],[2.28930178,48.73547381],[2.28537671,48.73463367],[2.28270686,48.73398714],[2.27927655,48.73337284],[2.27700355,48.7359918]]]]}},{"type":"Feature","properties":{"code":"92004","nom":"Asnières-sur-Seine","departement":"92","region":"11"},"geometry":{"type":"MultiPolygon","coordinates":[[[[2.27714842,48.90570431],[2.27616387,48.90665524],[2.27613228,48.90686639],[2.27612988,48.90694101],[2.27429532,48.90828429],[2.27038526,48.90682342],[2.26879899,48.9062148],[2.2663941,48.90629273],[2.26494365,48.91027141],[2.26899396,48.91040052],[2.26920334,48.91035503],[2.27215428,48.91017065],[2.27224958,48.91174683],[2.27275123,48.91314561],[2.2728648,48.91322004],[2.27429039,48.91441128],[2.27624672,48.91580626],[2.27786554,48.91694826],[2.28064943,48.91910086],[2.28039822,48.91930709],[2.27657669,48.92269425],[2.27621236,48.92298612],[2.27331989,48.9268482],[2.2718112,48.92776892],[2.2724897,48.92951229],[2.27274054,48.93226657],[2.27303935,48.93383765],[2.2743877,48.93326757],[2.27625487,48.93356754],[2.28103102,48.9330621],[2.2828645,48.93204609],[2.28407322,48.93060186],[2.28437034,48.93023582],[2.28497415,48.92533015],[2.28562133,48.92411635],[2.2862797,48.92288014],[2.28594809,48.92268031],[2.29012211,48.91901707],[2.29189756,48.91790344],[2.29524754,48.91991695],[2.29560272,48.91726789],[2.29583551,48.91579529],[2.2963835,48.91270669],[2.29893088,48.91371716],[2.30173387,48.91510767],[2.30750118,48.9172842],[2.31776361,48.92083597],[2.32201531,48.9186712],[2.31981862,48.91593745],[2.3137675,48.91404498],[2.31095543,48.91311424],[2.29925484,48.91012631],[2.29838329,48.90980375],[2.29507098,48.90817003],[2.29101466,48.90538699],[2.28864273,48.90425597],[2.28739473,48.90364151],[2.28427441,48.90228562],[2.28184541,48.9046201],[2.28013319,48.90364486],[2.27714842,48.90570431]]]]}},{"type":"Feature","properties":{"code":"92007","nom":"Bagneux","departement":"92","region":"11"},"geometry":{"type":"MultiPolygon","coordinates":[[[[2.29992044,48.79054754],[2.29883582,48.79235079],[2.29749615,48.79367855],[2.29823187,48.7945436],[2.29617475,48.79576639],[2.29222406,48.79597151],[2.29440329,48.79830845],[2.30472421,48.80719294],[2.3059438,48.80855631],[2.30173893,48.80997985],[2.30268914,48.81112043],[2.30994197,48.81049157],[2.31444327,48.81012173],[2.31753888,48.80988132],[2.31907737,48.81000521],[2.3178605,48.80840455],[2.31833553,48.80602297],[2.31839265,48.80602869],[2.32475954,48.80760729],[2.32524875,48.8084204],[2.3263574,48.80829624],[2.32560165,48.80577008],[2.32402505,48.80176696],[2.32394205,48.80155333],[2.32275704,48.79855162],[2.32181112,48.79612237],[2.32106226,48.79414393],[2.32071588,48.79324975],[2.31978474,48.79085024],[2.31869626,48.78799741],[2.31800625,48.78819944],[2.31535776,48.78900545],[2.31319985,48.78935014],[2.31125664,48.78734946],[2.30969791,48.78489766],[2.30359197,48.78532093],[2.30340721,48.7853972],[2.30311823,48.78553133],[2.29992044,48.79054754]]]]}},{"type":"Feature","properties":{"code":"92044","nom":"Levallois-Perret","departement":"92","region":"11"},"geometry":{"type":"MultiPolygon","coordinates":[[[[2.28711408,48.88727841],[2.28445957,48.88563928],[2.28336646,48.88668766],[2.28074159,48.88913339],[2.27641967,48.89325956],[2.27625106,48.89341862],[2.27313248,48.89639899],[2.27284901,48.89667427],[2.27106396,48.89839821],[2.27731439,48.90033367],[2.28255457,48.90156846],[2.28427441,48.90228562],[2.28739473,48.90364151],[2.29581887,48.89877296],[2.29898401,48.89700907],[2.30377436,48.89415378],[2.30058827,48.89262884],[2.29960832,48.89217255],[2.29732666,48.89105391],[2.29557954,48.89014971],[2.29274762,48.88959342],[2.29177959,48.88947348],[2.29052922,48.88895616],[2.28868818,48.8880522],[2.28711408,48.88727841]]]]}},{"type":"Feature","properties":{"code":"92009","nom":"Bois-Colombes","departement":"92","region":"11"},"geometry":{"type":"MultiPolygon","coordinates":[[[[2.25741193,48.91355872],[2.25747685,48.91388557],[2.2615512,48.91387748],[2.26206471,48.91730793],[2.26206737,48.91731244],[2.26234855,48.91788433],[2.26310716,48.92000957],[2.26461321,48.91917437],[2.26521319,48.92036514],[2.26715896,48.91950473],[2.26794588,48.9213801],[2.26882072,48.92292595],[2.2697871,48.92466301],[2.26834392,48.92519558],[2.27331989,48.9268482],[2.27621236,48.92298612],[2.27657669,48.92269425],[2.28039822,48.91930709],[2.28064943,48.91910086],[2.27786554,48.91694826],[2.27624672,48.91580626],[2.27429039,48.91441128],[2.2728648,48.91322004],[2.27275123,48.91314561],[2.27224958,48.91174683],[2.27215428,48.91017065],[2.26920334,48.91035503],[2.26899396,48.91040052],[2.26494365,48.91027141],[2.2663941,48.90629273],[2.26698478,48.90464879],[2.26324678,48.90340188],[2.2613717,48.90681674],[2.25821579,48.90607689],[2.25802435,48.90696962],[2.25704398,48.91094663],[2.25787035,48.91289067],[2.25741193,48.91355872]]]]}},{"type":"Feature","properties":{"code":"92012","nom":"Boulogne-Billancourt","departement":"92","region":"11"},"geometry":{"type":"MultiPolygon","coordinates":[[[[2.22404969,48.8351497],[2.22345606,48.83585636],[2.22359353,48.84126162],[2.22536961,48.84653357],[2.22552891,48.84764263],[2.22433521,48.85295017],[2.22421911,48.85351692],[2.23777829,48.85034925],[2.23977005,48.8498322],[2.24195692,48.84798438],[2.24551498,48.84685568],[2.25247755,48.84548558],[2.25130855,48.84205975],[2.25193026,48.83861634],[2.25230493,48.83814202],[2.2534968,48.83673474],[2.25354669,48.83667569],[2.2550721,48.83489994],[2.26149249,48.83407005],[2.26279152,48.83392337],[2.25880435,48.83053955],[2.2487222,48.82449213],[2.23957631,48.82183149],[2.23610725,48.82154855],[2.23263835,48.82273782],[2.22849927,48.82576012],[2.22692073,48.82841122],[2.22591931,48.83273618],[2.22404969,48.8351497]]]]}},{"type":"Feature","properties":{"code":"92014","nom":"Bourg-la-Reine","departement":"92","region":"11"},"geometry":{"type":"MultiPolygon","coordinates":[[[[2.31387901,48.77579627],[2.3142535,48.77681207],[2.31272358,48.77662969],[2.30691121,48.77746315],[2.31047111,48.78488953],[2.30969791,48.78489766],[2.31125664,48.78734946],[2.31319985,48.78935014],[2.31535776,48.78900545],[2.31800625,48.78819944],[2.31869626,48.78799741],[2.32208324,48.78702013],[2.32511946,48.78631689],[2.32444404,48.78224143],[2.32581478,48.7819083],[2.32503637,48.77990361],[2.3245803,48.77907447],[2.32661656,48.77873159],[2.3257248,48.77707523],[2.32374023,48.77658373],[2.32171851,48.77361407],[2.32130667,48.77284543],[2.31992041,48.7707302],[2.31239901,48.77213701],[2.31387901,48.77579627]]]]}},{"type":"Feature","properties":{"code":"92019","nom":"Châtenay-Malabry","departement":"92","region":"11"},"geometry":{"type":"MultiPolygon","coordinates":[[[[2.2620019,48.7597884],[2.25939295,48.76101167],[2.24700876,48.7608236],[2.24523989,48.7626311],[2.24070246,48.76376621],[2.23858681,48.76647354],[2.23285362,48.76598623],[2.23062082,48.77374567],[2.22884388,48.77446545],[2.22891133,48.77597872],[2.23038527,48.77679951],[2.2374555,48.7762971],[2.23680737,48.773717],[2.23903794,48.77295322],[2.24493968,48.77285216],[2.2512289,48.77258234],[2.25656504,48.77311125],[2.26722874,48.77528719],[2.26740291,48.77645121],[2.26830466,48.77619501],[2.26933236,48.77598184],[2.27238619,48.77734062],[2.27439261,48.77701194],[2.27622602,48.7813052],[2.27947522,48.78254715],[2.28011241,48.77907653],[2.2782992,48.77645368],[2.2844676,48.77429439],[2.28701344,48.77371149],[2.28628571,48.77130209],[2.2902549,48.76660014],[2.29193932,48.76449288],[2.29082979,48.76093894],[2.28817362,48.76108144],[2.28810283,48.76048649],[2.28513853,48.76067925],[2.27858646,48.76000486],[2.276122,48.75662425],[2.26943245,48.75765295],[2.27091622,48.76070031],[2.26908641,48.76070172],[2.26894438,48.76200323],[2.26716719,48.76232333],[2.2620019,48.7597884]]]]}},{"type":"Feature","properties":{"code":"92020","nom":"Châtillon","departement":"92","region":"11"},"geometry":{"type":"MultiPolygon","coordinates":[[[[2.27219293,48.79412524],[2.27138565,48.7949064],[2.27637539,48.79771948],[2.27754138,48.80150763],[2.27308574,48.80185837],[2.27315312,48.80190824],[2.27468571,48.8038027],[2.27991119,48.81091795],[2.28182371,48.81067493],[2.28325652,48.81055671],[2.28520439,48.81061334],[2.29200487,48.80971394],[2.29357648,48.81191146],[2.29801981,48.81212381],[2.29958075,48.81098264],[2.30009769,48.81132654],[2.30268914,48.81112043],[2.30173893,48.80997985],[2.3059438,48.80855631],[2.30472421,48.80719294],[2.29440329,48.79830845],[2.29222406,48.79597151],[2.28793286,48.79448988],[2.28774359,48.79499242],[2.28522667,48.79627074],[2.27670767,48.79594517],[2.27246635,48.79423753],[2.27219293,48.79412524]]]]}},{"type":"Feature","properties":{"code":"92022","nom":"Chaville","departement":"92","region":"11"},"geometry":{"type":"MultiPolygon","coordinates":[[[[2.192329,48.79743471],[2.18293714,48.79722786],[2.18696445,48.80070458],[2.18259147,48.8006082],[2.18183626,48.80092862],[2.18042335,48.8048071],[2.18306734,48.80525692],[2.18139857,48.80686894],[2.17817993,48.80944075],[2.17625408,48.81179203],[2.17674337,48.81400884],[2.17852221,48.81485662],[2.18110597,48.81466388],[2.19172427,48.81686952],[2.19787916,48.82091689],[2.19886618,48.82023726],[2.1995499,48.8197049],[2.19960237,48.81965849],[2.20026128,48.8190558],[2.19911156,48.81658735],[2.19878168,48.81642955],[2.19722846,48.81576346],[2.19718857,48.81481613],[2.20564186,48.80917038],[2.2060466,48.79993705],[2.20262373,48.79843113],[2.19859341,48.79846174],[2.19840452,48.79861607],[2.19652854,48.79755026],[2.19275644,48.7974376],[2.192329,48.79743471]]]]}},{"type":"Feature","properties":{"code":"92023","nom":"Clamart","departement":"92","region":"11"},"geometry":{"type":"MultiPolygon","coordinates":[[[[2.22661557,48.7815817],[2.22681165,48.78166662],[2.23484709,48.78453443],[2.23637194,48.78878135],[2.23478946,48.7954251],[2.23876459,48.79775837],[2.24183752,48.80308171],[2.24469205,48.80453613],[2.24857593,48.80647724],[2.24827719,48.8074593],[2.25033768,48.80781761],[2.25469684,48.81093071],[2.25421096,48.81386421],[2.2518665,48.81638495],[2.25336119,48.81652651],[2.25553323,48.81682606],[2.25879568,48.81553231],[2.26167212,48.81340416],[2.26728101,48.81401607],[2.2689449,48.81413239],[2.27022778,48.81422747],[2.27256094,48.81439908],[2.27718899,48.81534363],[2.27818333,48.81424878],[2.27450566,48.81341886],[2.27737479,48.81196033],[2.27991119,48.81091795],[2.27468571,48.8038027],[2.27315312,48.80190824],[2.27308574,48.80185837],[2.27754138,48.80150763],[2.27637539,48.79771948],[2.27138565,48.7949064],[2.27219293,48.79412524],[2.2729889,48.79083284],[2.2717219,48.79051843],[2.2649268,48.78857906],[2.25872863,48.78614293],[2.25342629,48.78467895],[2.25057212,48.78467997],[2.24849882,48.78262796],[2.24631764,48.77910467],[2.24027799,48.77984352],[2.23920353,48.77624978],[2.2374555,48.7762971],[2.23038527,48.77679951],[2.22891133,48.77597872],[2.22884388,48.77446545],[2.22655388,48.776102],[2.22495316,48.77667625],[2.22397904,48.77821514],[2.22402547,48.77994324],[2.22661557,48.7815817]]]]}},{"type":"Feature","properties":{"code":"92024","nom":"Clichy","departement":"92","region":"11"},"geometry":{"type":"MultiPolygon","coordinates":[[[[2.28739473,48.90364151],[2.28864273,48.90425597],[2.29101466,48.90538699],[2.29507098,48.90817003],[2.29838329,48.90980375],[2.29925484,48.91012631],[2.31095543,48.91311424],[2.3137675,48.91404498],[2.31799866,48.90789987],[2.32085127,48.90466596],[2.32058497,48.90374715],[2.32024517,48.90292055],[2.31970774,48.90103792],[2.31988717,48.90045978],[2.31510605,48.89859433],[2.30953449,48.89670344],[2.30867536,48.89638102],[2.30377436,48.89415378],[2.29898401,48.89700907],[2.29581887,48.89877296],[2.28739473,48.90364151]]]]}},{"type":"Feature","properties":{"code":"92025","nom":"Colombes","departement":"92","region":"11"},"geometry":{"type":"MultiPolygon","coordinates":[[[[2.24552539,48.91136296],[2.24174164,48.91007373],[2.23775026,48.90881453],[2.23724021,48.90861434],[2.22909948,48.90602703],[2.22802133,48.91000948],[2.22663999,48.9120708],[2.22562981,48.91302295],[2.22210965,48.9164877],[2.22403005,48.91791657],[2.22414497,48.91798836],[2.22336317,48.91853098],[2.22039814,48.92061342],[2.23114037,48.92773251],[2.24179427,48.93287155],[2.24756118,48.93673981],[2.24840126,48.93386553],[2.25224152,48.93600829],[2.25816956,48.93755865],[2.26224961,48.93487335],[2.26248428,48.93545844],[2.26795772,48.93450637],[2.27303935,48.93383765],[2.27274054,48.93226657],[2.2724897,48.92951229],[2.2718112,48.92776892],[2.27331989,48.9268482],[2.26834392,48.92519558],[2.2697871,48.92466301],[2.26882072,48.92292595],[2.26794588,48.9213801],[2.26715896,48.91950473],[2.26521319,48.92036514],[2.26461321,48.91917437],[2.26310716,48.92000957],[2.26234855,48.91788433],[2.26206737,48.91731244],[2.26206471,48.91730793],[2.2615512,48.91387748],[2.25747685,48.91388557],[2.25741193,48.91355872],[2.25334055,48.91336075],[2.25331876,48.91335791],[2.24552539,48.91136296]]]]}},{"type":"Feature","properties":{"code":"92026","nom":"Courbevoie","departement":"92","region":"11"},"geometry":{"type":"MultiPolygon","coordinates":[[[[2.24186892,48.89065808],[2.24061105,48.894707],[2.24054688,48.89499168],[2.24050791,48.89513892],[2.23835212,48.89472323],[2.23378394,48.89567166],[2.23359496,48.89590787],[2.23329289,48.89632143],[2.23182135,48.89834089],[2.23057104,48.90033657],[2.23162901,48.90065183],[2.24258874,48.9027721],[2.24301519,48.90233953],[2.24569724,48.90298867],[2.2464794,48.90201243],[2.25225282,48.90340929],[2.25587342,48.9045479],[2.25578254,48.90537022],[2.25821579,48.90607689],[2.2613717,48.90681674],[2.26324678,48.90340188],[2.26698478,48.90464879],[2.2663941,48.90629273],[2.26879899,48.9062148],[2.27038526,48.90682342],[2.27429532,48.90828429],[2.27612988,48.90694101],[2.27613228,48.90686639],[2.27616387,48.90665524],[2.27714842,48.90570431],[2.28013319,48.90364486],[2.28184541,48.9046201],[2.28427441,48.90228562],[2.28255457,48.90156846],[2.27731439,48.90033367],[2.27106396,48.89839821],[2.26515339,48.89589974],[2.25683187,48.88958724],[2.25376102,48.88689172],[2.25303493,48.88712192],[2.25247187,48.88730007],[2.24236219,48.89050022],[2.24186892,48.89065808]]]]}},{"type":"Feature","properties":{"code":"92032","nom":"Fontenay-aux-Roses","departement":"92","region":"11"},"geometry":{"type":"MultiPolygon","coordinates":[[[[2.29001658,48.78322095],[2.28663648,48.78247409],[2.28284111,48.78293436],[2.28198297,48.78318284],[2.27950583,48.78407544],[2.28019066,48.78553932],[2.27842103,48.78565367],[2.27595058,48.78605155],[2.27404538,48.78632061],[2.27206745,48.78916692],[2.2717219,48.79051843],[2.2729889,48.79083284],[2.27219293,48.79412524],[2.27246635,48.79423753],[2.27670767,48.79594517],[2.28522667,48.79627074],[2.28774359,48.79499242],[2.28793286,48.79448988],[2.29222406,48.79597151],[2.29617475,48.79576639],[2.29823187,48.7945436],[2.29749615,48.79367855],[2.29883582,48.79235079],[2.29992044,48.79054754],[2.30311823,48.78553133],[2.30340721,48.7853972],[2.29629617,48.78454517],[2.29608826,48.78452056],[2.29001658,48.78322095]]]]}},{"type":"Feature","properties":{"code":"92033","nom":"Garches","departement":"92","region":"11"},"geometry":{"type":"MultiPolygon","coordinates":[[[[2.18524857,48.838384],[2.1783905,48.8381689],[2.166652,48.83770456],[2.16704391,48.84216824],[2.17435995,48.84317949],[2.17916158,48.84440332],[2.18175104,48.84819394],[2.18261935,48.85156624],[2.18730431,48.85255598],[2.19036059,48.85206766],[2.19207809,48.85380516],[2.19347647,48.85529765],[2.19527752,48.85561017],[2.19788168,48.85475077],[2.20549727,48.85182287],[2.20102484,48.84904281],[2.19789413,48.84730136],[2.19790905,48.84588944],[2.19908998,48.84281968],[2.19882164,48.84148411],[2.18866308,48.83925083],[2.18721529,48.83773003],[2.18524857,48.838384]]]]}},{"type":"Feature","properties":{"code":"92035","nom":"La Garenne-Colombes","departement":"92","region":"11"},"geometry":{"type":"MultiPolygon","coordinates":[[[[2.23724021,48.90861434],[2.23775026,48.90881453],[2.24174164,48.91007373],[2.24552539,48.91136296],[2.25331876,48.91335791],[2.25334055,48.91336075],[2.25741193,48.91355872],[2.25787035,48.91289067],[2.25704398,48.91094663],[2.25802435,48.90696962],[2.25821579,48.90607689],[2.25578254,48.90537022],[2.25587342,48.9045479],[2.25225282,48.90340929],[2.2464794,48.90201243],[2.24569724,48.90298867],[2.24301519,48.90233953],[2.24258874,48.9027721],[2.23162901,48.90065183],[2.23064213,48.90327962],[2.22909948,48.90602703],[2.23724021,48.90861434]]]]}},{"type":"Feature","properties":{"code":"92036","nom":"Gennevilliers","departement":"92","region":"11"},"geometry":{"type":"MultiPolygon","coordinates":[[[[2.28594809,48.92268031],[2.2862797,48.92288014],[2.28562133,48.92411635],[2.28497415,48.92533015],[2.28437034,48.93023582],[2.28407322,48.93060186],[2.2828645,48.93204609],[2.28103102,48.9330621],[2.27625487,48.93356754],[2.2743877,48.93326757],[2.27303935,48.93383765],[2.26795772,48.93450637],[2.26248428,48.93545844],[2.26224961,48.93487335],[2.25816956,48.93755865],[2.25224152,48.93600829],[2.24840126,48.93386553],[2.24756118,48.93673981],[2.25099604,48.9383234],[2.25526694,48.94007216],[2.25529409,48.94008222],[2.2598196,48.94295381],[2.26861306,48.94653478],[2.27358753,48.94765856],[2.28545937,48.95041876],[2.29080534,48.9510881],[2.3116681,48.94794891],[2.30920282,48.94030431],[2.31810165,48.93700632],[2.3211049,48.93427514],[2.32215812,48.93284943],[2.318358,48.92754812],[2.32544949,48.92491464],[2.32844967,48.92275969],[2.32201531,48.9186712],[2.31776361,48.92083597],[2.30750118,48.9172842],[2.30173387,48.91510767],[2.29893088,48.91371716],[2.2963835,48.91270669],[2.29583551,48.91579529],[2.29560272,48.91726789],[2.29524754,48.91991695],[2.29189756,48.91790344],[2.29012211,48.91901707],[2.28594809,48.92268031]]]]}},{"type":"Feature","properties":{"code":"92040","nom":"Issy-les-Moulineaux","departement":"92","region":"11"},"geometry":{"type":"MultiPolygon","coordinates":[[[[2.26728101,48.81401607],[2.26167212,48.81340416],[2.25879568,48.81553231],[2.25553323,48.81682606],[2.25336119,48.81652651],[2.2518665,48.81638495],[2.25027505,48.81719523],[2.24846096,48.81795192],[2.24266428,48.81900271],[2.24284324,48.82018475],[2.23610725,48.82154855],[2.23957631,48.82183149],[2.2487222,48.82449213],[2.25880435,48.83053955],[2.26279152,48.83392337],[2.26499275,48.83423731],[2.26778887,48.83458543],[2.26993076,48.83301113],[2.26733861,48.83153198],[2.26782645,48.82783582],[2.27109902,48.82789178],[2.27285261,48.82795732],[2.27911085,48.83246512],[2.28039132,48.83197908],[2.28468371,48.8303068],[2.28940766,48.82833384],[2.28609068,48.82743989],[2.28459013,48.82749748],[2.28001772,48.8251973],[2.28111114,48.82285288],[2.28187298,48.82024924],[2.27503427,48.8166356],[2.27256094,48.81439908],[2.27022778,48.81422747],[2.2689449,48.81413239],[2.26728101,48.81401607]]]]}},{"type":"Feature","properties":{"code":"92046","nom":"Malakoff","departement":"92","region":"11"},"geometry":{"type":"MultiPolygon","coordinates":[[[[2.30009769,48.81132654],[2.29958075,48.81098264],[2.29801981,48.81212381],[2.29357648,48.81191146],[2.29200487,48.80971394],[2.28520439,48.81061334],[2.28325652,48.81055671],[2.28182371,48.81067493],[2.27991119,48.81091795],[2.27737479,48.81196033],[2.27450566,48.81341886],[2.27818333,48.81424878],[2.28127388,48.81480164],[2.28226446,48.81496228],[2.28526515,48.81561972],[2.28763009,48.81636324],[2.29221928,48.8182972],[2.29412954,48.81944352],[2.29894597,48.82325557],[2.30131542,48.82512576],[2.30209958,48.82495316],[2.30406672,48.82452663],[2.3068634,48.82388992],[2.30695904,48.82386799],[2.30834832,48.82356305],[2.3141457,48.82229054],[2.31225919,48.82095491],[2.30965357,48.81900802],[2.30586855,48.81625646],[2.30581458,48.81621838],[2.30048586,48.81172724],[2.30009769,48.81132654]]]]}},{"type":"Feature","properties":{"code":"92047","nom":"Marnes-la-Coquette","departement":"92","region":"11"},"geometry":{"type":"MultiPolygon","coordinates":[[[[2.15074729,48.81884389],[2.15030209,48.81874989],[2.15146967,48.82140602],[2.15169685,48.82979452],[2.156184,48.83763027],[2.15944443,48.83771169],[2.166652,48.83770456],[2.1783905,48.8381689],[2.18524857,48.838384],[2.18721529,48.83773003],[2.18670346,48.83691531],[2.18530492,48.83390724],[2.18079668,48.83062426],[2.17556878,48.82628384],[2.17387685,48.82431418],[2.15330833,48.82141186],[2.15074729,48.81884389]]]]}},{"type":"Feature","properties":{"code":"92048","nom":"Meudon","departement":"92","region":"11"},"geometry":{"type":"MultiPolygon","coordinates":[[[[2.22302431,48.78594219],[2.21150882,48.78813869],[2.20895794,48.78760377],[2.20668196,48.78492729],[2.21162507,48.79125505],[2.2099369,48.79387649],[2.20262373,48.79843113],[2.2060466,48.79993705],[2.20564186,48.80917038],[2.21086574,48.81148766],[2.22065632,48.81517107],[2.21949919,48.81659626],[2.21714917,48.81773303],[2.2226068,48.82090662],[2.22512032,48.82288271],[2.23030345,48.82165254],[2.23149988,48.82207666],[2.23263835,48.82273782],[2.23610725,48.82154855],[2.24284324,48.82018475],[2.24266428,48.81900271],[2.24846096,48.81795192],[2.25027505,48.81719523],[2.2518665,48.81638495],[2.25421096,48.81386421],[2.25469684,48.81093071],[2.25033768,48.80781761],[2.24827719,48.8074593],[2.24857593,48.80647724],[2.24469205,48.80453613],[2.24183752,48.80308171],[2.23876459,48.79775837],[2.23478946,48.7954251],[2.23637194,48.78878135],[2.23484709,48.78453443],[2.22681165,48.78166662],[2.22661557,48.7815817],[2.22475027,48.78401334],[2.22302431,48.78594219]]]]}},{"type":"Feature","properties":{"code":"92049","nom":"Montrouge","departement":"92","region":"11"},"geometry":{"type":"MultiPolygon","coordinates":[[[[2.31444327,48.81012173],[2.30994197,48.81049157],[2.30268914,48.81112043],[2.30009769,48.81132654],[2.30048586,48.81172724],[2.30581458,48.81621838],[2.30586855,48.81625646],[2.30965357,48.81900802],[2.31225919,48.82095491],[2.3141457,48.82229054],[2.3146156,48.8221871],[2.32103974,48.82076765],[2.32396413,48.82012407],[2.32550344,48.8197874],[2.3292964,48.81895073],[2.33246104,48.81824713],[2.33189806,48.81701093],[2.32906326,48.81378335],[2.32652666,48.81068958],[2.32651994,48.81068234],[2.32555783,48.80958056],[2.31907737,48.81000521],[2.31753888,48.80988132],[2.31444327,48.81012173]]]]}},{"type":"Feature","properties":{"code":"92050","nom":"Nanterre","departement":"92","region":"11"},"geometry":{"type":"MultiPolygon","coordinates":[[[[2.20301913,48.8775182],[2.2001004,48.87943683],[2.19706768,48.88121702],[2.19520208,48.88228821],[2.19214794,48.88402136],[2.19236342,48.88410825],[2.1853584,48.8877571],[2.18398313,48.8884906],[2.18065149,48.89013073],[2.17715765,48.89157809],[2.1693487,48.89581493],[2.17437939,48.89906395],[2.18261579,48.90252982],[2.19312406,48.90498519],[2.2004677,48.90862455],[2.2054454,48.91063618],[2.22039814,48.92061342],[2.22336317,48.91853098],[2.22414497,48.91798836],[2.22403005,48.91791657],[2.22210965,48.9164877],[2.22562981,48.91302295],[2.22663999,48.9120708],[2.22802133,48.91000948],[2.22909948,48.90602703],[2.23064213,48.90327962],[2.23162901,48.90065183],[2.23057104,48.90033657],[2.23182135,48.89834089],[2.23329289,48.89632143],[2.23359496,48.89590787],[2.23378394,48.89567166],[2.23426767,48.89505511],[2.23006655,48.89091373],[2.23080312,48.89007668],[2.23069906,48.88964253],[2.22860356,48.88839966],[2.2282496,48.88808171],[2.227004,48.88719502],[2.2244923,48.88543316],[2.22356558,48.88420405],[2.22245102,48.88313739],[2.22361569,48.88276363],[2.21895773,48.8797484],[2.21619334,48.87778595],[2.21686168,48.87695483],[2.21009992,48.8755317],[2.2077596,48.87422926],[2.20303293,48.8775075],[2.20301913,48.8775182]]]]}},{"type":"Feature","properties":{"code":"92051","nom":"Neuilly-sur-Seine","departement":"92","region":"11"},"geometry":{"type":"MultiPolygon","coordinates":[[[[2.25376102,48.88689172],[2.25683187,48.88958724],[2.26515339,48.89589974],[2.27106396,48.89839821],[2.27284901,48.89667427],[2.27313248,48.89639899],[2.27625106,48.89341862],[2.27641967,48.89325956],[2.28074159,48.88913339],[2.28336646,48.88668766],[2.28445957,48.88563928],[2.28110801,48.88304081],[2.28089735,48.88279222],[2.28066877,48.8817683],[2.27995964,48.87861635],[2.27994933,48.87857312],[2.27748703,48.87796832],[2.27075012,48.87883401],[2.26154203,48.88000157],[2.25846717,48.88038726],[2.25605716,48.87555992],[2.25541034,48.87426354],[2.24639778,48.87617761],[2.24570379,48.87645923],[2.25376102,48.88689172]]]]}},{"type":"Feature","properties":{"code":"92060","nom":"Le Plessis-Robinson","departement":"92","region":"11"},"geometry":{"type":"MultiPolygon","coordinates":[[[[2.24493968,48.77285216],[2.23903794,48.77295322],[2.23680737,48.773717],[2.2374555,48.7762971],[2.23920353,48.77624978],[2.24027799,48.77984352],[2.24631764,48.77910467],[2.24849882,48.78262796],[2.25057212,48.78467997],[2.25342629,48.78467895],[2.25872863,48.78614293],[2.2649268,48.78857906],[2.2717219,48.79051843],[2.27206745,48.78916692],[2.27404538,48.78632061],[2.27595058,48.78605155],[2.27842103,48.78565367],[2.28019066,48.78553932],[2.27950583,48.78407544],[2.28198297,48.78318284],[2.28179912,48.78259802],[2.28057106,48.78332006],[2.27947522,48.78254715],[2.27622602,48.7813052],[2.27439261,48.77701194],[2.27238619,48.77734062],[2.26933236,48.77598184],[2.26830466,48.77619501],[2.26740291,48.77645121],[2.26722874,48.77528719],[2.25656504,48.77311125],[2.2512289,48.77258234],[2.24493968,48.77285216]]]]}},{"type":"Feature","properties":{"code":"92062","nom":"Puteaux","departement":"92","region":"11"},"geometry":{"type":"MultiPolygon","coordinates":[[[[2.23640121,48.87959653],[2.23550224,48.8797158],[2.23334102,48.8798072],[2.23052325,48.87994471],[2.23010598,48.88012999],[2.22988226,48.88022928],[2.22361569,48.88276363],[2.22245102,48.88313739],[2.22356558,48.88420405],[2.2244923,48.88543316],[2.227004,48.88719502],[2.2282496,48.88808171],[2.22860356,48.88839966],[2.23069906,48.88964253],[2.23080312,48.89007668],[2.23006655,48.89091373],[2.23426767,48.89505511],[2.23378394,48.89567166],[2.23835212,48.89472323],[2.24050791,48.89513892],[2.24054688,48.89499168],[2.24061105,48.894707],[2.24186892,48.89065808],[2.24236219,48.89050022],[2.25247187,48.88730007],[2.25303493,48.88712192],[2.25376102,48.88689172],[2.24570379,48.87645923],[2.2409453,48.87234162],[2.23173636,48.86906858],[2.23683448,48.87347834],[2.23617126,48.87379877],[2.23207349,48.87579159],[2.23640121,48.87959653]]]]}},{"type":"Feature","properties":{"code":"92063","nom":"Rueil-Malmaison","departement":"92","region":"11"},"geometry":{"type":"MultiPolygon","coordinates":[[[[2.19036059,48.85206766],[2.18730431,48.85255598],[2.18261935,48.85156624],[2.17659709,48.85164816],[2.17358593,48.85014343],[2.15988663,48.84763949],[2.15914181,48.84929181],[2.1507498,48.85615233],[2.15154267,48.8591043],[2.1501332,48.8595278],[2.1511335,48.86054219],[2.1549412,48.86377898],[2.1537588,48.86440019],[2.15699966,48.86958541],[2.15220201,48.86825644],[2.1484786,48.86844315],[2.14801462,48.86930504],[2.15039136,48.87086164],[2.15831848,48.88060641],[2.16144958,48.88160418],[2.16338065,48.88312051],[2.16328697,48.88564073],[2.16319861,48.88816907],[2.1693487,48.89581493],[2.17715765,48.89157809],[2.18065149,48.89013073],[2.18398313,48.8884906],[2.1853584,48.8877571],[2.19236342,48.88410825],[2.19214794,48.88402136],[2.19520208,48.88228821],[2.19706768,48.88121702],[2.2001004,48.87943683],[2.20301913,48.8775182],[2.20303293,48.8775075],[2.2077596,48.87422926],[2.20679824,48.87370217],[2.21080822,48.86999905],[2.2118185,48.86954344],[2.21128969,48.86755328],[2.21140484,48.86670055],[2.20913711,48.86710559],[2.20777664,48.8644147],[2.20457439,48.86514083],[2.2020502,48.86618167],[2.20079259,48.86356424],[2.1997855,48.86141703],[2.20355829,48.86062827],[2.20182324,48.85750671],[2.19788168,48.85475077],[2.19527752,48.85561017],[2.19347647,48.85529765],[2.19207809,48.85380516],[2.19036059,48.85206766]]]]}},{"type":"Feature","properties":{"code":"92064","nom":"Saint-Cloud","departement":"92","region":"11"},"geometry":{"type":"MultiPolygon","coordinates":[[[[2.18530492,48.83390724],[2.18670346,48.83691531],[2.18721529,48.83773003],[2.18866308,48.83925083],[2.19882164,48.84148411],[2.19908998,48.84281968],[2.19790905,48.84588944],[2.19789413,48.84730136],[2.20102484,48.84904281],[2.20549727,48.85182287],[2.19788168,48.85475077],[2.20182324,48.85750671],[2.20355829,48.86062827],[2.20584501,48.86030351],[2.2123964,48.8616185],[2.21262569,48.86168926],[2.21369363,48.85938852],[2.21660573,48.85979705],[2.22426057,48.85961128],[2.22567029,48.85940456],[2.22421911,48.85351692],[2.22433521,48.85295017],[2.22552891,48.84764263],[2.22536961,48.84653357],[2.22359353,48.84126162],[2.22345606,48.83585636],[2.22404969,48.8351497],[2.22209348,48.8354113],[2.2216765,48.82921273],[2.21888704,48.82636777],[2.19943327,48.82978542],[2.19427181,48.82942428],[2.19398409,48.82953116],[2.18477744,48.82887066],[2.18079668,48.83062426],[2.18530492,48.83390724]]]]}},{"type":"Feature","properties":{"code":"92071","nom":"Sceaux","departement":"92","region":"11"},"geometry":{"type":"MultiPolygon","coordinates":[[[[2.31272358,48.77662969],[2.3142535,48.77681207],[2.31387901,48.77579627],[2.31239901,48.77213701],[2.31183164,48.77068837],[2.30996074,48.77088984],[2.30743438,48.7707529],[2.30657692,48.7692333],[2.2902549,48.76660014],[2.28628571,48.77130209],[2.28701344,48.77371149],[2.2844676,48.77429439],[2.2782992,48.77645368],[2.28011241,48.77907653],[2.27947522,48.78254715],[2.28057106,48.78332006],[2.28179912,48.78259802],[2.28198297,48.78318284],[2.28284111,48.78293436],[2.28663648,48.78247409],[2.29001658,48.78322095],[2.29608826,48.78452056],[2.29629617,48.78454517],[2.30340721,48.7853972],[2.30359197,48.78532093],[2.30969791,48.78489766],[2.31047111,48.78488953],[2.30691121,48.77746315],[2.31272358,48.77662969]]]]}},{"type":"Feature","properties":{"code":"92072","nom":"Sèvres","departement":"92","region":"11"},"geometry":{"type":"MultiPolygon","coordinates":[[[[2.19878168,48.81642955],[2.19911156,48.81658735],[2.20026128,48.8190558],[2.19960237,48.81965849],[2.1995499,48.8197049],[2.19886618,48.82023726],[2.19787916,48.82091689],[2.19172427,48.81686952],[2.18110597,48.81466388],[2.17852221,48.81485662],[2.18254292,48.81769301],[2.18721889,48.81871423],[2.19086794,48.82053507],[2.19420599,48.82178529],[2.19867738,48.82268505],[2.20085935,48.82402176],[2.20096801,48.82590852],[2.19820551,48.82600065],[2.19943327,48.82978542],[2.21888704,48.82636777],[2.2216765,48.82921273],[2.22209348,48.8354113],[2.22404969,48.8351497],[2.22591931,48.83273618],[2.22692073,48.82841122],[2.22849927,48.82576012],[2.23263835,48.82273782],[2.23149988,48.82207666],[2.23030345,48.82165254],[2.22512032,48.82288271],[2.2226068,48.82090662],[2.21714917,48.81773303],[2.21949919,48.81659626],[2.22065632,48.81517107],[2.21086574,48.81148766],[2.20564186,48.80917038],[2.19718857,48.81481613],[2.19722846,48.81576346],[2.19878168,48.81642955]]]]}},{"type":"Feature","properties":{"code":"92073","nom":"Suresnes","departement":"92","region":"11"},"geometry":{"type":"MultiPolygon","coordinates":[[[[2.20079259,48.86356424],[2.2020502,48.86618167],[2.20457439,48.86514083],[2.20777664,48.8644147],[2.20913711,48.86710559],[2.21140484,48.86670055],[2.21128969,48.86755328],[2.2118185,48.86954344],[2.21080822,48.86999905],[2.20679824,48.87370217],[2.2077596,48.87422926],[2.21009992,48.8755317],[2.21686168,48.87695483],[2.21619334,48.87778595],[2.21895773,48.8797484],[2.22361569,48.88276363],[2.22988226,48.88022928],[2.23010598,48.88012999],[2.23052325,48.87994471],[2.23334102,48.8798072],[2.23550224,48.8797158],[2.23640121,48.87959653],[2.23207349,48.87579159],[2.23617126,48.87379877],[2.23683448,48.87347834],[2.23173636,48.86906858],[2.22961513,48.86685423],[2.22567029,48.85940456],[2.22426057,48.85961128],[2.21660573,48.85979705],[2.21369363,48.85938852],[2.21262569,48.86168926],[2.2123964,48.8616185],[2.20584501,48.86030351],[2.20355829,48.86062827],[2.1997855,48.86141703],[2.20079259,48.86356424]]]]}},{"type":"Feature","properties":{"code":"92075","nom":"Vanves","departement":"92","region":"11"},"geometry":{"type":"MultiPolygon","coordinates":[[[[2.28127388,48.81480164],[2.27818333,48.81424878],[2.27718899,48.81534363],[2.27256094,48.81439908],[2.27503427,48.8166356],[2.28187298,48.82024924],[2.28111114,48.82285288],[2.28001772,48.8251973],[2.28459013,48.82749748],[2.28609068,48.82743989],[2.28940766,48.82833384],[2.29219184,48.82714158],[2.29229295,48.8271188],[2.29697096,48.82608422],[2.30131542,48.82512576],[2.29894597,48.82325557],[2.29412954,48.81944352],[2.29221928,48.8182972],[2.28763009,48.81636324],[2.28526515,48.81561972],[2.28226446,48.81496228],[2.28127388,48.81480164]]]]}},{"type":"Feature","properties":{"code":"92076","nom":"Vaucresson","departement":"92","region":"11"},"geometry":{"type":"MultiPolygon","coordinates":[[[[2.14620485,48.83815575],[2.14747947,48.84319421],[2.14937216,48.84586446],[2.1519361,48.84875079],[2.15302577,48.84886733],[2.15988663,48.84763949],[2.17358593,48.85014343],[2.17659709,48.85164816],[2.18261935,48.85156624],[2.18175104,48.84819394],[2.17916158,48.84440332],[2.17435995,48.84317949],[2.16704391,48.84216824],[2.166652,48.83770456],[2.15944443,48.83771169],[2.156184,48.83763027],[2.15169685,48.82979452],[2.15146967,48.82140602],[2.14848148,48.82848643],[2.14586718,48.8368951],[2.14620485,48.83815575]]]]}},{"type":"Feature","properties":{"code":"92077","nom":"Ville-d'Avray","departement":"92","region":"11"},"geometry":{"type":"MultiPolygon","coordinates":[[[[2.15163984,48.81697407],[2.15074729,48.81884389],[2.15330833,48.82141186],[2.17387685,48.82431418],[2.17556878,48.82628384],[2.18079668,48.83062426],[2.18477744,48.82887066],[2.19398409,48.82953116],[2.19427181,48.82942428],[2.19943327,48.82978542],[2.19820551,48.82600065],[2.20096801,48.82590852],[2.20085935,48.82402176],[2.19867738,48.82268505],[2.19420599,48.82178529],[2.19086794,48.82053507],[2.18721889,48.81871423],[2.18254292,48.81769301],[2.17852221,48.81485662],[2.17674337,48.81400884],[2.17481528,48.81510991],[2.16931549,48.81591277],[2.16653231,48.81230027],[2.16127754,48.81278158],[2.15734439,48.81456533],[2.15163984,48.81697407]]]]}},{"type":"Feature","properties":{"code":"92078","nom":"Villeneuve-la-Garenne","departement":"92","region":"11"},"geometry":{"type":"MultiPolygon","coordinates":[[[[2.3368397,48.93357007],[2.33362746,48.92753598],[2.32844967,48.92275969],[2.32544949,48.92491464],[2.318358,48.92754812],[2.32215812,48.93284943],[2.3211049,48.93427514],[2.31810165,48.93700632],[2.30920282,48.94030431],[2.3116681,48.94794891],[2.32219583,48.94629846],[2.32946717,48.94461723],[2.33320351,48.94293843],[2.33543979,48.94090139],[2.33643284,48.93807234],[2.3368996,48.93561718],[2.3368397,48.93357007]]]]}}]}