{"type":"FeatureCollection","features":[{"type":"Feature","properties":{"code":"93001","nom":"Aubervilliers","departement":"93","region":"11"},"geometry":{"type":"MultiPolygon","coordinates":[[[[2.37978,48.90205],[2.3703,48.90185],[2.36562,48.90176],[2.36592,48.90712],[2.3657,48.90902],[2.36671,48.91537],[2.36683,48.92016],[2.36614,48.92147],[2.36761,48.92208],[2.36699,48.92374],[2.3683,48.92447],[2.36919,48.92377],[2.37199,48.92245],[2.37475,48.92377],[2.37711,48.92242],[2.38001,48.91979],[2.38264,48.91949],[2.38646,48.91924],[2.38651,48.91929],[2.39446,48.92172],[2.39817,48.92238],[2.40237,48.92117],[2.40769,48.91811],[2.40762,48.91804],[2.40576,48.91632],[2.40439,48.91505],[2.40781,48.91371],[2.4115,48.91127],[2.40834,48.90809],[2.40605,48.90848],[2.4004,48.91135],[2.40036,48.91131],[2.40016,48.91112],[2.39636,48.9076],[2.39589,48.90716],[2.39203,48.90363],[2.39074,48.90243],[2.39005,48.90179],[2.38933,48.90116],[2.38487,48.90208],[2.38035,48.90206],[2.37978,48.90205]]]]}},{"type":"Feature","properties":{"code":"93005","nom":"Aulnay-sous-Bois","departement":"93","region":"11"},"geometry":{"type":"MultiPolygon","coordinates":[[[[2.49187,48.91691],[2.49144,48.91743],[2.48868,48.91864],[2.48612,48.91868],[2.48534,48.91781],[2.47944,48.91837],[2.47948,48.91993],[2.48103,48.92409],[2.48108,48.92473],[2.48141,48.92873],[2.47929,48.93037],[2.48097,48.93098],[2.481,48.93208],[2.48237,48.93223],[2.48178,48.93406],[2.48315,48.934],[2.48423,48.93596],[2.48258,48.93609],[2.48337,48.93749],[2.47613,48.93969],[2.47759,48.94097],[2.4793,48.94302],[2.47235,48.95162],[2.46971,48.95224],[2.46417,48.95323],[2.45949,48.95505],[2.46204,48.95914],[2.46842,48.96366],[2.4731,48.96587],[2.48383,48.96832],[2.49249,48.97459],[2.49618,48.9726],[2.50047,48.96926],[2.51163,48.96188],[2.51333,48.96077],[2.51485,48.95831],[2.51807,48.95599],[2.52412,48.95055],[2.52324,48.95027],[2.51914,48.94913],[2.5175,48.94845],[2.51553,48.94603],[2.51408,48.94506],[2.50913,48.94146],[2.50827,48.94035],[2.51018,48.93954],[2.50535,48.93598],[2.50528,48.93463],[2.51033,48.93331],[2.51026,48.933],[2.5107,48.93212],[2.51108,48.93194],[2.51443,48.93035],[2.51354,48.92852],[2.51551,48.92669],[2.51814,48.92513],[2.51364,48.92141],[2.51226,48.91936],[2.51083,48.91918],[2.5072,48.91875],[2.50617,48.91863],[2.49719,48.91754],[2.49187,48.91691]]]]}},{"type":"Feature","properties":{"code":"93006","nom":"Bagnolet","departement":"93","region":"11"},"geometry":{"type":"MultiPolygon","coordinates":[[[[2.4147,48.8587],[2.41412,48.86351],[2.41398,48.86518],[2.41393,48.86953],[2.41365,48.8724],[2.41343,48.87314],[2.41584,48.87508],[2.42187,48.87826],[2.42254,48.87831],[2.42977,48.87832],[2.43297,48.87902],[2.43706,48.87729],[2.43543,48.8746],[2.43367,48.87357],[2.43093,48.87102],[2.43052,48.87023],[2.43029,48.86952],[2.42871,48.86832],[2.42956,48.86763],[2.42922,48.86718],[2.42781,48.86639],[2.42867,48.86358],[2.42623,48.86318],[2.42314,48.86035],[2.42344,48.85966],[2.4234,48.85729],[2.42198,48.8571],[2.4168,48.85587],[2.41529,48.85518],[2.41478,48.85825],[2.4147,48.8587]]]]}},{"type":"Feature","properties":{"code":"93007","nom":"Le Blanc-Mesnil","departement":"93","region":"11"},"geometry":{"type":"MultiPolygon","coordinates":[[[[2.44252,48.93731],[2.43891,48.93609],[2.43869,48.9377],[2.43597,48.93776],[2.43119,48.93873],[2.43196,48.94042],[2.43093,48.94027],[2.43518,48.9451],[2.4378,48.94809],[2.44287,48.95317],[2.44394,48.95432],[2.44667,48.95462],[2.44753,48.95537],[2.44749,48.95578],[2.45588,48.95567],[2.45949,48.95505],[2.46417,48.95323],[2.46971,48.95224],[2.47235,48.95162],[2.4793,48.94302],[2.47759,48.94097],[2.47613,48.93969],[2.48337,48.93749],[2.48258,48.93609],[2.48423,48.93596],[2.48315,48.934],[2.48178,48.93406],[2.48237,48.93223],[2.481,48.93208],[2.48097,48.93098],[2.47929,48.93037],[2.48141,48.92873],[2.48108,48.92473],[2.48103,48.92409],[2.47948,48.91993],[2.47703,48.92024],[2.47437,48.91837],[2.47366,48.91996],[2.47211,48.92034],[2.46858,48.91928],[2.46665,48.91977],[2.46196,48.92093],[2.46235,48.92387],[2.46256,48.92834],[2.46339,48.92988],[2.46388,48.93079],[2.46123,48.93277],[2.45902,48.93366],[2.45512,48.93776],[2.44909,48.93958],[2.44252,48.93731]]]]}},{"type":"Feature","properties":{"code":"93008","nom":"Bobigny","departement":"93","region":"11"},"geometry":{"type":"MultiPolygon","coordinates":[[[[2.46159,48.9022],[2.45557,48.90105],[2.44173,48.89844],[2.42773,48.8959],[2.42403,48.89549],[2.42416,48.89633],[2.42129,48.90207],[2.41741,48.90359],[2.41165,48.90623],[2.41422,48.91072],[2.41528,48.91203],[2.41279,48.91553],[2.41065,48.91636],[2.41013,48.91662],[2.41351,48.91936],[2.41773,48.91778],[2.42287,48.91641],[2.42634,48.91564],[2.42954,48.91501],[2.43147,48.91439],[2.43701,48.91315],[2.44155,48.91513],[2.45278,48.91199],[2.45436,48.91123],[2.45594,48.91043],[2.45786,48.91055],[2.464,48.91236],[2.46843,48.91474],[2.47549,48.91643],[2.47573,48.91408],[2.47429,48.91064],[2.47428,48.91061],[2.47232,48.90806],[2.47158,48.90767],[2.47096,48.90519],[2.47016,48.905],[2.46208,48.90539],[2.46203,48.90507],[2.46159,48.9022]]]]}},{"type":"Feature","properties":{"code":"93010","nom":"Bondy","departement":"93","region":"11"},"geometry":{"type":"MultiPolygon","coordinates":[[[[2.47659,48.88877],[2.47131,48.88908],[2.4727,48.89276],[2.47445,48.8951],[2.47281,48.89564],[2.47463,48.89815],[2.46913,48.89954],[2.47065,48.903],[2.47016,48.905],[2.47096,48.90519],[2.47158,48.90767],[2.47232,48.90806],[2.47428,48.91061],[2.47429,48.91064],[2.47573,48.91408],[2.47549,48.91643],[2.47437,48.91837],[2.47703,48.92024],[2.47948,48.91993],[2.47944,48.91837],[2.48534,48.91781],[2.48612,48.91868],[2.48868,48.91864],[2.49144,48.91743],[2.49187,48.91691],[2.49101,48.90971],[2.49045,48.90901],[2.49233,48.90761],[2.49018,48.90725],[2.4937,48.90728],[2.49369,48.90568],[2.4999,48.90462],[2.49929,48.90235],[2.49561,48.89675],[2.50015,48.89574],[2.49734,48.89159],[2.49706,48.89108],[2.49821,48.89092],[2.49806,48.89014],[2.49553,48.88933],[2.492,48.89024],[2.48741,48.88841],[2.48704,48.88698],[2.48682,48.887],[2.47788,48.88919],[2.47659,48.88877]]]]}},{"type":"Feature","properties":{"code":"93013","nom":"Le Bourget","departement":"93","region":"11"},"geometry":{"type":"MultiPolygon","coordinates":[[[[2.4226,48.93005],[2.42024,48.92965],[2.41604,48.93039],[2.4125,48.93266],[2.41396,48.93599],[2.41663,48.93568],[2.41584,48.93729],[2.41702,48.93891],[2.41755,48.9399],[2.41827,48.93918],[2.42123,48.93992],[2.42251,48.94033],[2.42196,48.94147],[2.43057,48.94634],[2.43518,48.9451],[2.43093,48.94027],[2.43196,48.94042],[2.43119,48.93873],[2.43597,48.93776],[2.43869,48.9377],[2.43891,48.93609],[2.44252,48.93731],[2.44471,48.93384],[2.44416,48.93272],[2.44173,48.9327],[2.43509,48.9323],[2.4226,48.93005]]]]}},{"type":"Feature","properties":{"code":"93014","nom":"Clichy-sous-Bois","departement":"93","region":"11"},"geometry":{"type":"MultiPolygon","coordinates":[[[[2.52982,48.90321],[2.52358,48.90367],[2.52114,48.90338],[2.52206,48.90443],[2.52524,48.90524],[2.527,48.90695],[2.53298,48.90822],[2.53833,48.90945],[2.53856,48.91167],[2.53979,48.91215],[2.53989,48.9128],[2.54114,48.91571],[2.5445,48.91812],[2.54759,48.91636],[2.55058,48.91617],[2.55292,48.91496],[2.55923,48.9213],[2.56005,48.91111],[2.5652,48.90836],[2.55899,48.90538],[2.5569,48.9044],[2.556,48.90397],[2.55205,48.90209],[2.54655,48.89905],[2.54623,48.89889],[2.53853,48.89969],[2.53602,48.89832],[2.53569,48.89489],[2.53201,48.89526],[2.53152,48.89698],[2.52982,48.90321]]]]}},{"type":"Feature","properties":{"code":"93015","nom":"Coubron","departement":"93","region":"11"},"geometry":{"type":"MultiPolygon","coordinates":[[[[2.57733,48.90653],[2.5652,48.90836],[2.56005,48.91111],[2.55923,48.9213],[2.56136,48.92514],[2.56443,48.92808],[2.57226,48.92491],[2.5926,48.92504],[2.58969,48.92281],[2.58861,48.92014],[2.59035,48.91444],[2.58883,48.90948],[2.59232,48.90772],[2.59142,48.90706],[2.58888,48.90825],[2.57999,48.90804],[2.57733,48.90653]]]]}},{"type":"Feature","properties":{"code":"93027","nom":"La Courneuve","departement":"93","region":"11"},"geometry":{"type":"MultiPolygon","coordinates":[[[[2.38001,48.91979],[2.37711,48.92242],[2.37475,48.92377],[2.37783,48.92535],[2.37719,48.9259],[2.3751,48.92768],[2.37761,48.93184],[2.38001,48.93153],[2.38112,48.93134],[2.38335,48.93284],[2.38356,48.93396],[2.38465,48.9403],[2.38586,48.94092],[2.39499,48.94475],[2.39815,48.94822],[2.40298,48.9507],[2.40412,48.95154],[2.4129,48.94401],[2.41755,48.9399],[2.41702,48.93891],[2.41584,48.93729],[2.41663,48.93568],[2.41396,48.93599],[2.4125,48.93266],[2.41604,48.93039],[2.42024,48.92965],[2.4226,48.93005],[2.41855,48.92481],[2.41775,48.92402],[2.41687,48.9226],[2.41351,48.91936],[2.41013,48.91662],[2.40762,48.91804],[2.40769,48.91811],[2.40237,48.92117],[2.39817,48.92238],[2.39446,48.92172],[2.38651,48.91929],[2.38646,48.91924],[2.38264,48.91949],[2.38001,48.91979]]]]}},{"type":"Feature","properties":{"code":"93029","nom":"Drancy","departement":"93","region":"11"},"geometry":{"type":"MultiPolygon","coordinates":[[[[2.42634,48.91564],[2.42287,48.91641],[2.41773,48.91778],[2.41351,48.91936],[2.41687,48.9226],[2.41775,48.92402],[2.41855,48.92481],[2.4226,48.93005],[2.43509,48.9323],[2.44173,48.9327],[2.44416,48.93272],[2.44471,48.93384],[2.44252,48.93731],[2.44909,48.93958],[2.45512,48.93776],[2.45902,48.93366],[2.46123,48.93277],[2.46388,48.93079],[2.46339,48.92988],[2.46256,48.92834],[2.46235,48.92387],[2.46196,48.92093],[2.46665,48.91977],[2.46858,48.91928],[2.47211,48.92034],[2.47366,48.91996],[2.47437,48.91837],[2.47549,48.91643],[2.46843,48.91474],[2.464,48.91236],[2.45786,48.91055],[2.45594,48.91043],[2.45436,48.91123],[2.45278,48.91199],[2.44155,48.91513],[2.43701,48.91315],[2.43147,48.91439],[2.42954,48.91501],[2.42634,48.91564]]]]}},{"type":"Feature","properties":{"code":"93030","nom":"Dugny","departement":"93","region":"11"},"geometry":{"type":"MultiPolygon","coordinates":[[[[2.42251,48.94033],[2.42123,48.93992],[2.41827,48.93918],[2.41755,48.9399],[2.4129,48.94401],[2.40412,48.95154],[2.40363,48.95187],[2.40787,48.95432],[2.40691,48.9546],[2.40736,48.95609],[2.40967,48.95787],[2.41369,48.95774],[2.41579,48.95875],[2.41757,48.95934],[2.41881,48.95771],[2.42702,48.95941],[2.44518,48.95674],[2.44749,48.95578],[2.44753,48.95537],[2.44667,48.95462],[2.44394,48.95432],[2.44287,48.95317],[2.4378,48.94809],[2.43518,48.9451],[2.43057,48.94634],[2.42196,48.94147],[2.42251,48.94033]]]]}},{"type":"Feature","properties":{"code":"93061","nom":"Le Pré-Saint-Gervais","departement":"93","region":"11"},"geometry":{"type":"MultiPolygon","coordinates":[[[[2.41192,48.87881],[2.41082,48.87844],[2.40844,48.88044],[2.40365,48.88168],[2.39989,48.8842],[2.39894,48.88953],[2.40168,48.88965],[2.40154,48.88863],[2.40674,48.88831],[2.41013,48.88913],[2.41025,48.88518],[2.41151,48.88322],[2.41161,48.88073],[2.41195,48.87945],[2.41192,48.87881]]]]}},{"type":"Feature","properties":{"code":"93031","nom":"Épinay-sur-Seine","departement":"93","region":"11"},"geometry":{"type":"MultiPolygon","coordinates":[[[[2.29221,48.95147],[2.29005,48.95529],[2.28919,48.95682],[2.28877,48.95758],[2.28833,48.95838],[2.29002,48.9612],[2.29221,48.96279],[2.29793,48.96582],[2.29888,48.96631],[2.30046,48.9657],[2.30508,48.96222],[2.30677,48.963],[2.30935,48.9627],[2.31037,48.96175],[2.313,48.96241],[2.32269,48.95753],[2.32554,48.95835],[2.32698,48.95904],[2.32792,48.95952],[2.33336,48.95532],[2.33519,48.95409],[2.33733,48.9527],[2.34224,48.94916],[2.34602,48.94638],[2.34472,48.94587],[2.34459,48.94657],[2.33938,48.94763],[2.33687,48.94513],[2.33856,48.94476],[2.3393,48.94332],[2.33834,48.94258],[2.33442,48.94513],[2.32528,48.94781],[2.30205,48.95188],[2.29221,48.95147]]]]}},{"type":"Feature","properties":{"code":"93032","nom":"Gagny","departement":"93","region":"11"},"geometry":{"type":"MultiPolygon","coordinates":[[[[2.54303,48.87089],[2.53925,48.86968],[2.53874,48.87053],[2.53547,48.87423],[2.53533,48.87436],[2.53308,48.87547],[2.53123,48.87667],[2.53005,48.87438],[2.52855,48.87893],[2.52578,48.88271],[2.52482,48.88411],[2.52462,48.88436],[2.51815,48.89113],[2.51967,48.89081],[2.52065,48.89168],[2.52098,48.89147],[2.52361,48.89337],[2.52722,48.89172],[2.53168,48.89285],[2.53258,48.89325],[2.53216,48.89472],[2.53201,48.89526],[2.53569,48.89489],[2.53602,48.89832],[2.53853,48.89969],[2.54623,48.89889],[2.54444,48.89593],[2.54771,48.89576],[2.54708,48.89452],[2.54669,48.89117],[2.54901,48.89027],[2.54763,48.88847],[2.54723,48.88743],[2.54966,48.88538],[2.54996,48.8849],[2.55869,48.88459],[2.5592,48.88516],[2.56747,48.88137],[2.56998,48.87621],[2.56883,48.87492],[2.56802,48.8743],[2.56923,48.86812],[2.56761,48.86587],[2.56734,48.86584],[2.56431,48.86557],[2.557,48.86815],[2.55187,48.87443],[2.5471,48.87219],[2.54303,48.87089]]]]}},{"type":"Feature","properties":{"code":"93033","nom":"Gournay-sur-Marne","departement":"93","region":"11"},"geometry":{"type":"MultiPolygon","coordinates":[[[[2.58322,48.85542],[2.57928,48.85521],[2.57417,48.85344],[2.57057,48.85718],[2.56974,48.85807],[2.56713,48.85753],[2.56439,48.86375],[2.5642,48.86459],[2.56761,48.86587],[2.57241,48.86794],[2.57547,48.86595],[2.5875,48.86503],[2.58789,48.86454],[2.58696,48.86023],[2.58324,48.85837],[2.58144,48.85899],[2.58322,48.85542]]]]}},{"type":"Feature","properties":{"code":"93039","nom":"L'Île-Saint-Denis","departement":"93","region":"11"},"geometry":{"type":"MultiPolygon","coordinates":[[[[2.32202,48.91867],[2.32845,48.92276],[2.33363,48.92754],[2.33684,48.93357],[2.3369,48.93562],[2.33643,48.93807],[2.33544,48.9409],[2.3332,48.94294],[2.32947,48.94462],[2.3222,48.9463],[2.31167,48.94795],[2.29081,48.95109],[2.29221,48.95147],[2.30205,48.95188],[2.32528,48.94781],[2.33442,48.94513],[2.33834,48.94258],[2.34107,48.93789],[2.34133,48.93308],[2.34124,48.93283],[2.3392,48.92928],[2.33325,48.92321],[2.32875,48.91869],[2.31982,48.91594],[2.32202,48.91867]]]]}},{"type":"Feature","properties":{"code":"93045","nom":"Les Lilas","departement":"93","region":"11"},"geometry":{"type":"MultiPolygon","coordinates":[[[[2.41343,48.87314],[2.41221,48.87674],[2.41082,48.87844],[2.41192,48.87881],[2.41195,48.87945],[2.41161,48.88073],[2.41151,48.88322],[2.41733,48.88403],[2.4224,48.88758],[2.42258,48.88846],[2.42435,48.89097],[2.4267,48.88929],[2.42755,48.88598],[2.42683,48.88611],[2.42447,48.88312],[2.42557,48.88275],[2.42688,48.88318],[2.42907,48.88259],[2.42843,48.88023],[2.4306,48.88059],[2.42977,48.87832],[2.42254,48.87831],[2.42187,48.87826],[2.41584,48.87508],[2.41343,48.87314]]]]}},{"type":"Feature","properties":{"code":"93046","nom":"Livry-Gargan","departement":"93","region":"11"},"geometry":{"type":"MultiPolygon","coordinates":[[[[2.5139,48.90242],[2.51192,48.90149],[2.51103,48.90184],[2.51457,48.9051],[2.51919,48.90998],[2.52117,48.91204],[2.51679,48.91122],[2.51227,48.91056],[2.51015,48.9103],[2.50898,48.91315],[2.50579,48.91743],[2.5072,48.91875],[2.51083,48.91918],[2.51226,48.91936],[2.51364,48.92141],[2.51814,48.92513],[2.52171,48.92394],[2.52236,48.92453],[2.52418,48.92501],[2.52482,48.92758],[2.52924,48.92609],[2.53145,48.92621],[2.53191,48.92727],[2.53451,48.92732],[2.53665,48.92585],[2.53907,48.92746],[2.54077,48.92971],[2.54801,48.93241],[2.55698,48.93421],[2.56155,48.93307],[2.56416,48.9302],[2.56443,48.92808],[2.56136,48.92514],[2.55923,48.9213],[2.55292,48.91496],[2.55058,48.91617],[2.54759,48.91636],[2.5445,48.91812],[2.54114,48.91571],[2.53989,48.9128],[2.53979,48.91215],[2.53856,48.91167],[2.53833,48.90945],[2.53298,48.90822],[2.527,48.90695],[2.52524,48.90524],[2.52206,48.90443],[2.52114,48.90338],[2.5139,48.90242]]]]}},{"type":"Feature","properties":{"code":"93047","nom":"Montfermeil","departement":"93","region":"11"},"geometry":{"type":"MultiPolygon","coordinates":[[[[2.57017,48.89035],[2.56613,48.89032],[2.56211,48.8892],[2.5592,48.88516],[2.55869,48.88459],[2.54996,48.8849],[2.54966,48.88538],[2.54723,48.88743],[2.54763,48.88847],[2.54901,48.89027],[2.54669,48.89117],[2.54708,48.89452],[2.54771,48.89576],[2.54444,48.89593],[2.54623,48.89889],[2.54655,48.89905],[2.55205,48.90209],[2.556,48.90397],[2.5569,48.9044],[2.55899,48.90538],[2.5652,48.90836],[2.57733,48.90653],[2.57999,48.90804],[2.58888,48.90825],[2.59142,48.90706],[2.58553,48.90462],[2.58413,48.90338],[2.58536,48.90158],[2.58919,48.89867],[2.58696,48.89805],[2.58803,48.89605],[2.58674,48.89622],[2.58698,48.89398],[2.57836,48.89342],[2.57576,48.89249],[2.57228,48.89249],[2.57095,48.89144],[2.57017,48.89035]]]]}},{"type":"Feature","properties":{"code":"93048","nom":"Montreuil","departement":"93","region":"11"},"geometry":{"type":"MultiPolygon","coordinates":[[[[2.41634,48.84923],[2.41544,48.85439],[2.41529,48.85518],[2.4168,48.85587],[2.42198,48.8571],[2.4234,48.85729],[2.42344,48.85966],[2.42314,48.86035],[2.42623,48.86318],[2.42867,48.86358],[2.42781,48.86639],[2.42922,48.86718],[2.42956,48.86763],[2.42871,48.86832],[2.43029,48.86952],[2.43052,48.87023],[2.43093,48.87102],[2.43367,48.87357],[2.43543,48.8746],[2.4365,48.87359],[2.43728,48.87288],[2.43864,48.87131],[2.44607,48.87272],[2.44636,48.87288],[2.4467,48.87307],[2.44774,48.8746],[2.449,48.87623],[2.45125,48.87701],[2.45176,48.87852],[2.46086,48.87837],[2.46495,48.87808],[2.46838,48.87722],[2.46745,48.87631],[2.4701,48.8745],[2.47088,48.87115],[2.4722,48.86748],[2.48018,48.86796],[2.48218,48.86709],[2.48282,48.86395],[2.48272,48.86375],[2.48265,48.86363],[2.48159,48.86149],[2.48081,48.86006],[2.4679,48.86055],[2.4668,48.86001],[2.46741,48.85663],[2.4589,48.85602],[2.45758,48.85593],[2.45757,48.85593],[2.45397,48.8554],[2.45238,48.85494],[2.45036,48.85411],[2.44754,48.85254],[2.44714,48.85116],[2.44476,48.85176],[2.44247,48.8519],[2.44329,48.85258],[2.44206,48.85294],[2.43882,48.85303],[2.43877,48.85303],[2.43523,48.85336],[2.43458,48.85083],[2.42958,48.85106],[2.42931,48.84875],[2.42488,48.849],[2.42202,48.84919],[2.42103,48.84925],[2.419,48.84939],[2.41634,48.84923]]]]}},{"type":"Feature","properties":{"code":"93049","nom":"Neuilly-Plaisance","departement":"93","region":"11"},"geometry":{"type":"MultiPolygon","coordinates":[[[[2.51642,48.85331],[2.52008,48.85405],[2.52096,48.85223],[2.51559,48.85129],[2.51351,48.85006],[2.51197,48.85253],[2.51141,48.85245],[2.50856,48.85342],[2.50548,48.85721],[2.50457,48.8573],[2.5,48.85574],[2.49931,48.85655],[2.49739,48.85598],[2.49682,48.85569],[2.49489,48.85881],[2.49711,48.85919],[2.49611,48.86066],[2.49732,48.8604],[2.49948,48.86402],[2.50094,48.867],[2.501,48.86958],[2.50122,48.8708],[2.50093,48.87302],[2.50276,48.8731],[2.50789,48.8762],[2.50944,48.87807],[2.51317,48.87604],[2.51291,48.87567],[2.515,48.87491],[2.52048,48.87458],[2.5211,48.8738],[2.51726,48.86762],[2.5185,48.86452],[2.51912,48.85926],[2.51837,48.85938],[2.51608,48.85612],[2.51612,48.85563],[2.51642,48.85331]]]]}},{"type":"Feature","properties":{"code":"93050","nom":"Neuilly-sur-Marne","departement":"93","region":"11"},"geometry":{"type":"MultiPolygon","coordinates":[[[[2.52096,48.85223],[2.52008,48.85405],[2.51642,48.85331],[2.51612,48.85563],[2.51608,48.85612],[2.51837,48.85938],[2.51912,48.85926],[2.5185,48.86452],[2.51726,48.86762],[2.5211,48.8738],[2.52048,48.87458],[2.52394,48.87528],[2.52971,48.87386],[2.53005,48.87438],[2.53123,48.87667],[2.53308,48.87547],[2.53533,48.87436],[2.53547,48.87423],[2.53874,48.87053],[2.53925,48.86968],[2.54303,48.87089],[2.5471,48.87219],[2.55187,48.87443],[2.557,48.86815],[2.56431,48.86557],[2.56734,48.86584],[2.56761,48.86587],[2.5642,48.86459],[2.56439,48.86375],[2.56713,48.85753],[2.56711,48.8554],[2.56263,48.85403],[2.5449,48.85427],[2.5327,48.85359],[2.52096,48.85223]]]]}},{"type":"Feature","properties":{"code":"93051","nom":"Noisy-le-Grand","departement":"93","region":"11"},"geometry":{"type":"MultiPolygon","coordinates":[[[[2.55677,48.83164],[2.55274,48.83237],[2.54916,48.83508],[2.54738,48.83415],[2.54745,48.83559],[2.54703,48.83601],[2.54414,48.83501],[2.53807,48.83688],[2.53667,48.83854],[2.53987,48.83982],[2.537,48.84188],[2.53455,48.84533],[2.52876,48.84358],[2.5262,48.84707],[2.52466,48.84914],[2.51903,48.84797],[2.51559,48.85129],[2.52096,48.85223],[2.5327,48.85359],[2.5449,48.85427],[2.56263,48.85403],[2.56711,48.8554],[2.56713,48.85753],[2.56974,48.85807],[2.57057,48.85718],[2.57417,48.85344],[2.57657,48.84997],[2.5766,48.84994],[2.57761,48.84823],[2.57882,48.84629],[2.57981,48.84475],[2.58087,48.84315],[2.58673,48.83438],[2.58729,48.83354],[2.58598,48.83062],[2.58573,48.82893],[2.58716,48.82619],[2.58986,48.82649],[2.59255,48.8257],[2.59579,48.81414],[2.59595,48.8099],[2.59178,48.80725],[2.59015,48.80879],[2.58286,48.81009],[2.5811,48.8106],[2.57003,48.81497],[2.56872,48.81796],[2.571,48.82262],[2.56917,48.82408],[2.56131,48.82654],[2.56061,48.82876],[2.56059,48.82881],[2.55813,48.83004],[2.55677,48.83164]]]]}},{"type":"Feature","properties":{"code":"93053","nom":"Noisy-le-Sec","departement":"93","region":"11"},"geometry":{"type":"MultiPolygon","coordinates":[[[[2.46495,48.87808],[2.46086,48.87837],[2.45176,48.87852],[2.44939,48.87868],[2.45032,48.87966],[2.45024,48.87982],[2.45005,48.88064],[2.45362,48.88469],[2.45039,48.88572],[2.44652,48.88526],[2.44318,48.88286],[2.4404,48.88459],[2.44474,48.88886],[2.44441,48.89075],[2.4411,48.89262],[2.439,48.89321],[2.44173,48.89844],[2.45557,48.90105],[2.46159,48.9022],[2.46203,48.90507],[2.46208,48.90539],[2.47016,48.905],[2.47065,48.903],[2.46913,48.89954],[2.47463,48.89815],[2.47281,48.89564],[2.47445,48.8951],[2.4727,48.89276],[2.47131,48.88908],[2.47659,48.88877],[2.47538,48.88629],[2.47032,48.88677],[2.46908,48.88394],[2.46888,48.88374],[2.46669,48.8816],[2.46658,48.88024],[2.46495,48.87808]]]]}},{"type":"Feature","properties":{"code":"93055","nom":"Pantin","departement":"93","region":"11"},"geometry":{"type":"MultiPolygon","coordinates":[[[[2.40674,48.88831],[2.40154,48.88863],[2.40168,48.88965],[2.39894,48.88953],[2.39877,48.89026],[2.39824,48.89264],[2.39599,48.89751],[2.39084,48.90091],[2.38933,48.90116],[2.39005,48.90179],[2.39074,48.90243],[2.39203,48.90363],[2.39589,48.90716],[2.39636,48.9076],[2.40016,48.91112],[2.40036,48.91131],[2.4004,48.91135],[2.40605,48.90848],[2.40834,48.90809],[2.4115,48.91127],[2.40781,48.91371],[2.40439,48.91505],[2.40576,48.91632],[2.40762,48.91804],[2.41013,48.91662],[2.41065,48.91636],[2.41279,48.91553],[2.41528,48.91203],[2.41422,48.91072],[2.41165,48.90623],[2.41741,48.90359],[2.42129,48.90207],[2.42416,48.89633],[2.42403,48.89549],[2.42773,48.8959],[2.42661,48.89287],[2.42541,48.89311],[2.42435,48.89097],[2.42258,48.88846],[2.4224,48.88758],[2.41733,48.88403],[2.41151,48.88322],[2.41025,48.88518],[2.41013,48.88913],[2.40674,48.88831]]]]}},{"type":"Feature","properties":{"code":"93057","nom":"Les Pavillons-sous-Bois","departement":"93","region":"11"},"geometry":{"type":"MultiPolygon","coordinates":[[[[2.4999,48.90462],[2.49369,48.90568],[2.4937,48.90728],[2.49018,48.90725],[2.49233,48.90761],[2.49045,48.90901],[2.49101,48.90971],[2.49187,48.91691],[2.49719,48.91754],[2.50617,48.91863],[2.5072,48.91875],[2.50579,48.91743],[2.50898,48.91315],[2.51015,48.9103],[2.51227,48.91056],[2.51679,48.91122],[2.52117,48.91204],[2.51919,48.90998],[2.51457,48.9051],[2.51103,48.90184],[2.50847,48.89922],[2.50803,48.89852],[2.50716,48.89766],[2.50514,48.89854],[2.50066,48.89522],[2.50015,48.89574],[2.49561,48.89675],[2.49929,48.90235],[2.4999,48.90462]]]]}},{"type":"Feature","properties":{"code":"93062","nom":"Le Raincy","departement":"93","region":"11"},"geometry":{"type":"MultiPolygon","coordinates":[[[[2.51234,48.88917],[2.51137,48.88961],[2.51127,48.88984],[2.50915,48.89227],[2.50663,48.89273],[2.50803,48.89852],[2.50847,48.89922],[2.51103,48.90184],[2.51192,48.90149],[2.5139,48.90242],[2.52114,48.90338],[2.52358,48.90367],[2.52982,48.90321],[2.53152,48.89698],[2.53201,48.89526],[2.53216,48.89472],[2.53258,48.89325],[2.53168,48.89285],[2.52722,48.89172],[2.52361,48.89337],[2.52098,48.89147],[2.52065,48.89168],[2.51967,48.89081],[2.51815,48.89113],[2.51591,48.88784],[2.51234,48.88917]]]]}},{"type":"Feature","properties":{"code":"93063","nom":"Romainville","departement":"93","region":"11"},"geometry":{"type":"MultiPolygon","coordinates":[[[[2.42907,48.88259],[2.42688,48.88318],[2.42557,48.88275],[2.42447,48.88312],[2.42683,48.88611],[2.42755,48.88598],[2.4267,48.88929],[2.42435,48.89097],[2.42541,48.89311],[2.42661,48.89287],[2.42773,48.8959],[2.44173,48.89844],[2.439,48.89321],[2.4411,48.89262],[2.44441,48.89075],[2.44474,48.88886],[2.4404,48.88459],[2.44318,48.88286],[2.44652,48.88526],[2.45039,48.88572],[2.45362,48.88469],[2.45005,48.88064],[2.45024,48.87982],[2.45032,48.87966],[2.44939,48.87868],[2.45176,48.87852],[2.45125,48.87701],[2.449,48.87623],[2.44774,48.8746],[2.4467,48.87307],[2.44636,48.87288],[2.44607,48.87272],[2.43864,48.87131],[2.43728,48.87288],[2.4365,48.87359],[2.43543,48.8746],[2.43706,48.87729],[2.43297,48.87902],[2.42977,48.87832],[2.4306,48.88059],[2.42843,48.88023],[2.42907,48.88259]]]]}},{"type":"Feature","properties":{"code":"93064","nom":"Rosny-sous-Bois","departement":"93","region":"11"},"geometry":{"type":"MultiPolygon","coordinates":[[[[2.48282,48.86395],[2.48218,48.86709],[2.48018,48.86796],[2.4722,48.86748],[2.47088,48.87115],[2.4701,48.8745],[2.46745,48.87631],[2.46838,48.87722],[2.46495,48.87808],[2.46658,48.88024],[2.46669,48.8816],[2.46888,48.88374],[2.46908,48.88394],[2.47032,48.88677],[2.47538,48.88629],[2.47659,48.88877],[2.47788,48.88919],[2.48682,48.887],[2.48704,48.88698],[2.49345,48.88571],[2.49543,48.88503],[2.49548,48.88291],[2.49396,48.88274],[2.4952,48.88118],[2.49882,48.87757],[2.50369,48.87743],[2.50568,48.87933],[2.50944,48.87807],[2.50789,48.8762],[2.50276,48.8731],[2.50093,48.87302],[2.50122,48.8708],[2.501,48.86958],[2.50094,48.867],[2.49948,48.86402],[2.49732,48.8604],[2.49611,48.86066],[2.49158,48.85955],[2.49102,48.8608],[2.48697,48.86067],[2.4868,48.86067],[2.48159,48.86149],[2.48265,48.86363],[2.48272,48.86375],[2.48282,48.86395]]]]}},{"type":"Feature","properties":{"code":"93066","nom":"Saint-Denis","departement":"93","region":"11"},"geometry":{"type":"MultiPolygon","coordinates":[[[[2.35084,48.91095],[2.34547,48.91403],[2.34416,48.91409],[2.34324,48.91418],[2.3378,48.91522],[2.33879,48.91737],[2.34001,48.91962],[2.33325,48.92321],[2.3392,48.92928],[2.34124,48.93283],[2.34133,48.93308],[2.34107,48.93789],[2.33834,48.94258],[2.3393,48.94332],[2.33856,48.94476],[2.33687,48.94513],[2.33938,48.94763],[2.34459,48.94657],[2.34472,48.94587],[2.34602,48.94638],[2.34857,48.94749],[2.3516,48.95041],[2.35371,48.95402],[2.35298,48.95691],[2.35488,48.95965],[2.3528,48.96032],[2.35245,48.96132],[2.35347,48.96562],[2.35655,48.96845],[2.36092,48.97313],[2.36163,48.97402],[2.36529,48.97309],[2.36574,48.97403],[2.36604,48.97398],[2.36782,48.97339],[2.37573,48.97207],[2.37469,48.96967],[2.37351,48.96524],[2.37351,48.96258],[2.36901,48.96],[2.36878,48.95896],[2.36553,48.9587],[2.36884,48.95273],[2.36908,48.95245],[2.37142,48.94748],[2.37168,48.94697],[2.37523,48.94765],[2.37524,48.94759],[2.37649,48.94524],[2.37707,48.94455],[2.38187,48.94534],[2.38213,48.94541],[2.38367,48.94352],[2.38694,48.94433],[2.38975,48.94534],[2.39641,48.9495],[2.39815,48.94822],[2.39499,48.94475],[2.38586,48.94092],[2.38465,48.9403],[2.38356,48.93396],[2.38335,48.93284],[2.38112,48.93134],[2.38001,48.93153],[2.37761,48.93184],[2.3751,48.92768],[2.37719,48.9259],[2.37783,48.92535],[2.37475,48.92377],[2.37199,48.92245],[2.36919,48.92377],[2.3683,48.92447],[2.36699,48.92374],[2.36761,48.92208],[2.36614,48.92147],[2.36683,48.92016],[2.36671,48.91537],[2.3657,48.90902],[2.36592,48.90712],[2.36562,48.90176],[2.3587,48.90162],[2.35198,48.90148],[2.35146,48.90927],[2.35084,48.91095]]]]}},{"type":"Feature","properties":{"code":"93070","nom":"Saint-Ouen-sur-Seine","departement":"93","region":"11"},"geometry":{"type":"MultiPolygon","coordinates":[[[[2.31971,48.90104],[2.32025,48.90292],[2.32058,48.90375],[2.32085,48.90467],[2.318,48.9079],[2.31377,48.91404],[2.31982,48.91594],[2.32875,48.91869],[2.33325,48.92321],[2.34001,48.91962],[2.33879,48.91737],[2.3378,48.91522],[2.34324,48.91418],[2.34416,48.91409],[2.34547,48.91403],[2.35084,48.91095],[2.35146,48.90927],[2.35198,48.90148],[2.34771,48.9014],[2.34413,48.90133],[2.34376,48.90132],[2.33517,48.90115],[2.33474,48.90114],[2.33015,48.90104],[2.32974,48.90104],[2.32584,48.90095],[2.31989,48.90046],[2.31971,48.90104]]]]}},{"type":"Feature","properties":{"code":"93071","nom":"Sevran","departement":"93","region":"11"},"geometry":{"type":"MultiPolygon","coordinates":[[[[2.52418,48.92501],[2.52236,48.92453],[2.52171,48.92394],[2.51814,48.92513],[2.51551,48.92669],[2.51354,48.92852],[2.51443,48.93035],[2.51108,48.93194],[2.5107,48.93212],[2.51026,48.933],[2.51033,48.93331],[2.50528,48.93463],[2.50535,48.93598],[2.51018,48.93954],[2.50827,48.94035],[2.50913,48.94146],[2.51408,48.94506],[2.51553,48.94603],[2.5175,48.94845],[2.51914,48.94913],[2.52324,48.95027],[2.52412,48.95055],[2.52915,48.95133],[2.53093,48.95164],[2.53275,48.95005],[2.53506,48.95002],[2.53501,48.95106],[2.53638,48.95125],[2.53869,48.95146],[2.54324,48.95004],[2.54764,48.94832],[2.5479,48.94727],[2.55025,48.94708],[2.55319,48.944],[2.55448,48.94097],[2.55658,48.93529],[2.55698,48.93421],[2.54801,48.93241],[2.54077,48.92971],[2.53907,48.92746],[2.53665,48.92585],[2.53451,48.92732],[2.53191,48.92727],[2.53145,48.92621],[2.52924,48.92609],[2.52482,48.92758],[2.52418,48.92501]]]]}},{"type":"Feature","properties":{"code":"93072","nom":"Stains","departement":"93","region":"11"},"geometry":{"type":"MultiPolygon","coordinates":[[[[2.37142,48.94748],[2.36908,48.95245],[2.36884,48.95273],[2.36553,48.9587],[2.36878,48.95896],[2.36901,48.96],[2.37351,48.96258],[2.37351,48.96524],[2.37469,48.96967],[2.37573,48.97207],[2.38244,48.97123],[2.38348,48.97117],[2.39024,48.96556],[2.40736,48.95609],[2.40691,48.9546],[2.40787,48.95432],[2.40363,48.95187],[2.40412,48.95154],[2.40298,48.9507],[2.39815,48.94822],[2.39641,48.9495],[2.38975,48.94534],[2.38694,48.94433],[2.38367,48.94352],[2.38213,48.94541],[2.38187,48.94534],[2.37707,48.94455],[2.37649,48.94524],[2.37524,48.94759],[2.37523,48.94765],[2.37168,48.94697],[2.37142,48.94748]]]]}},{"type":"Feature","properties":{"code":"93073","nom":"Tremblay-en-France","departement":"93","region":"11"},"geometry":{"type":"MultiPolygon","coordinates":[[[[2.56237,48.95158],[2.56322,48.95296],[2.56387,48.95373],[2.56446,48.95546],[2.56362,48.95661],[2.5592,48.96215],[2.55924,48.96225],[2.55757,48.96553],[2.55009,48.97125],[2.53199,48.96668],[2.53152,48.96853],[2.52577,48.97664],[2.50049,48.97543],[2.50037,48.97771],[2.50188,48.97853],[2.51701,48.98611],[2.53219,49.00524],[2.53548,49.00659],[2.54904,49.00493],[2.55308,49.00678],[2.55346,49.01014],[2.56558,49.01233],[2.57152,48.99987],[2.57596,49.00028],[2.58128,48.99053],[2.58144,48.98597],[2.57786,48.98173],[2.56708,48.97868],[2.56681,48.97485],[2.57363,48.96693],[2.57366,48.96691],[2.57989,48.96105],[2.58362,48.95701],[2.58617,48.9568],[2.58944,48.95367],[2.59126,48.95075],[2.59142,48.95031],[2.5917,48.94961],[2.59404,48.94409],[2.59593,48.93861],[2.58576,48.93749],[2.57731,48.93646],[2.57113,48.93953],[2.56908,48.94296],[2.56887,48.94334],[2.56861,48.9438],[2.56805,48.94475],[2.56346,48.94815],[2.56237,48.95158]]]]}},{"type":"Feature","properties":{"code":"93074","nom":"Vaujours","departement":"93","region":"11"},"geometry":{"type":"MultiPolygon","coordinates":[[[[2.56416,48.9302],[2.56155,48.93307],[2.55698,48.93421],[2.55658,48.93529],[2.56112,48.93639],[2.56503,48.93883],[2.56633,48.94267],[2.56887,48.94334],[2.56908,48.94296],[2.57113,48.93953],[2.57731,48.93646],[2.58576,48.93749],[2.59593,48.93861],[2.59772,48.93882],[2.59772,48.93806],[2.60164,48.93847],[2.60215,48.9346],[2.60272,48.92938],[2.5926,48.92504],[2.57226,48.92491],[2.56443,48.92808],[2.56416,48.9302]]]]}},{"type":"Feature","properties":{"code":"93077","nom":"Villemomble","departement":"93","region":"11"},"geometry":{"type":"MultiPolygon","coordinates":[[[[2.49345,48.88571],[2.48704,48.88698],[2.48741,48.88841],[2.492,48.89024],[2.49553,48.88933],[2.49806,48.89014],[2.49821,48.89092],[2.49706,48.89108],[2.49734,48.89159],[2.50015,48.89574],[2.50066,48.89522],[2.50514,48.89854],[2.50716,48.89766],[2.50803,48.89852],[2.50663,48.89273],[2.50915,48.89227],[2.51127,48.88984],[2.51137,48.88961],[2.51234,48.88917],[2.51591,48.88784],[2.51815,48.89113],[2.52462,48.88436],[2.52482,48.88411],[2.52578,48.88271],[2.52855,48.87893],[2.53005,48.87438],[2.52971,48.87386],[2.52394,48.87528],[2.52048,48.87458],[2.515,48.87491],[2.51291,48.87567],[2.51317,48.87604],[2.50944,48.87807],[2.50568,48.87933],[2.50369,48.87743],[2.49882,48.87757],[2.4952,48.88118],[2.49396,48.88274],[2.49548,48.88291],[2.49543,48.88503],[2.49345,48.88571]]]]}},{"type":"Feature","properties":{"code":"93078","nom":"Villepinte","departement":"93","region":"11"},"geometry":{"type":"MultiPolygon","coordinates":[[[[2.53638,48.95125],[2.53501,48.95106],[2.53506,48.95002],[2.53275,48.95005],[2.53093,48.95164],[2.52915,48.95133],[2.52412,48.95055],[2.51807,48.95599],[2.51485,48.95831],[2.51333,48.96077],[2.51163,48.96188],[2.50047,48.96926],[2.49618,48.9726],[2.49796,48.97386],[2.49724,48.97506],[2.50049,48.97543],[2.52577,48.97664],[2.53152,48.96853],[2.53199,48.96668],[2.55009,48.97125],[2.55757,48.96553],[2.55924,48.96225],[2.5592,48.96215],[2.56362,48.95661],[2.56446,48.95546],[2.56387,48.95373],[2.56322,48.95296],[2.56237,48.95158],[2.56346,48.94815],[2.56805,48.94475],[2.56861,48.9438],[2.56887,48.94334],[2.56633,48.94267],[2.56503,48.93883],[2.56112,48.93639],[2.55658,48.93529],[2.55448,48.94097],[2.55319,48.944],[2.55025,48.94708],[2.5479,48.94727],[2.54764,48.94832],[2.54324,48.95004],[2.53869,48.95146],[2.53638,48.95125]]]]}},{"type":"Feature","properties":{"code":"93079","nom":"Villetaneuse","departement":"93","region":"11"},"geometry":{"type":"MultiPolygon","coordinates":[[[[2.33778,48.9597],[2.33746,48.96091],[2.33893,48.96292],[2.33987,48.96255],[2.34137,48.96476],[2.34387,48.96842],[2.34508,48.96819],[2.34719,48.9677],[2.35347,48.96562],[2.35245,48.96132],[2.3528,48.96032],[2.35488,48.95965],[2.35298,48.95691],[2.35371,48.95402],[2.3516,48.95041],[2.34857,48.94749],[2.34602,48.94638],[2.34224,48.94916],[2.33733,48.9527],[2.33519,48.95409],[2.33336,48.95532],[2.3368,48.95844],[2.33778,48.9597]]]]}}]}