{"type":"FeatureCollection","features":[{"type":"Feature","properties":{"code":"94001","nom":"Ablon-sur-Seine","departement":"94","region":"11"},"geometry":{"type":"MultiPolygon","coordinates":[[[[2.41089245,48.7260737],[2.41871288,48.72871774],[2.42372449,48.72857834],[2.4243648,48.72920025],[2.42602743,48.72822427],[2.43410677,48.72664744],[2.4350105,48.72429247],[2.42331634,48.72207606],[2.41444188,48.71772896],[2.41071144,48.72199289],[2.41089245,48.7260737]]]]}},{"type":"Feature","properties":{"code":"94002","nom":"Alfortville","departement":"94","region":"11"},"geometry":{"type":"MultiPolygon","coordinates":[[[[2.42201703,48.78791044],[2.42282832,48.79110452],[2.42162164,48.79447862],[2.41883722,48.79733958],[2.41101192,48.80374091],[2.40930534,48.80607449],[2.4090135,48.80851848],[2.4102703,48.81454155],[2.40940041,48.81655726],[2.41592454,48.81624845],[2.41613758,48.81595269],[2.4211414,48.81089103],[2.42245225,48.80970569],[2.42331594,48.80856405],[2.42556274,48.80447906],[2.42671217,48.80172976],[2.42738801,48.79994321],[2.4288939,48.79632497],[2.43142727,48.79008805],[2.43283162,48.78661855],[2.43338321,48.78382943],[2.43000673,48.78231496],[2.42825251,48.77609618],[2.41619672,48.77709558],[2.41468607,48.7772267],[2.41732784,48.78072931],[2.42201703,48.78791044]]]]}},{"type":"Feature","properties":{"code":"94003","nom":"Arcueil","departement":"94","region":"11"},"geometry":{"type":"MultiPolygon","coordinates":[[[[2.33375901,48.79852352],[2.33291975,48.79942453],[2.33148941,48.79948939],[2.3280336,48.79984236],[2.32394205,48.80155333],[2.32402505,48.80176696],[2.32560165,48.80577008],[2.3263574,48.80829624],[2.32524875,48.8084204],[2.32475954,48.80760729],[2.31839265,48.80602869],[2.31833553,48.80602297],[2.3178605,48.80840455],[2.31907737,48.81000521],[2.32555783,48.80958056],[2.32651994,48.81068234],[2.32652666,48.81068958],[2.32906326,48.81378335],[2.3341369,48.8126479],[2.33462111,48.81354729],[2.33634964,48.81351642],[2.34025697,48.81241561],[2.33906189,48.81086746],[2.34225014,48.80856642],[2.34341922,48.80828954],[2.34260966,48.80661941],[2.34502927,48.80542661],[2.34386928,48.80325451],[2.34781208,48.80152946],[2.34606184,48.79963206],[2.34772768,48.79902418],[2.34674407,48.79820755],[2.34524514,48.79777483],[2.34599231,48.79714215],[2.34522613,48.79690321],[2.34381027,48.79766353],[2.34353481,48.79780862],[2.3410339,48.79888763],[2.33755591,48.79810212],[2.33375901,48.79852352]]]]}},{"type":"Feature","properties":{"code":"94004","nom":"Boissy-Saint-Léger","departement":"94","region":"11"},"geometry":{"type":"MultiPolygon","coordinates":[[[[2.52245028,48.73212353],[2.51692924,48.73853317],[2.51178378,48.74477406],[2.51017262,48.7469027],[2.50453575,48.74383668],[2.50234494,48.7458243],[2.50155461,48.74897529],[2.50094566,48.75078509],[2.49837098,48.75332506],[2.49748997,48.75427204],[2.49299066,48.75927628],[2.49959782,48.76298365],[2.50924774,48.76137866],[2.52649487,48.75616602],[2.53293381,48.75517594],[2.53723703,48.75448215],[2.53894698,48.75539178],[2.55729962,48.75459689],[2.55726867,48.75375582],[2.55306844,48.75183251],[2.5464501,48.75195955],[2.54371989,48.74904043],[2.55263258,48.7468229],[2.54459755,48.73636367],[2.53442496,48.72951481],[2.53652247,48.72817381],[2.5308153,48.72738879],[2.52245028,48.73212353]]]]}},{"type":"Feature","properties":{"code":"94011","nom":"Bonneuil-sur-Marne","departement":"94","region":"11"},"geometry":{"type":"MultiPolygon","coordinates":[[[[2.47736759,48.76612454],[2.47480317,48.76934757],[2.47156546,48.77291654],[2.47460079,48.77458484],[2.47363266,48.77559061],[2.47275932,48.77650415],[2.47496054,48.7776453],[2.47259547,48.77992476],[2.47690686,48.7810095],[2.47296076,48.78701094],[2.47462554,48.78767123],[2.47880024,48.78601934],[2.48675758,48.78416774],[2.49535637,48.78432399],[2.50706681,48.78416061],[2.51244515,48.78478707],[2.5121799,48.78389739],[2.51442661,48.78378512],[2.51024265,48.78134327],[2.50133905,48.77710084],[2.49744369,48.77306958],[2.49644392,48.76880038],[2.49687765,48.76459836],[2.49959782,48.76298365],[2.49299066,48.75927628],[2.48915982,48.75858449],[2.48340935,48.75654686],[2.47954784,48.76046505],[2.4763123,48.75997241],[2.4735044,48.76173102],[2.47715229,48.76276249],[2.47484001,48.7652806],[2.47601245,48.76572106],[2.47736759,48.76612454]]]]}},{"type":"Feature","properties":{"code":"94015","nom":"Bry-sur-Marne","departement":"94","region":"11"},"geometry":{"type":"MultiPolygon","coordinates":[[[[2.50507429,48.82964474],[2.50391861,48.83070209],[2.5110927,48.82933583],[2.51315022,48.82985416],[2.51656678,48.83175038],[2.51765635,48.83413088],[2.51653267,48.83689635],[2.51327026,48.83932037],[2.51204965,48.84250539],[2.51137762,48.84689776],[2.51351333,48.85006316],[2.51559237,48.85129021],[2.51902862,48.84796571],[2.52465666,48.84914386],[2.52619633,48.84706798],[2.52876238,48.84358416],[2.53454863,48.84532726],[2.53700467,48.8418842],[2.53986514,48.83981774],[2.53666653,48.83853911],[2.53569888,48.83826915],[2.53648653,48.83733058],[2.53438752,48.83499221],[2.53362781,48.83174077],[2.53189979,48.82923651],[2.52498334,48.82720816],[2.52395103,48.82778414],[2.5215446,48.82891673],[2.51828276,48.82899987],[2.51175912,48.82915688],[2.50507429,48.82964474]]]]}},{"type":"Feature","properties":{"code":"94016","nom":"Cachan","departement":"94","region":"11"},"geometry":{"type":"MultiPolygon","coordinates":[[[[2.31869626,48.78799741],[2.31978474,48.79085024],[2.32071588,48.79324975],[2.32106226,48.79414393],[2.32181112,48.79612237],[2.32275704,48.79855162],[2.32394205,48.80155333],[2.3280336,48.79984236],[2.33148941,48.79948939],[2.33291975,48.79942453],[2.33375901,48.79852352],[2.33755591,48.79810212],[2.3410339,48.79888763],[2.34353481,48.79780862],[2.34381027,48.79766353],[2.34495551,48.79427818],[2.34422279,48.79073141],[2.34362789,48.79106002],[2.34328957,48.78938797],[2.34090722,48.78391634],[2.33470714,48.78417429],[2.33365668,48.78436631],[2.32838435,48.78444382],[2.32763666,48.78205078],[2.32644693,48.78122471],[2.32581478,48.7819083],[2.32444404,48.78224143],[2.32511946,48.78631689],[2.32208324,48.78702013],[2.31869626,48.78799741]]]]}},{"type":"Feature","properties":{"code":"94017","nom":"Champigny-sur-Marne","departement":"94","region":"11"},"geometry":{"type":"MultiPolygon","coordinates":[[[[2.50645279,48.81036979],[2.50328214,48.8105761],[2.49723337,48.81044019],[2.49115837,48.81146137],[2.48009597,48.81347604],[2.48118788,48.81487032],[2.48221031,48.81764302],[2.48252246,48.81994856],[2.48173806,48.82007647],[2.47871673,48.8235322],[2.47820999,48.82612376],[2.47568767,48.83056188],[2.48295113,48.83152074],[2.49320393,48.83105379],[2.49764719,48.83081172],[2.50507429,48.82964474],[2.51175912,48.82915688],[2.51828276,48.82899987],[2.5215446,48.82891673],[2.52395103,48.82778414],[2.52498334,48.82720816],[2.52411535,48.82709319],[2.52407238,48.82523494],[2.52569534,48.82425838],[2.52583838,48.82350708],[2.52697331,48.8212164],[2.53476402,48.8170775],[2.53691164,48.81754451],[2.539035,48.81798621],[2.54714872,48.81992207],[2.55446343,48.81820658],[2.55736634,48.81876598],[2.56548108,48.81397424],[2.56131332,48.81081752],[2.55849207,48.80757478],[2.55437141,48.80809732],[2.55378705,48.80748626],[2.55391793,48.80714859],[2.55401226,48.80487532],[2.55260618,48.80403454],[2.551106,48.80321678],[2.5463193,48.80442546],[2.54617837,48.80450497],[2.54487702,48.80556398],[2.54353242,48.80626936],[2.54328804,48.80572161],[2.54080226,48.8059783],[2.53361134,48.80586952],[2.53332456,48.80581174],[2.5330753,48.80597355],[2.53016237,48.80602959],[2.52710657,48.80517213],[2.52573396,48.80713543],[2.52424302,48.80459416],[2.5223271,48.8041719],[2.52223461,48.80445844],[2.5204625,48.80646415],[2.50985219,48.80987293],[2.50645279,48.81036979]]]]}},{"type":"Feature","properties":{"code":"94018","nom":"Charenton-le-Pont","departement":"94","region":"11"},"geometry":{"type":"MultiPolygon","coordinates":[[[[2.41996252,48.82408007],[2.41979175,48.82131098],[2.41977456,48.82077487],[2.41970894,48.81761504],[2.41975948,48.81686701],[2.41592454,48.81624845],[2.40940041,48.81655726],[2.40018754,48.81985259],[2.39007201,48.82569233],[2.39095145,48.82608444],[2.39933693,48.82866577],[2.40102665,48.82920667],[2.40150845,48.82936198],[2.40381405,48.82905961],[2.40995515,48.82518321],[2.41787247,48.82450251],[2.41996252,48.82408007]]]]}},{"type":"Feature","properties":{"code":"94019","nom":"Chennevières-sur-Marne","departement":"94","region":"11"},"geometry":{"type":"MultiPolygon","coordinates":[[[[2.52238556,48.7820256],[2.51810901,48.78472281],[2.5186324,48.78508378],[2.51793211,48.7854551],[2.51699804,48.7863795],[2.52159047,48.79066739],[2.52347851,48.7957268],[2.52308942,48.79972031],[2.5223271,48.8041719],[2.52424302,48.80459416],[2.52573396,48.80713543],[2.52710657,48.80517213],[2.53016237,48.80602959],[2.5330753,48.80597355],[2.53332456,48.80581174],[2.53361134,48.80586952],[2.54080226,48.8059783],[2.54328804,48.80572161],[2.54353242,48.80626936],[2.54487702,48.80556398],[2.54617837,48.80450497],[2.5463193,48.80442546],[2.551106,48.80321678],[2.55260618,48.80403454],[2.55401226,48.80487532],[2.55391793,48.80714859],[2.55378705,48.80748626],[2.55437141,48.80809732],[2.55849207,48.80757478],[2.55894905,48.8066708],[2.56646264,48.80516395],[2.5691954,48.80317272],[2.57096588,48.80211692],[2.5715371,48.79887581],[2.56744069,48.79722958],[2.56162121,48.79492484],[2.55539666,48.79197255],[2.55443392,48.79265249],[2.55342085,48.79825368],[2.54737849,48.79753213],[2.5481764,48.79704318],[2.54675859,48.79367052],[2.54114677,48.79127202],[2.53902672,48.79119281],[2.53265771,48.79209894],[2.53260098,48.79205015],[2.53196297,48.79048722],[2.53055068,48.78678788],[2.52573854,48.78357153],[2.52488875,48.78392791],[2.52238556,48.7820256]]]]}},{"type":"Feature","properties":{"code":"94021","nom":"Chevilly-Larue","departement":"94","region":"11"},"geometry":{"type":"MultiPolygon","coordinates":[[[[2.36863984,48.75746311],[2.3619887,48.75694207],[2.36189739,48.75873684],[2.36010385,48.76055848],[2.35073824,48.75928291],[2.3446612,48.75734563],[2.34393274,48.75631718],[2.33785644,48.75973116],[2.33524988,48.76112249],[2.33820859,48.76307359],[2.33454854,48.76437991],[2.3326987,48.7646619],[2.33517816,48.76899746],[2.33377432,48.77078219],[2.33585827,48.77350554],[2.33787635,48.77339262],[2.33958815,48.77425565],[2.3434462,48.77348003],[2.34276623,48.77225848],[2.34570174,48.7717916],[2.34631798,48.77169604],[2.34977289,48.77114556],[2.35184063,48.77392701],[2.35354854,48.77314657],[2.35473705,48.77464064],[2.35735694,48.7758267],[2.35801779,48.77608928],[2.36737785,48.77943286],[2.36750993,48.7766202],[2.36778349,48.77189971],[2.36797729,48.76870511],[2.36805932,48.7672125],[2.36843282,48.76096978],[2.36863984,48.75746311]]]]}},{"type":"Feature","properties":{"code":"94022","nom":"Choisy-le-Roi","departement":"94","region":"11"},"geometry":{"type":"MultiPolygon","coordinates":[[[[2.41375793,48.75166965],[2.41331364,48.75247336],[2.40605509,48.75108113],[2.40532809,48.75376771],[2.40520757,48.75419794],[2.40455712,48.75660516],[2.40415671,48.75807732],[2.40358989,48.76018184],[2.40140294,48.762978],[2.40127163,48.7630394],[2.39806641,48.76586456],[2.40386541,48.76690908],[2.40138791,48.77069493],[2.39918093,48.77411961],[2.39870487,48.77480977],[2.40709046,48.77393518],[2.41187424,48.77423584],[2.41468607,48.7772267],[2.41619672,48.77709558],[2.42825251,48.77609618],[2.42752707,48.77089771],[2.4324932,48.7723074],[2.43232214,48.77102043],[2.43052743,48.77064313],[2.43159749,48.76696692],[2.43549256,48.76724442],[2.44229649,48.76180253],[2.44142497,48.76124442],[2.43388505,48.76329017],[2.42663687,48.76052136],[2.42856984,48.75258332],[2.42748069,48.75093664],[2.42457782,48.75269007],[2.42015318,48.74973922],[2.41811328,48.75288629],[2.4165944,48.75247774],[2.41375793,48.75166965]]]]}},{"type":"Feature","properties":{"code":"94028","nom":"Créteil","departement":"94","region":"11"},"geometry":{"type":"MultiPolygon","coordinates":[[[[2.44927733,48.77014642],[2.44081253,48.77180878],[2.43915764,48.77120112],[2.43549256,48.76724442],[2.43159749,48.76696692],[2.43052743,48.77064313],[2.43232214,48.77102043],[2.4324932,48.7723074],[2.42752707,48.77089771],[2.42825251,48.77609618],[2.43000673,48.78231496],[2.43338321,48.78382943],[2.43283162,48.78661855],[2.43350856,48.78670001],[2.4360261,48.78699703],[2.43571461,48.78823673],[2.43907725,48.78918973],[2.43984209,48.79528762],[2.44261614,48.79620898],[2.44544183,48.79970906],[2.44704181,48.80250637],[2.44821609,48.80347414],[2.45523296,48.80586361],[2.45746429,48.80510928],[2.4640122,48.8073504],[2.46812004,48.80456627],[2.46878621,48.80265804],[2.47010012,48.79956999],[2.47188461,48.79166955],[2.47335498,48.789218],[2.47462554,48.78767123],[2.47296076,48.78701094],[2.47690686,48.7810095],[2.47259547,48.77992476],[2.47496054,48.7776453],[2.47275932,48.77650415],[2.47363266,48.77559061],[2.47460079,48.77458484],[2.47156546,48.77291654],[2.47480317,48.76934757],[2.47736759,48.76612454],[2.47601245,48.76572106],[2.47484001,48.7652806],[2.47715229,48.76276249],[2.4735044,48.76173102],[2.47212284,48.76328181],[2.46817582,48.76237298],[2.46608554,48.76615829],[2.46587422,48.76620051],[2.46336206,48.76678556],[2.45977622,48.76619917],[2.4554829,48.76679398],[2.44927733,48.77014642]]]]}},{"type":"Feature","properties":{"code":"94033","nom":"Fontenay-sous-Bois","departement":"94","region":"11"},"geometry":{"type":"MultiPolygon","coordinates":[[[[2.44830014,48.84675842],[2.44898754,48.84669953],[2.45785052,48.84523541],[2.4579399,48.84568189],[2.45630289,48.84651266],[2.45630247,48.84955695],[2.45624833,48.84965204],[2.45345761,48.85015555],[2.45196668,48.85055254],[2.44714012,48.85116257],[2.44753576,48.8525359],[2.45036203,48.85410569],[2.45238124,48.85493515],[2.45396681,48.85540286],[2.45756887,48.85593097],[2.45758384,48.85593283],[2.45889946,48.85602423],[2.46740871,48.85662629],[2.46679619,48.86001227],[2.46790154,48.8605505],[2.48080745,48.860055],[2.48159192,48.86148744],[2.48680132,48.86067171],[2.48696903,48.86066614],[2.4910241,48.86079677],[2.49157742,48.85954725],[2.49610675,48.86066269],[2.49711322,48.85919202],[2.49488707,48.85881211],[2.49681853,48.85569325],[2.49738548,48.85597713],[2.49931258,48.85654819],[2.50000312,48.85574347],[2.497301,48.8549866],[2.49445587,48.852121],[2.49349674,48.84872731],[2.49140384,48.84828675],[2.49158461,48.84777579],[2.48760397,48.84599878],[2.48570113,48.84385017],[2.48551284,48.84318564],[2.48149726,48.84223747],[2.47986955,48.84191204],[2.47923513,48.84349573],[2.47424181,48.84047455],[2.4731574,48.84005608],[2.47257804,48.84062551],[2.47222295,48.84205392],[2.46871387,48.8409043],[2.46954742,48.83999785],[2.4673194,48.83909939],[2.46525852,48.841174],[2.46179392,48.84273053],[2.44785283,48.84486322],[2.44830014,48.84675842]]]]}},{"type":"Feature","properties":{"code":"94034","nom":"Fresnes","departement":"94","region":"11"},"geometry":{"type":"MultiPolygon","coordinates":[[[[2.32482576,48.75053074],[2.32267263,48.74811794],[2.32072071,48.74875805],[2.31679093,48.75013965],[2.31234629,48.75135177],[2.31011945,48.75219159],[2.31162515,48.75302057],[2.31101725,48.75362958],[2.3086935,48.75540963],[2.30928152,48.75599856],[2.30966822,48.75638216],[2.31323753,48.76094487],[2.31361715,48.76228631],[2.31437887,48.76209011],[2.31587804,48.76676674],[2.31886672,48.76659944],[2.32183926,48.76620621],[2.32189699,48.76448594],[2.32385444,48.76440799],[2.32340082,48.76665579],[2.32778446,48.76582338],[2.33256515,48.76457301],[2.3326987,48.7646619],[2.33454854,48.76437991],[2.33820859,48.76307359],[2.33524988,48.76112249],[2.33785644,48.75973116],[2.34393274,48.75631718],[2.34286226,48.75522927],[2.33869391,48.75032323],[2.33734336,48.74828031],[2.33216087,48.74948817],[2.33053511,48.74824593],[2.32616177,48.75145391],[2.32364423,48.75228066],[2.32482576,48.75053074]]]]}},{"type":"Feature","properties":{"code":"94037","nom":"Gentilly","departement":"94","region":"11"},"geometry":{"type":"MultiPolygon","coordinates":[[[[2.34225014,48.80856642],[2.33906189,48.81086746],[2.34025697,48.81241561],[2.33634964,48.81351642],[2.33462111,48.81354729],[2.3341369,48.8126479],[2.32906326,48.81378335],[2.33189806,48.81701093],[2.33727515,48.81655788],[2.3439025,48.815767],[2.34434444,48.81560394],[2.34860054,48.81678021],[2.35239184,48.81855101],[2.35337771,48.81779636],[2.35623202,48.81594285],[2.35380718,48.81303285],[2.35267381,48.81240344],[2.3512761,48.81167995],[2.34895481,48.80956637],[2.34625263,48.80678689],[2.34502927,48.80542661],[2.34260966,48.80661941],[2.34341922,48.80828954],[2.34225014,48.80856642]]]]}},{"type":"Feature","properties":{"code":"94038","nom":"L'Haÿ-les-Roses","departement":"94","region":"11"},"geometry":{"type":"MultiPolygon","coordinates":[[[[2.33256515,48.76457301],[2.32778446,48.76582338],[2.32340082,48.76665579],[2.32385444,48.76440799],[2.32189699,48.76448594],[2.32183926,48.76620621],[2.31886672,48.76659944],[2.31587804,48.76676674],[2.31618601,48.76704193],[2.31992041,48.7707302],[2.32130667,48.77284543],[2.32171851,48.77361407],[2.32374023,48.77658373],[2.3257248,48.77707523],[2.32661656,48.77873159],[2.3245803,48.77907447],[2.32503637,48.77990361],[2.32581478,48.7819083],[2.32644693,48.78122471],[2.32763666,48.78205078],[2.32838435,48.78444382],[2.33365668,48.78436631],[2.33470714,48.78417429],[2.34090722,48.78391634],[2.34328957,48.78938797],[2.34362789,48.79106002],[2.34422279,48.79073141],[2.34624729,48.78961465],[2.34467019,48.78545614],[2.34630416,48.78518448],[2.34782923,48.7849131],[2.34858337,48.78272355],[2.35483674,48.77879557],[2.35786235,48.77921121],[2.35808235,48.77869523],[2.35999194,48.77922983],[2.3671861,48.7808808],[2.36737785,48.77943286],[2.35801779,48.77608928],[2.35735694,48.7758267],[2.35473705,48.77464064],[2.35354854,48.77314657],[2.35184063,48.77392701],[2.34977289,48.77114556],[2.34631798,48.77169604],[2.34570174,48.7717916],[2.34276623,48.77225848],[2.3434462,48.77348003],[2.33958815,48.77425565],[2.33787635,48.77339262],[2.33585827,48.77350554],[2.33377432,48.77078219],[2.33517816,48.76899746],[2.3326987,48.7646619],[2.33256515,48.76457301]]]]}},{"type":"Feature","properties":{"code":"94041","nom":"Ivry-sur-Seine","departement":"94","region":"11"},"geometry":{"type":"MultiPolygon","coordinates":[[[[2.37028944,48.80498404],[2.36715141,48.80809195],[2.36794417,48.80885612],[2.36548328,48.80921903],[2.36422059,48.8111514],[2.36624267,48.8119446],[2.36420428,48.81639832],[2.36692725,48.8172483],[2.37576097,48.82005584],[2.37908332,48.82115779],[2.38330363,48.82304493],[2.38879986,48.82510574],[2.39007201,48.82569233],[2.40018754,48.81985259],[2.40940041,48.81655726],[2.4102703,48.81454155],[2.4090135,48.80851848],[2.40415011,48.8081184],[2.40496598,48.80427848],[2.40065139,48.80402578],[2.40013718,48.80445941],[2.39461704,48.79991573],[2.39270627,48.80044028],[2.39173792,48.79930302],[2.38689499,48.80037374],[2.3856532,48.80431569],[2.38291491,48.80341119],[2.38147603,48.80258531],[2.37941271,48.80149354],[2.37719751,48.80412084],[2.37567382,48.80595034],[2.37119554,48.80402646],[2.37028944,48.80498404]]]]}},{"type":"Feature","properties":{"code":"94042","nom":"Joinville-le-Pont","departement":"94","region":"11"},"geometry":{"type":"MultiPolygon","coordinates":[[[[2.4605919,48.80931455],[2.45717764,48.81093507],[2.45450121,48.81333952],[2.45545224,48.81394374],[2.45939673,48.81269262],[2.46419355,48.81554365],[2.46550226,48.81634275],[2.46120521,48.81835515],[2.46269606,48.81905977],[2.46571204,48.8261738],[2.46573057,48.82622605],[2.46669314,48.82613681],[2.46955493,48.8300222],[2.47086871,48.82929234],[2.47222445,48.82952677],[2.47568767,48.83056188],[2.47820999,48.82612376],[2.47871673,48.8235322],[2.48173806,48.82007647],[2.48252246,48.81994856],[2.48221031,48.81764302],[2.48118788,48.81487032],[2.48009597,48.81347604],[2.47346774,48.81540497],[2.46985782,48.81242648],[2.46863708,48.81261982],[2.46865234,48.81178976],[2.46614673,48.81059322],[2.46466543,48.81176298],[2.4605919,48.80931455]]]]}},{"type":"Feature","properties":{"code":"94043","nom":"Le Kremlin-Bicêtre","departement":"94","region":"11"},"geometry":{"type":"MultiPolygon","coordinates":[[[[2.3596184,48.80301524],[2.35823673,48.80321379],[2.35299661,48.80317835],[2.35080089,48.80226884],[2.34851074,48.80107638],[2.34781208,48.80152946],[2.34386928,48.80325451],[2.34502927,48.80542661],[2.34625263,48.80678689],[2.34895481,48.80956637],[2.3512761,48.81167995],[2.35267381,48.81240344],[2.35380718,48.81303285],[2.35623202,48.81594285],[2.35842375,48.81601399],[2.36052582,48.81606752],[2.36067829,48.81607193],[2.36420428,48.81639832],[2.36624267,48.8119446],[2.36422059,48.8111514],[2.36548328,48.80921903],[2.36794417,48.80885612],[2.36715141,48.80809195],[2.36316763,48.80705268],[2.36313505,48.80715594],[2.36137117,48.80742354],[2.35899752,48.80645119],[2.35805375,48.80602251],[2.3596184,48.80301524]]]]}},{"type":"Feature","properties":{"code":"94044","nom":"Limeil-Brévannes","departement":"94","region":"11"},"geometry":{"type":"MultiPolygon","coordinates":[[[[2.47568324,48.74147118],[2.47384168,48.74405974],[2.47348724,48.74454836],[2.4734812,48.74690034],[2.4733992,48.74896327],[2.46817582,48.76237298],[2.47212284,48.76328181],[2.4735044,48.76173102],[2.4763123,48.75997241],[2.47954784,48.76046505],[2.48340935,48.75654686],[2.48915982,48.75858449],[2.49299066,48.75927628],[2.49748997,48.75427204],[2.49837098,48.75332506],[2.50094566,48.75078509],[2.50155461,48.74897529],[2.50234494,48.7458243],[2.50453575,48.74383668],[2.51017262,48.7469027],[2.51178378,48.74477406],[2.51692924,48.73853317],[2.50861659,48.73694412],[2.5100496,48.73479227],[2.50616949,48.73588259],[2.49453615,48.73242863],[2.48463098,48.72925353],[2.47568324,48.74147118]]]]}},{"type":"Feature","properties":{"code":"94046","nom":"Maisons-Alfort","departement":"94","region":"11"},"geometry":{"type":"MultiPolygon","coordinates":[[[[2.42671217,48.80172976],[2.42556274,48.80447906],[2.42331594,48.80856405],[2.42245225,48.80970569],[2.4211414,48.81089103],[2.41613758,48.81595269],[2.41592454,48.81624845],[2.41975948,48.81686701],[2.42491858,48.81634691],[2.43113389,48.81624623],[2.44383241,48.81620075],[2.45053502,48.8158585],[2.45423176,48.81358202],[2.45450121,48.81333952],[2.45717764,48.81093507],[2.4605919,48.80931455],[2.4640122,48.8073504],[2.45746429,48.80510928],[2.45523296,48.80586361],[2.44821609,48.80347414],[2.44704181,48.80250637],[2.44544183,48.79970906],[2.44261614,48.79620898],[2.43984209,48.79528762],[2.43907725,48.78918973],[2.43571461,48.78823673],[2.4360261,48.78699703],[2.43350856,48.78670001],[2.43283162,48.78661855],[2.43142727,48.79008805],[2.4288939,48.79632497],[2.42738801,48.79994321],[2.42671217,48.80172976]]]]}},{"type":"Feature","properties":{"code":"94047","nom":"Mandres-les-Roses","departement":"94","region":"11"},"geometry":{"type":"MultiPolygon","coordinates":[[[[2.5677891,48.70900347],[2.56867084,48.70722664],[2.5616154,48.7024644],[2.55484677,48.69975265],[2.54585926,48.69947412],[2.54416557,48.69860958],[2.5413171,48.7003643],[2.53128731,48.69963183],[2.52851624,48.70374853],[2.52683901,48.70468362],[2.52913718,48.70526656],[2.52961016,48.70616519],[2.53265156,48.7054072],[2.54234953,48.71188039],[2.55240917,48.71608299],[2.55399968,48.71542246],[2.5677891,48.70900347]]]]}},{"type":"Feature","properties":{"code":"94048","nom":"Marolles-en-Brie","departement":"94","region":"11"},"geometry":{"type":"MultiPolygon","coordinates":[[[[2.54921541,48.72579844],[2.54351515,48.72531986],[2.53686782,48.7263313],[2.53768051,48.72744077],[2.53652247,48.72817381],[2.53442496,48.72951481],[2.54459755,48.73636367],[2.55263258,48.7468229],[2.54371989,48.74904043],[2.5464501,48.75195955],[2.55306844,48.75183251],[2.55726867,48.75375582],[2.55729962,48.75459689],[2.56085049,48.7530666],[2.57019516,48.7512397],[2.57341386,48.74783975],[2.57315316,48.74512526],[2.57290092,48.74387326],[2.56819022,48.74039353],[2.56874119,48.73855529],[2.56503201,48.73589212],[2.55877137,48.7362523],[2.55798428,48.73542371],[2.55344314,48.7223344],[2.54921541,48.72579844]]]]}},{"type":"Feature","properties":{"code":"94052","nom":"Nogent-sur-Marne","departement":"94","region":"11"},"geometry":{"type":"MultiPolygon","coordinates":[[[[2.46669314,48.82613681],[2.46573057,48.82622605],[2.46617832,48.82732797],[2.46523224,48.8276673],[2.46558161,48.83145608],[2.46949603,48.83447108],[2.46980324,48.83654726],[2.4673194,48.83909939],[2.46954742,48.83999785],[2.46871387,48.8409043],[2.47222295,48.84205392],[2.47257804,48.84062551],[2.4731574,48.84005608],[2.47424181,48.84047455],[2.47923513,48.84349573],[2.47986955,48.84191204],[2.48149726,48.84223747],[2.48551284,48.84318564],[2.48570113,48.84385017],[2.48760397,48.84599878],[2.49158461,48.84777579],[2.49233995,48.84563495],[2.49310357,48.84375765],[2.4942964,48.83822089],[2.49431481,48.83800872],[2.49478618,48.83548173],[2.49530514,48.83436602],[2.49764719,48.83081172],[2.49320393,48.83105379],[2.48295113,48.83152074],[2.47568767,48.83056188],[2.47222445,48.82952677],[2.47086871,48.82929234],[2.46955493,48.8300222],[2.46669314,48.82613681]]]]}},{"type":"Feature","properties":{"code":"94053","nom":"Noiseau","departement":"94","region":"11"},"geometry":{"type":"MultiPolygon","coordinates":[[[[2.55757605,48.76483502],[2.55676448,48.76427708],[2.54017869,48.76597272],[2.54056176,48.77067899],[2.53680114,48.77325565],[2.53545164,48.77703959],[2.56193503,48.7878676],[2.56382365,48.78549652],[2.56574547,48.77731813],[2.57166997,48.76710883],[2.56974422,48.7663491],[2.55926313,48.76611842],[2.55757605,48.76483502]]]]}},{"type":"Feature","properties":{"code":"94054","nom":"Orly","departement":"94","region":"11"},"geometry":{"type":"MultiPolygon","coordinates":[[[[2.40091524,48.73766556],[2.39364596,48.73752002],[2.3897829,48.73715585],[2.38921205,48.7344582],[2.38498423,48.7298718],[2.37652429,48.72762605],[2.37022057,48.72791676],[2.36933855,48.74613125],[2.37450006,48.74623305],[2.38937747,48.74961819],[2.38727084,48.75284535],[2.39696406,48.75199346],[2.39942978,48.74965568],[2.40605509,48.75108113],[2.41331364,48.75247336],[2.41375793,48.75166965],[2.4165944,48.75247774],[2.41811328,48.75288629],[2.42015318,48.74973922],[2.42457782,48.75269007],[2.42748069,48.75093664],[2.4365915,48.74509681],[2.42872846,48.74343147],[2.42223127,48.74397944],[2.41731983,48.74329718],[2.40725789,48.74193897],[2.40518102,48.74028987],[2.40275275,48.73798777],[2.40091524,48.73766556]]]]}},{"type":"Feature","properties":{"code":"94055","nom":"Ormesson-sur-Marne","departement":"94","region":"11"},"geometry":{"type":"MultiPolygon","coordinates":[[[[2.51810901,48.78472281],[2.52238556,48.7820256],[2.52488875,48.78392791],[2.52573854,48.78357153],[2.53055068,48.78678788],[2.53196297,48.79048722],[2.53260098,48.79205015],[2.53265771,48.79209894],[2.53902672,48.79119281],[2.54114677,48.79127202],[2.54675859,48.79367052],[2.5481764,48.79704318],[2.54737849,48.79753213],[2.55342085,48.79825368],[2.55443392,48.79265249],[2.55539666,48.79197255],[2.56162016,48.78824509],[2.56193503,48.7878676],[2.53545164,48.77703959],[2.53444299,48.77706984],[2.5202563,48.77677447],[2.52259966,48.77959898],[2.51973682,48.78087635],[2.51224995,48.78091707],[2.51793211,48.7854551],[2.5186324,48.78508378],[2.51810901,48.78472281]]]]}},{"type":"Feature","properties":{"code":"94056","nom":"Périgny","departement":"94","region":"11"},"geometry":{"type":"MultiPolygon","coordinates":[[[[2.57175958,48.69200365],[2.55492513,48.68847638],[2.54895252,48.68901071],[2.55107729,48.69043359],[2.54416557,48.69860958],[2.54585926,48.69947412],[2.55484677,48.69975265],[2.5616154,48.7024644],[2.56867084,48.70722664],[2.57080589,48.70391176],[2.57441815,48.70071095],[2.57884959,48.69696874],[2.57215339,48.69534657],[2.57175958,48.69200365]]]]}},{"type":"Feature","properties":{"code":"94058","nom":"Le Perreux-sur-Marne","departement":"94","region":"11"},"geometry":{"type":"MultiPolygon","coordinates":[[[[2.49310357,48.84375765],[2.49233995,48.84563495],[2.49158461,48.84777579],[2.49140384,48.84828675],[2.49349674,48.84872731],[2.49445587,48.852121],[2.497301,48.8549866],[2.50000312,48.85574347],[2.5045717,48.85730214],[2.50548436,48.85721239],[2.50856082,48.85341995],[2.51140594,48.85245222],[2.51197216,48.85252738],[2.51351333,48.85006316],[2.51137762,48.84689776],[2.51204965,48.84250539],[2.51327026,48.83932037],[2.51653267,48.83689635],[2.51765635,48.83413088],[2.51656678,48.83175038],[2.51315022,48.82985416],[2.5110927,48.82933583],[2.50391861,48.83070209],[2.50507429,48.82964474],[2.49764719,48.83081172],[2.49530514,48.83436602],[2.49478618,48.83548173],[2.49431481,48.83800872],[2.4942964,48.83822089],[2.49310357,48.84375765]]]]}},{"type":"Feature","properties":{"code":"94059","nom":"Le Plessis-Trévise","departement":"94","region":"11"},"geometry":{"type":"MultiPolygon","coordinates":[[[[2.58845759,48.7932197],[2.58621803,48.79325783],[2.57950582,48.79391973],[2.57696593,48.7937237],[2.57362555,48.79553578],[2.5715371,48.79887581],[2.57096588,48.80211692],[2.5691954,48.80317272],[2.56646264,48.80516395],[2.55894905,48.8066708],[2.55849207,48.80757478],[2.56131332,48.81081752],[2.56548108,48.81397424],[2.55736634,48.81876598],[2.55790297,48.81940471],[2.55605427,48.8209097],[2.55968045,48.82277309],[2.56729478,48.81941479],[2.56872051,48.81795937],[2.57002533,48.81497098],[2.58110068,48.81060249],[2.58285862,48.81009329],[2.59014707,48.80879193],[2.59177543,48.80724968],[2.59647491,48.80577088],[2.59145519,48.79737433],[2.58845759,48.7932197]]]]}},{"type":"Feature","properties":{"code":"94060","nom":"La Queue-en-Brie","departement":"94","region":"11"},"geometry":{"type":"MultiPolygon","coordinates":[[[[2.59988935,48.79499432],[2.59784224,48.79125051],[2.59583068,48.78980741],[2.59685248,48.78898163],[2.59408856,48.78821229],[2.58545303,48.77886494],[2.58547003,48.77706801],[2.58664698,48.77382436],[2.58967406,48.77130029],[2.59217132,48.7710732],[2.59896934,48.77353808],[2.60716616,48.77447371],[2.61352041,48.76682075],[2.61483467,48.76111017],[2.60274331,48.75897135],[2.59746726,48.76063558],[2.58732646,48.76395576],[2.57892911,48.75506995],[2.57702258,48.75500296],[2.57290254,48.75814164],[2.57312958,48.76081999],[2.57697284,48.76097398],[2.58079077,48.76496192],[2.57604757,48.76853561],[2.57166997,48.76710883],[2.56574547,48.77731813],[2.56382365,48.78549652],[2.56193503,48.7878676],[2.56162016,48.78824509],[2.55539666,48.79197255],[2.56162121,48.79492484],[2.56744069,48.79722958],[2.5715371,48.79887581],[2.57362555,48.79553578],[2.57696593,48.7937237],[2.57950582,48.79391973],[2.58621803,48.79325783],[2.58845759,48.7932197],[2.59145519,48.79737433],[2.59780667,48.79604051],[2.59988935,48.79499432]]]]}},{"type":"Feature","properties":{"code":"94065","nom":"Rungis","departement":"94","region":"11"},"geometry":{"type":"MultiPolygon","coordinates":[[[[2.35915117,48.74252602],[2.35672608,48.73813359],[2.35389322,48.73870832],[2.34894221,48.7409813],[2.34782611,48.74149509],[2.34199022,48.74034236],[2.33891723,48.74160169],[2.33638629,48.74428508],[2.33358079,48.74682837],[2.33053511,48.74824593],[2.33216087,48.74948817],[2.33734336,48.74828031],[2.33869391,48.75032323],[2.34286226,48.75522927],[2.34393274,48.75631718],[2.3446612,48.75734563],[2.35073824,48.75928291],[2.36010385,48.76055848],[2.36189739,48.75873684],[2.3619887,48.75694207],[2.36863984,48.75746311],[2.36933855,48.74613125],[2.3628922,48.74610962],[2.36288875,48.74405168],[2.36163564,48.7435404],[2.35915117,48.74252602]]]]}},{"type":"Feature","properties":{"code":"94067","nom":"Saint-Mandé","departement":"94","region":"11"},"geometry":{"type":"MultiPolygon","coordinates":[[[[2.41285203,48.83621651],[2.41404653,48.83975955],[2.4148496,48.84237881],[2.41529909,48.84384966],[2.41597111,48.84662296],[2.41598393,48.84669497],[2.41634113,48.84923378],[2.41900351,48.84939154],[2.41863854,48.84643809],[2.41954471,48.84631568],[2.42326853,48.84597395],[2.42368316,48.84593907],[2.42426418,48.84589061],[2.42822241,48.84553996],[2.42757516,48.84157071],[2.42434723,48.84195003],[2.42184799,48.84443729],[2.41985997,48.84345636],[2.41953895,48.84144924],[2.42147574,48.83709583],[2.42213864,48.83579766],[2.41979624,48.83498319],[2.41547047,48.83379386],[2.41147187,48.83392894],[2.41285203,48.83621651]]]]}},{"type":"Feature","properties":{"code":"94068","nom":"Saint-Maur-des-Fossés","departement":"94","region":"11"},"geometry":{"type":"MultiPolygon","coordinates":[[[[2.48675758,48.78416774],[2.47880024,48.78601934],[2.47462554,48.78767123],[2.47335498,48.789218],[2.47188461,48.79166955],[2.47010012,48.79956999],[2.46878621,48.80265804],[2.46812004,48.80456627],[2.4640122,48.8073504],[2.4605919,48.80931455],[2.46466543,48.81176298],[2.46614673,48.81059322],[2.46865234,48.81178976],[2.46863708,48.81261982],[2.46985782,48.81242648],[2.47346774,48.81540497],[2.48009597,48.81347604],[2.49115837,48.81146137],[2.49723337,48.81044019],[2.50328214,48.8105761],[2.50645279,48.81036979],[2.50985219,48.80987293],[2.5204625,48.80646415],[2.52223461,48.80445844],[2.5223271,48.8041719],[2.52308942,48.79972031],[2.52347851,48.7957268],[2.52159047,48.79066739],[2.51699804,48.7863795],[2.51244515,48.78478707],[2.50706681,48.78416061],[2.49535637,48.78432399],[2.48675758,48.78416774]]]]}},{"type":"Feature","properties":{"code":"94069","nom":"Saint-Maurice","departement":"94","region":"11"},"geometry":{"type":"MultiPolygon","coordinates":[[[[2.46120521,48.81835515],[2.46550226,48.81634275],[2.46419355,48.81554365],[2.45939673,48.81269262],[2.45545224,48.81394374],[2.45450121,48.81333952],[2.45423176,48.81358202],[2.45053502,48.8158585],[2.44383241,48.81620075],[2.43113389,48.81624623],[2.42491858,48.81634691],[2.41975948,48.81686701],[2.41970894,48.81761504],[2.41977456,48.82077487],[2.41979175,48.82131098],[2.41996252,48.82408007],[2.42287816,48.82413015],[2.43062808,48.82315731],[2.43428775,48.82015819],[2.43985374,48.81829121],[2.45420294,48.81711643],[2.45871708,48.81703442],[2.46120521,48.81835515]]]]}},{"type":"Feature","properties":{"code":"94070","nom":"Santeny","departement":"94","region":"11"},"geometry":{"type":"MultiPolygon","coordinates":[[[[2.59474893,48.73192858],[2.58953094,48.73015416],[2.58464836,48.72676439],[2.57844819,48.72079466],[2.57383892,48.71408823],[2.56869996,48.70896809],[2.5677891,48.70900347],[2.55399968,48.71542246],[2.55698881,48.71812563],[2.55197682,48.71958381],[2.55344314,48.7223344],[2.55798428,48.73542371],[2.55877137,48.7362523],[2.56503201,48.73589212],[2.56874119,48.73855529],[2.56819022,48.74039353],[2.57290092,48.74387326],[2.57315316,48.74512526],[2.57341386,48.74783975],[2.57019516,48.7512397],[2.57547183,48.75233428],[2.57702258,48.75500296],[2.57892911,48.75506995],[2.58732646,48.76395576],[2.59746726,48.76063558],[2.59936968,48.75541909],[2.58518451,48.74176695],[2.59142552,48.73754498],[2.59580144,48.73647877],[2.59390121,48.73550993],[2.59474893,48.73192858]]]]}},{"type":"Feature","properties":{"code":"94071","nom":"Sucy-en-Brie","departement":"94","region":"11"},"geometry":{"type":"MultiPolygon","coordinates":[[[[2.50924774,48.76137866],[2.49959782,48.76298365],[2.49687765,48.76459836],[2.49644392,48.76880038],[2.49744369,48.77306958],[2.50133905,48.77710084],[2.51024265,48.78134327],[2.51442661,48.78378512],[2.5121799,48.78389739],[2.51244515,48.78478707],[2.51699804,48.7863795],[2.51793211,48.7854551],[2.51224995,48.78091707],[2.51973682,48.78087635],[2.52259966,48.77959898],[2.5202563,48.77677447],[2.53444299,48.77706984],[2.53545164,48.77703959],[2.53680114,48.77325565],[2.54056176,48.77067899],[2.54017869,48.76597272],[2.55676448,48.76427708],[2.55757605,48.76483502],[2.55926313,48.76611842],[2.56974422,48.7663491],[2.57166997,48.76710883],[2.57604757,48.76853561],[2.58079077,48.76496192],[2.57697284,48.76097398],[2.57312958,48.76081999],[2.57290254,48.75814164],[2.57702258,48.75500296],[2.57547183,48.75233428],[2.57019516,48.7512397],[2.56085049,48.7530666],[2.55729962,48.75459689],[2.53894698,48.75539178],[2.53723703,48.75448215],[2.53293381,48.75517594],[2.52649487,48.75616602],[2.50924774,48.76137866]]]]}},{"type":"Feature","properties":{"code":"94073","nom":"Thiais","departement":"94","region":"11"},"geometry":{"type":"MultiPolygon","coordinates":[[[[2.38937747,48.74961819],[2.37450006,48.74623305],[2.36933855,48.74613125],[2.36863984,48.75746311],[2.36843282,48.76096978],[2.36805932,48.7672125],[2.36797729,48.76870511],[2.36778349,48.77189971],[2.37632206,48.77155155],[2.38361655,48.77226488],[2.39255273,48.77235562],[2.39234648,48.77335742],[2.39870487,48.77480977],[2.39918093,48.77411961],[2.40138791,48.77069493],[2.40386541,48.76690908],[2.39806641,48.76586456],[2.40127163,48.7630394],[2.40140294,48.762978],[2.40358989,48.76018184],[2.40415671,48.75807732],[2.40455712,48.75660516],[2.40520757,48.75419794],[2.40532809,48.75376771],[2.40605509,48.75108113],[2.39942978,48.74965568],[2.39696406,48.75199346],[2.38727084,48.75284535],[2.38937747,48.74961819]]]]}},{"type":"Feature","properties":{"code":"94074","nom":"Valenton","departement":"94","region":"11"},"geometry":{"type":"MultiPolygon","coordinates":[[[[2.46318679,48.73871465],[2.46230155,48.73752431],[2.45707308,48.74014048],[2.46196379,48.74721147],[2.46203802,48.74726667],[2.45931475,48.74809623],[2.45329583,48.7490573],[2.45331552,48.74912485],[2.45433922,48.75268406],[2.45343777,48.75550683],[2.44908425,48.76111],[2.44472325,48.76297859],[2.44229649,48.76180253],[2.43549256,48.76724442],[2.43915764,48.77120112],[2.44081253,48.77180878],[2.44927733,48.77014642],[2.4554829,48.76679398],[2.45977622,48.76619917],[2.46336206,48.76678556],[2.46587422,48.76620051],[2.46608554,48.76615829],[2.46817582,48.76237298],[2.4733992,48.74896327],[2.4734812,48.74690034],[2.47348724,48.74454836],[2.47384168,48.74405974],[2.47568324,48.74147118],[2.48463098,48.72925353],[2.48005742,48.72801405],[2.47532366,48.7277199],[2.47280389,48.72763684],[2.47191658,48.73861777],[2.47064024,48.73789347],[2.4657866,48.74192559],[2.46318679,48.73871465]]]]}},{"type":"Feature","properties":{"code":"94075","nom":"Villecresnes","departement":"94","region":"11"},"geometry":{"type":"MultiPolygon","coordinates":[[[[2.55698881,48.71812563],[2.55399968,48.71542246],[2.55240917,48.71608299],[2.54234953,48.71188039],[2.53265156,48.7054072],[2.52961016,48.70616519],[2.52904354,48.70630776],[2.52930979,48.70798],[2.51809245,48.71224],[2.51909923,48.71257326],[2.52063908,48.71302559],[2.51773878,48.7159533],[2.51669757,48.72212919],[2.51592326,48.72691108],[2.51575886,48.72909965],[2.5100496,48.73479227],[2.50861659,48.73694412],[2.51692924,48.73853317],[2.52245028,48.73212353],[2.5308153,48.72738879],[2.53652247,48.72817381],[2.53768051,48.72744077],[2.53686782,48.7263313],[2.54351515,48.72531986],[2.54921541,48.72579844],[2.55344314,48.7223344],[2.55197682,48.71958381],[2.55698881,48.71812563]]]]}},{"type":"Feature","properties":{"code":"94076","nom":"Villejuif","departement":"94","region":"11"},"geometry":{"type":"MultiPolygon","coordinates":[[[[2.35808235,48.77869523],[2.35786235,48.77921121],[2.35483674,48.77879557],[2.34858337,48.78272355],[2.34782923,48.7849131],[2.34630416,48.78518448],[2.34467019,48.78545614],[2.34624729,48.78961465],[2.34422279,48.79073141],[2.34495551,48.79427818],[2.34381027,48.79766353],[2.34522613,48.79690321],[2.34599231,48.79714215],[2.34524514,48.79777483],[2.34674407,48.79820755],[2.34772768,48.79902418],[2.34606184,48.79963206],[2.34781208,48.80152946],[2.34851074,48.80107638],[2.35080089,48.80226884],[2.35299661,48.80317835],[2.35823673,48.80321379],[2.3596184,48.80301524],[2.35805375,48.80602251],[2.35899752,48.80645119],[2.36137117,48.80742354],[2.36313505,48.80715594],[2.36316763,48.80705268],[2.36715141,48.80809195],[2.37028944,48.80498404],[2.37119554,48.80402646],[2.37306538,48.80251901],[2.36991255,48.80079178],[2.37093421,48.79972958],[2.36982307,48.79918319],[2.37196722,48.79715555],[2.37028651,48.79654321],[2.37420505,48.79002875],[2.37531646,48.78860811],[2.37686991,48.78663933],[2.37171807,48.78347972],[2.36950037,48.78240314],[2.37092003,48.78069815],[2.36737785,48.77943286],[2.3671861,48.7808808],[2.35999194,48.77922983],[2.35808235,48.77869523]]]]}},{"type":"Feature","properties":{"code":"94077","nom":"Villeneuve-le-Roi","departement":"94","region":"11"},"geometry":{"type":"MultiPolygon","coordinates":[[[[2.38498423,48.7298718],[2.38921205,48.7344582],[2.3897829,48.73715585],[2.39364596,48.73752002],[2.40091524,48.73766556],[2.40275275,48.73798777],[2.40518102,48.74028987],[2.40725789,48.74193897],[2.41731983,48.74329718],[2.42223127,48.74397944],[2.42872846,48.74343147],[2.4365915,48.74509681],[2.44432649,48.73673143],[2.44484981,48.73124908],[2.44397281,48.72805827],[2.44277691,48.72660818],[2.43971931,48.72534274],[2.4350105,48.72429247],[2.43410677,48.72664744],[2.42602743,48.72822427],[2.4243648,48.72920025],[2.42372449,48.72857834],[2.41871288,48.72871774],[2.41089245,48.7260737],[2.38291612,48.72056079],[2.37496812,48.71974139],[2.37076285,48.72003141],[2.37022057,48.72791676],[2.37652429,48.72762605],[2.38498423,48.7298718]]]]}},{"type":"Feature","properties":{"code":"94078","nom":"Villeneuve-Saint-Georges","departement":"94","region":"11"},"geometry":{"type":"MultiPolygon","coordinates":[[[[2.44397281,48.72805827],[2.44484981,48.73124908],[2.44432649,48.73673143],[2.4365915,48.74509681],[2.42748069,48.75093664],[2.42856984,48.75258332],[2.42663687,48.76052136],[2.43388505,48.76329017],[2.44142497,48.76124442],[2.44229649,48.76180253],[2.44472325,48.76297859],[2.44908425,48.76111],[2.45343777,48.75550683],[2.45433922,48.75268406],[2.45331552,48.74912485],[2.45329583,48.7490573],[2.45931475,48.74809623],[2.46203802,48.74726667],[2.46196379,48.74721147],[2.45707308,48.74014048],[2.46230155,48.73752431],[2.46318679,48.73871465],[2.4657866,48.74192559],[2.47064024,48.73789347],[2.47191658,48.73861777],[2.47280389,48.72763684],[2.47279959,48.72752439],[2.46489899,48.72715194],[2.46010679,48.72489884],[2.45246178,48.72366325],[2.45180287,48.72310436],[2.45659379,48.72203254],[2.45417419,48.72045736],[2.44818943,48.72233757],[2.4484853,48.71864939],[2.45081582,48.71496609],[2.45114812,48.71490465],[2.45096625,48.71436145],[2.44836243,48.71509418],[2.4429969,48.72063867],[2.44295354,48.72062588],[2.43971931,48.72534274],[2.44277691,48.72660818],[2.44397281,48.72805827]]]]}},{"type":"Feature","properties":{"code":"94079","nom":"Villiers-sur-Marne","departement":"94","region":"11"},"geometry":{"type":"MultiPolygon","coordinates":[[[[2.56061341,48.82875637],[2.56130906,48.8265402],[2.56916836,48.82408384],[2.57099879,48.82261547],[2.56872051,48.81795937],[2.56729478,48.81941479],[2.55968045,48.82277309],[2.55605427,48.8209097],[2.55790297,48.81940471],[2.55736634,48.81876598],[2.55446343,48.81820658],[2.54714872,48.81992207],[2.539035,48.81798621],[2.53691164,48.81754451],[2.53476402,48.8170775],[2.52697331,48.8212164],[2.52583838,48.82350708],[2.52569534,48.82425838],[2.52407238,48.82523494],[2.52411535,48.82709319],[2.52498334,48.82720816],[2.53189979,48.82923651],[2.53362781,48.83174077],[2.53438752,48.83499221],[2.53648653,48.83733058],[2.53569888,48.83826915],[2.53666653,48.83853911],[2.53807361,48.83688345],[2.54413769,48.83500548],[2.54702938,48.83601205],[2.54744991,48.83559185],[2.54737521,48.8341535],[2.54916413,48.8350758],[2.55274447,48.83236509],[2.55676661,48.8316417],[2.55812886,48.83003509],[2.56059387,48.82881205],[2.56061341,48.82875637]]]]}},{"type":"Feature","properties":{"code":"94080","nom":"Vincennes","departement":"94","region":"11"},"geometry":{"type":"MultiPolygon","coordinates":[[[[2.42757516,48.84157071],[2.42822241,48.84553996],[2.42426418,48.84589061],[2.42368316,48.84593907],[2.42326853,48.84597395],[2.41954471,48.84631568],[2.41863854,48.84643809],[2.41900351,48.84939154],[2.42103279,48.84925388],[2.42202016,48.84918581],[2.42488252,48.84900444],[2.42931149,48.84874505],[2.42957639,48.85106124],[2.4345776,48.85082687],[2.43523285,48.85336342],[2.43877027,48.85303022],[2.43882345,48.85302777],[2.44206247,48.8529395],[2.44329154,48.85257559],[2.44247292,48.85189817],[2.44476389,48.85176043],[2.44714012,48.85116257],[2.45196668,48.85055254],[2.45345761,48.85015555],[2.45624833,48.84965204],[2.45630247,48.84955695],[2.45630289,48.84651266],[2.4579399,48.84568189],[2.45785052,48.84523541],[2.44898754,48.84669953],[2.44830014,48.84675842],[2.44785283,48.84486322],[2.44649728,48.84496758],[2.44664649,48.84580197],[2.44075815,48.84596435],[2.44051971,48.84443973],[2.43795832,48.84466425],[2.4371842,48.84089322],[2.43153295,48.84122804],[2.42757516,48.84157071]]]]}},{"type":"Feature","properties":{"code":"94081","nom":"Vitry-sur-Seine","departement":"94","region":"11"},"geometry":{"type":"MultiPolygon","coordinates":[[[[2.37092003,48.78069815],[2.36950037,48.78240314],[2.37171807,48.78347972],[2.37686991,48.78663933],[2.37531646,48.78860811],[2.37420505,48.79002875],[2.37028651,48.79654321],[2.37196722,48.79715555],[2.36982307,48.79918319],[2.37093421,48.79972958],[2.36991255,48.80079178],[2.37306538,48.80251901],[2.37119554,48.80402646],[2.37567382,48.80595034],[2.37719751,48.80412084],[2.37941271,48.80149354],[2.38147603,48.80258531],[2.38291491,48.80341119],[2.3856532,48.80431569],[2.38689499,48.80037374],[2.39173792,48.79930302],[2.39270627,48.80044028],[2.39461704,48.79991573],[2.40013718,48.80445941],[2.40065139,48.80402578],[2.40496598,48.80427848],[2.40415011,48.8081184],[2.4090135,48.80851848],[2.40930534,48.80607449],[2.41101192,48.80374091],[2.41883722,48.79733958],[2.42162164,48.79447862],[2.42282832,48.79110452],[2.42201703,48.78791044],[2.41732784,48.78072931],[2.41468607,48.7772267],[2.41187424,48.77423584],[2.40709046,48.77393518],[2.39870487,48.77480977],[2.39234648,48.77335742],[2.39255273,48.77235562],[2.38361655,48.77226488],[2.37632206,48.77155155],[2.36778349,48.77189971],[2.36750993,48.7766202],[2.36737785,48.77943286],[2.37092003,48.78069815]]]]}}]}