{"type":"FeatureCollection","features":[{"type":"Feature","properties":{"code":"97201","nom":"L'Ajoupa-Bouillon","departement":"972","region":"02"},"geometry":{"type":"MultiPolygon","coordinates":[[[[-61.16352448,14.81563152],[-61.14826677,14.8094643],[-61.14391043,14.81117252],[-61.14009738,14.81376074],[-61.13784641,14.81627838],[-61.12572473,14.82468216],[-61.10433179,14.83274146],[-61.09714092,14.83140515],[-61.09829112,14.83054259],[-61.09930313,14.82816248],[-61.10040868,14.822725],[-61.10081317,14.81927077],[-61.09922846,14.81532297],[-61.10784586,14.80775763],[-61.11844525,14.80111904],[-61.1266987,14.79891253],[-61.13855278,14.79991591],[-61.14489622,14.8023059],[-61.14857799,14.80595945],[-61.15377975,14.80542823],[-61.16031993,14.80799472],[-61.16232521,14.80890904],[-61.16385105,14.81248372],[-61.16352448,14.81563152]]]]}},{"type":"Feature","properties":{"code":"97202","nom":"Les Anses-d'Arlet","departement":"972","region":"02"},"geometry":{"type":"MultiPolygon","coordinates":[[[[-61.05336551,14.45570275],[-61.05553229,14.4539512],[-61.06214003,14.45554288],[-61.07663218,14.46764589],[-61.07944437,14.47205008],[-61.08148206,14.47701095],[-61.07917462,14.48130374],[-61.07926673,14.48827305],[-61.08391301,14.50141307],[-61.08860571,14.50476616],[-61.10010826,14.51018881],[-61.09722407,14.51867398],[-61.09436102,14.52357691],[-61.08873749,14.53047078],[-61.07942853,14.53898265],[-61.07479034,14.54106106],[-61.07388955,14.54073284],[-61.07154468,14.53201444],[-61.06630764,14.52284655],[-61.05894321,14.50652445],[-61.05642605,14.50627136],[-61.05506494,14.50566997],[-61.05011138,14.49805947],[-61.05414892,14.48734161],[-61.05486682,14.47851113],[-61.05435129,14.45964925],[-61.05336551,14.45570275]]]]}},{"type":"Feature","properties":{"code":"97203","nom":"Basse-Pointe","departement":"972","region":"02"},"geometry":{"type":"MultiPolygon","coordinates":[[[[-61.09714092,14.83140515],[-61.10433179,14.83274146],[-61.12572473,14.82468216],[-61.13784641,14.81627838],[-61.14009738,14.81376074],[-61.14391043,14.81117252],[-61.14826677,14.8094643],[-61.16352448,14.81563152],[-61.16399755,14.81615584],[-61.15907882,14.82295779],[-61.1569194,14.82773026],[-61.14934929,14.83337109],[-61.14441469,14.83942512],[-61.13594926,14.85653809],[-61.12900556,14.86564437],[-61.12546202,14.87357624],[-61.12062857,14.87044331],[-61.10758425,14.86657037],[-61.08342257,14.85237622],[-61.09002481,14.84653821],[-61.09334291,14.83578465],[-61.09517442,14.83287004],[-61.09714092,14.83140515]]]]}},{"type":"Feature","properties":{"code":"97204","nom":"Le Carbet","departement":"972","region":"02"},"geometry":{"type":"MultiPolygon","coordinates":[[[[-61.12167123,14.71924246],[-61.12201472,14.71870754],[-61.1239001,14.71887012],[-61.12572272,14.71974883],[-61.1334691,14.71913993],[-61.1569371,14.71393438],[-61.15794675,14.71179061],[-61.1586465,14.70286364],[-61.1542811,14.69365421],[-61.15837809,14.68957838],[-61.16621853,14.6763365],[-61.16778548,14.67523726],[-61.168276,14.67698084],[-61.17577835,14.68759745],[-61.17950795,14.69430814],[-61.18461054,14.70859843],[-61.18427817,14.71274765],[-61.17898085,14.73266436],[-61.16221913,14.72882654],[-61.15589179,14.73345665],[-61.15375365,14.73439666],[-61.14717554,14.72833789],[-61.13923594,14.72585131],[-61.12279192,14.71913949],[-61.12167123,14.71924246]]]]}},{"type":"Feature","properties":{"code":"97205","nom":"Case-Pilote","departement":"972","region":"02"},"geometry":{"type":"MultiPolygon","coordinates":[[[[-61.1178756,14.62802445],[-61.1333655,14.6330654],[-61.13638988,14.6349974],[-61.14478038,14.64617764],[-61.15397494,14.65577437],[-61.143511,14.6597931],[-61.13186811,14.66727577],[-61.12923518,14.67320201],[-61.12758421,14.68262992],[-61.12415044,14.69021425],[-61.11586272,14.69062968],[-61.11137955,14.68316016],[-61.10914817,14.68149],[-61.10648293,14.67554624],[-61.10662645,14.66987027],[-61.10757503,14.66578326],[-61.10885385,14.65717582],[-61.11175877,14.64792005],[-61.11557184,14.6427139],[-61.11719981,14.63880944],[-61.11845437,14.63101141],[-61.11749505,14.62878773],[-61.1178756,14.62802445]]]]}},{"type":"Feature","properties":{"code":"97206","nom":"Le Diamant","departement":"972","region":"02"},"geometry":{"type":"MultiPolygon","coordinates":[[[[-61.05642605,14.50627136],[-61.04957498,14.50804994],[-61.04116747,14.50896585],[-61.01646638,14.50688411],[-61.01136433,14.50723313],[-61.00383045,14.50889519],[-61.0045328,14.50297484],[-60.99725845,14.50260745],[-60.99125638,14.50567654],[-60.98523858,14.50328988],[-60.98308986,14.50129691],[-60.9834657,14.49573987],[-60.98092312,14.49505021],[-60.97955022,14.49138397],[-60.98042082,14.48681167],[-60.98350432,14.486136],[-60.98447563,14.47368362],[-60.99120794,14.4664576],[-60.99662786,14.46850817],[-61.00026807,14.47191529],[-61.00309326,14.47883708],[-61.00461563,14.47910304],[-61.00684378,14.476879],[-61.00659311,14.47794683],[-61.00452943,14.47930383],[-61.00684982,14.48347231],[-61.00789097,14.48237594],[-61.00821194,14.48060292],[-61.00631079,14.47154908],[-61.00778328,14.47147571],[-61.00921205,14.47235354],[-61.01876965,14.48088553],[-61.02764388,14.47888167],[-61.03625743,14.47571041],[-61.04338137,14.47136335],[-61.05188799,14.45636198],[-61.05336551,14.45570275],[-61.05435129,14.45964925],[-61.05486682,14.47851113],[-61.05414892,14.48734161],[-61.05011138,14.49805947],[-61.05506494,14.50566997],[-61.05642605,14.50627136]]]]}},{"type":"Feature","properties":{"code":"97207","nom":"Ducos","departement":"972","region":"02"},"geometry":{"type":"MultiPolygon","coordinates":[[[[-60.94297884,14.57153451],[-60.94708021,14.57149015],[-60.94983398,14.57008656],[-60.95270953,14.56624053],[-60.95615546,14.55767334],[-60.95387807,14.55532834],[-60.95573592,14.5538653],[-60.96698883,14.5491857],[-60.9753391,14.54738841],[-60.97750794,14.54822678],[-60.97661908,14.55190062],[-60.9764432,14.55094122],[-60.97420992,14.5529958],[-60.97623988,14.5548252],[-60.98820284,14.55775956],[-60.99124261,14.56428035],[-60.99139735,14.57280508],[-60.99546201,14.57231946],[-61.00090644,14.56544486],[-61.00191344,14.5621144],[-61.00219519,14.56462088],[-61.00086808,14.56908363],[-60.99508869,14.57943266],[-60.99068295,14.58497675],[-60.98186028,14.59355324],[-60.97640967,14.59608509],[-60.9742082,14.59967701],[-60.9725756,14.60497814],[-60.96414611,14.60808015],[-60.95616156,14.60970735],[-60.94720995,14.60743829],[-60.94715883,14.60604713],[-60.94249724,14.60200292],[-60.94027634,14.60313365],[-60.93872002,14.60255242],[-60.93726842,14.60059315],[-60.93779023,14.59757238],[-60.9350575,14.59468729],[-60.93480087,14.58827822],[-60.93594477,14.58809948],[-60.93670785,14.58905595],[-60.94007526,14.58136406],[-60.94405329,14.57543235],[-60.94250488,14.57561571],[-60.94297884,14.57153451]]]]}},{"type":"Feature","properties":{"code":"97208","nom":"Fonds-Saint-Denis","departement":"972","region":"02"},"geometry":{"type":"MultiPolygon","coordinates":[[[[-61.15589179,14.73345665],[-61.15982831,14.73542831],[-61.16110131,14.74164077],[-61.16047293,14.74447802],[-61.15749764,14.7458994],[-61.14111312,14.74461692],[-61.13326278,14.74641986],[-61.13101254,14.74763075],[-61.12874734,14.74743801],[-61.11726446,14.74064825],[-61.10544274,14.73543763],[-61.10118413,14.73469873],[-61.09439045,14.74101671],[-61.0874702,14.74296129],[-61.08613031,14.73550913],[-61.08515054,14.73361048],[-61.07879271,14.7271361],[-61.08464802,14.72491362],[-61.08600989,14.72366964],[-61.08684566,14.72014668],[-61.08384032,14.70799235],[-61.08464959,14.70845812],[-61.09044671,14.70752453],[-61.1006358,14.69570187],[-61.10674617,14.69974714],[-61.11325248,14.70268936],[-61.1133965,14.70440578],[-61.11851557,14.71627073],[-61.12167123,14.71924246],[-61.12279192,14.71913949],[-61.13923594,14.72585131],[-61.14717554,14.72833789],[-61.15375365,14.73439666],[-61.15589179,14.73345665]]]]}},{"type":"Feature","properties":{"code":"97209","nom":"Fort-de-France","departement":"972","region":"02"},"geometry":{"type":"MultiPolygon","coordinates":[[[[-61.08769965,14.60941345],[-61.08770568,14.61064797],[-61.08644111,14.61264203],[-61.08397262,14.61701378],[-61.08187352,14.62179972],[-61.08292546,14.6274204],[-61.08195876,14.63453185],[-61.08250721,14.63828133],[-61.08401086,14.64084487],[-61.0869496,14.64404197],[-61.08908165,14.65164793],[-61.08863046,14.65593865],[-61.09286215,14.6547805],[-61.09425094,14.6561601],[-61.09737304,14.66428383],[-61.09850901,14.67054772],[-61.09859145,14.67647946],[-61.10163296,14.68666749],[-61.1006358,14.69570187],[-61.09044671,14.70752453],[-61.08464959,14.70845812],[-61.08384032,14.70799235],[-61.08368588,14.70717684],[-61.07651036,14.70255733],[-61.07417474,14.70315607],[-61.0749564,14.70147084],[-61.08154828,14.69700516],[-61.08483869,14.69273163],[-61.08266405,14.68627568],[-61.07988043,14.68227638],[-61.08217713,14.6772771],[-61.0822168,14.67347012],[-61.07940149,14.67279981],[-61.0745325,14.6701469],[-61.0698652,14.6652544],[-61.05964735,14.65612332],[-61.0580556,14.65441832],[-61.05935901,14.6514461],[-61.05872693,14.65081005],[-61.05557868,14.6502569],[-61.05252069,14.6487348],[-61.05217899,14.64780294],[-61.05262012,14.64725087],[-61.05169243,14.64624814],[-61.04933735,14.64575396],[-61.04916953,14.64625862],[-61.0442422,14.64705045],[-61.04284335,14.64339683],[-61.04101315,14.64254371],[-61.03945197,14.64264895],[-61.03515173,14.63608808],[-61.03505996,14.6329479],[-61.03436149,14.63165154],[-61.03523351,14.61813435],[-61.036636,14.61383016],[-61.03672087,14.60897536],[-61.0401019,14.59732272],[-61.0441454,14.59445218],[-61.04818461,14.59279518],[-61.05265539,14.59776851],[-61.05397268,14.59771353],[-61.05543103,14.59491157],[-61.05713284,14.5948164],[-61.05836019,14.59454014],[-61.05806281,14.59289655],[-61.06055634,14.59468763],[-61.05996091,14.59623794],[-61.06101819,14.59705102],[-61.0593426,14.60219541],[-61.0614401,14.60015964],[-61.06464381,14.60140262],[-61.06517614,14.60345843],[-61.06616658,14.60279249],[-61.0740307,14.60181828],[-61.09182701,14.59851053],[-61.09059991,14.60026273],[-61.08949558,14.60520603],[-61.08800138,14.60725335],[-61.08769965,14.60941345]]]]}},{"type":"Feature","properties":{"code":"97210","nom":"Le François","departement":"972","region":"02"},"geometry":{"type":"MultiPolygon","coordinates":[[[[-60.90609857,14.57151606],[-60.9103659,14.57590612],[-60.91753092,14.57971745],[-60.92345019,14.57945839],[-60.93048581,14.58067477],[-60.93594477,14.58809948],[-60.93480087,14.58827822],[-60.9350575,14.59468729],[-60.93779023,14.59757238],[-60.93726842,14.60059315],[-60.93872002,14.60255242],[-60.94027634,14.60313365],[-60.94249724,14.60200292],[-60.94715883,14.60604713],[-60.94720995,14.60743829],[-60.94608052,14.61224205],[-60.94757957,14.61510444],[-60.94897607,14.62081872],[-60.94952287,14.62649661],[-60.94899765,14.62649018],[-60.94770128,14.62627815],[-60.94642922,14.62884051],[-60.94656678,14.63021526],[-60.94922226,14.63378185],[-60.9486068,14.63439542],[-60.94278794,14.63456999],[-60.93875144,14.63330624],[-60.93324487,14.63254536],[-60.92704448,14.63432009],[-60.91263905,14.65362924],[-60.9034717,14.65558533],[-60.89493742,14.65344165],[-60.89399979,14.64996599],[-60.89930449,14.65283957],[-60.90158577,14.65245897],[-60.9044761,14.64854163],[-60.90332907,14.64589273],[-60.89606682,14.64149252],[-60.89372453,14.6373879],[-60.89623468,14.62095755],[-60.89556362,14.62077528],[-60.8941689,14.61950304],[-60.89170804,14.61977537],[-60.88714816,14.61770726],[-60.88719931,14.61594929],[-60.88621749,14.61517503],[-60.8831143,14.61692427],[-60.88407258,14.61918658],[-60.88545226,14.61785363],[-60.88431398,14.61936769],[-60.87947421,14.62017309],[-60.87678259,14.62166844],[-60.87013319,14.617659],[-60.87629725,14.61423366],[-60.87908598,14.61150485],[-60.87868795,14.61082171],[-60.87434428,14.6081129],[-60.87016385,14.60127964],[-60.87201144,14.5959598],[-60.86789507,14.59030452],[-60.86132243,14.58892876],[-60.85673066,14.59054295],[-60.85111764,14.59058803],[-60.84999419,14.58541002],[-60.85630541,14.58117866],[-60.86102782,14.58052437],[-60.8662224,14.5780463],[-60.8814921,14.5739916],[-60.8914712,14.56885443],[-60.89092974,14.56491338],[-60.8964737,14.56309373],[-60.89949585,14.56637936],[-60.90111448,14.56984574],[-60.90114785,14.5705355],[-60.90528159,14.57068735],[-60.90609857,14.57151606]]]]}},{"type":"Feature","properties":{"code":"97211","nom":"Grand'Rivière","departement":"972","region":"02"},"geometry":{"type":"MultiPolygon","coordinates":[[[[-61.16652142,14.81738334],[-61.17997616,14.82355509],[-61.19099679,14.83385608],[-61.18968151,14.84432099],[-61.19876083,14.85259561],[-61.20220893,14.85752634],[-61.20404482,14.86169884],[-61.19725298,14.8638887],[-61.18955608,14.86807389],[-61.18115048,14.87496257],[-61.17403639,14.87474068],[-61.1661876,14.87701602],[-61.16573411,14.8671238],[-61.16704824,14.85266739],[-61.16448259,14.83950217],[-61.16652142,14.81738334]]]]}},{"type":"Feature","properties":{"code":"97212","nom":"Gros-Morne","departement":"972","region":"02"},"geometry":{"type":"MultiPolygon","coordinates":[[[[-60.99344171,14.67391297],[-60.99447456,14.67303179],[-60.99509902,14.6747939],[-60.9982439,14.67735942],[-61.01149194,14.68358749],[-61.01572302,14.68515723],[-61.0165171,14.68501491],[-61.02042931,14.69056072],[-61.02480449,14.69357653],[-61.03046902,14.69579894],[-61.03539486,14.69488462],[-61.03662906,14.69380343],[-61.04468479,14.69670814],[-61.06840202,14.70850491],[-61.07836604,14.71584807],[-61.08432735,14.72303759],[-61.08464802,14.72491362],[-61.07879271,14.7271361],[-61.06307696,14.73567334],[-61.05446477,14.73846487],[-61.0523918,14.74383429],[-61.04863745,14.74216878],[-61.03996616,14.74041732],[-61.03166021,14.73667696],[-61.02187559,14.73528138],[-61.02045127,14.73383416],[-61.01777762,14.73326004],[-61.01529138,14.73096148],[-61.01370553,14.72962039],[-61.01246442,14.73009771],[-61.00317605,14.72932284],[-60.99880401,14.72796393],[-60.99369223,14.72292878],[-60.9907494,14.72176374],[-60.98517054,14.71747984],[-60.98083554,14.70870467],[-60.97815611,14.70578329],[-60.97654739,14.70011782],[-60.97722626,14.69807697],[-60.97967911,14.69221014],[-60.98729278,14.69075908],[-60.98900322,14.68908859],[-60.98951701,14.68833126],[-60.98933676,14.68367766],[-60.99331081,14.67747769],[-60.99344171,14.67391297]]]]}},{"type":"Feature","properties":{"code":"97213","nom":"Le Lamentin","departement":"972","region":"02"},"geometry":{"type":"MultiPolygon","coordinates":[[[[-61.00939707,14.61270904],[-61.01707313,14.61536078],[-61.02401708,14.61438865],[-61.03672087,14.60897536],[-61.036636,14.61383016],[-61.03523351,14.61813435],[-61.03436149,14.63165154],[-61.03505996,14.6329479],[-61.03515173,14.63608808],[-61.03945197,14.64264895],[-61.03942565,14.64362561],[-61.03623382,14.64569434],[-61.02459038,14.64967769],[-61.02439385,14.64902898],[-61.02265096,14.6503471],[-61.01944526,14.65104096],[-61.01634842,14.64891804],[-61.01477508,14.65335882],[-61.00351233,14.65438476],[-60.99594884,14.65801659],[-60.99624734,14.66469272],[-60.99447456,14.67303179],[-60.99344171,14.67391297],[-60.99331081,14.67747769],[-60.98933676,14.68367766],[-60.98859428,14.68406522],[-60.98569638,14.6785585],[-60.97924592,14.67216422],[-60.97533746,14.66646427],[-60.9699332,14.66163861],[-60.95890221,14.65243596],[-60.95583574,14.6485116],[-60.95126875,14.63697437],[-60.95065702,14.63358755],[-60.94922226,14.63378185],[-60.94656678,14.63021526],[-60.94642922,14.62884051],[-60.94770128,14.62627815],[-60.94899765,14.62649018],[-60.94952287,14.62649661],[-60.94897607,14.62081872],[-60.94757957,14.61510444],[-60.94608052,14.61224205],[-60.94720995,14.60743829],[-60.95616156,14.60970735],[-60.96414611,14.60808015],[-60.9725756,14.60497814],[-60.9742082,14.59967701],[-60.97640967,14.59608509],[-60.98186028,14.59355324],[-60.99068295,14.58497675],[-60.99508869,14.57943266],[-61.00086808,14.56908363],[-61.00219519,14.56462088],[-61.00191344,14.5621144],[-61.00473811,14.5672262],[-61.0028675,14.57424171],[-61.0051944,14.58157954],[-61.01281791,14.58810401],[-61.01033029,14.592528],[-61.00790488,14.59363781],[-61.00637833,14.59539779],[-61.00621089,14.59832697],[-61.00351971,14.59844041],[-61.00307629,14.59904027],[-61.00346383,14.60031325],[-61.00662429,14.59930737],[-61.00274844,14.60081951],[-61.00181101,14.60217512],[-61.0136841,14.60191143],[-61.01053529,14.60471581],[-61.00890978,14.60952395],[-61.00972586,14.61020505],[-61.02006315,14.60635935],[-61.00772325,14.61153894],[-61.00939707,14.61270904]]]]}},{"type":"Feature","properties":{"code":"97214","nom":"Le Lorrain","departement":"972","region":"02"},"geometry":{"type":"MultiPolygon","coordinates":[[[[-61.04449166,14.83617055],[-61.04160087,14.83521606],[-61.03985673,14.83186123],[-61.04595101,14.823142],[-61.05342161,14.7980649],[-61.0572415,14.7729512],[-61.06486872,14.7524265],[-61.07180809,14.7499415],[-61.07770609,14.74917549],[-61.08591523,14.74652166],[-61.08830312,14.75785486],[-61.08710082,14.76110817],[-61.08684952,14.76732896],[-61.09990721,14.78101585],[-61.10825236,14.79334052],[-61.10722321,14.80640057],[-61.10784586,14.80775763],[-61.09922846,14.81532297],[-61.10081317,14.81927077],[-61.10040868,14.822725],[-61.09930313,14.82816248],[-61.09829112,14.83054259],[-61.09714092,14.83140515],[-61.09517442,14.83287004],[-61.09334291,14.83578465],[-61.09002481,14.84653821],[-61.08342257,14.85237622],[-61.07760633,14.84641207],[-61.06145592,14.83712118],[-61.05457959,14.83305347],[-61.0512094,14.83251798],[-61.04848561,14.83334976],[-61.04449166,14.83617055]]]]}},{"type":"Feature","properties":{"code":"97215","nom":"Macouba","departement":"972","region":"02"},"geometry":{"type":"MultiPolygon","coordinates":[[[[-61.16399755,14.81615584],[-61.16652142,14.81738334],[-61.16448259,14.83950217],[-61.16704824,14.85266739],[-61.16573411,14.8671238],[-61.1661876,14.87701602],[-61.15211341,14.87747964],[-61.13784565,14.87679129],[-61.12546202,14.87357624],[-61.12900556,14.86564437],[-61.13594926,14.85653809],[-61.14441469,14.83942512],[-61.14934929,14.83337109],[-61.1569194,14.82773026],[-61.15907882,14.82295779],[-61.16399755,14.81615584]]]]}},{"type":"Feature","properties":{"code":"97216","nom":"Le Marigot","departement":"972","region":"02"},"geometry":{"type":"MultiPolygon","coordinates":[[[[-61.0523918,14.74383429],[-61.05446477,14.73846487],[-61.06307696,14.73567334],[-61.07879271,14.7271361],[-61.08515054,14.73361048],[-61.08613031,14.73550913],[-61.0874702,14.74296129],[-61.08591523,14.74652166],[-61.07770609,14.74917549],[-61.07180809,14.7499415],[-61.06486872,14.7524265],[-61.0572415,14.7729512],[-61.05342161,14.7980649],[-61.04595101,14.823142],[-61.03985673,14.83186123],[-61.024429,14.82238351],[-61.02084531,14.81255699],[-61.01857688,14.80970901],[-61.03530459,14.79705901],[-61.04594798,14.78637041],[-61.04365101,14.77549414],[-61.05023672,14.76819932],[-61.05425243,14.75682146],[-61.05303883,14.74479674],[-61.0523918,14.74383429]]]]}},{"type":"Feature","properties":{"code":"97217","nom":"Le Marin","departement":"972","region":"02"},"geometry":{"type":"MultiPolygon","coordinates":[[[[-60.85990157,14.4661547],[-60.86430989,14.46637367],[-60.86856712,14.46998969],[-60.87808447,14.47078417],[-60.87886189,14.46880051],[-60.88325933,14.46626661],[-60.88918301,14.45991043],[-60.89522372,14.45103488],[-60.89941161,14.44814631],[-60.9074698,14.45745137],[-60.90352223,14.45784186],[-60.90139851,14.45953622],[-60.90009512,14.46156228],[-60.89904215,14.46555415],[-60.90092846,14.46890177],[-60.89751206,14.47136166],[-60.89520601,14.47211363],[-60.89102396,14.47844943],[-60.8902512,14.48122114],[-60.88243377,14.49248403],[-60.87751381,14.49577578],[-60.87316596,14.50071987],[-60.8732711,14.50272594],[-60.86474352,14.51232527],[-60.86453628,14.51526824],[-60.86445151,14.51646655],[-60.85961497,14.51611253],[-60.85422277,14.50758836],[-60.84497923,14.50299108],[-60.8313787,14.50118062],[-60.82360904,14.49864735],[-60.8223445,14.49403907],[-60.82025803,14.49278],[-60.81500931,14.487429],[-60.81084118,14.48047599],[-60.81171692,14.47751316],[-60.81364956,14.47485925],[-60.81598056,14.47328337],[-60.82448108,14.47132999],[-60.83949943,14.47257173],[-60.84726838,14.47194177],[-60.85615607,14.46837691],[-60.85990157,14.4661547]]]]}},{"type":"Feature","properties":{"code":"97218","nom":"Le Morne-Rouge","departement":"972","region":"02"},"geometry":{"type":"MultiPolygon","coordinates":[[[[-61.13326278,14.74641986],[-61.15010351,14.75767651],[-61.15487873,14.7570387],[-61.15777129,14.75807396],[-61.15854175,14.76010356],[-61.1556168,14.76852198],[-61.15171959,14.77458195],[-61.14758398,14.77882704],[-61.1460387,14.78273951],[-61.14522587,14.79040741],[-61.14551995,14.79482356],[-61.14857799,14.80595945],[-61.14489622,14.8023059],[-61.13855278,14.79991591],[-61.1266987,14.79891253],[-61.11844525,14.80111904],[-61.10784586,14.80775763],[-61.10722321,14.80640057],[-61.10825236,14.79334052],[-61.09990721,14.78101585],[-61.08684952,14.76732896],[-61.08710082,14.76110817],[-61.08830312,14.75785486],[-61.08591523,14.74652166],[-61.0874702,14.74296129],[-61.09439045,14.74101671],[-61.10118413,14.73469873],[-61.10544274,14.73543763],[-61.11726446,14.74064825],[-61.12874734,14.74743801],[-61.13101254,14.74763075],[-61.13326278,14.74641986]]]]}},{"type":"Feature","properties":{"code":"97219","nom":"Le Prêcheur","departement":"972","region":"02"},"geometry":{"type":"MultiPolygon","coordinates":[[[[-61.16652142,14.81738334],[-61.16399755,14.81615584],[-61.16352448,14.81563152],[-61.16385105,14.81248372],[-61.1701255,14.81233303],[-61.18412162,14.80267438],[-61.20453813,14.79355195],[-61.20863859,14.79090332],[-61.21383229,14.78200276],[-61.2151881,14.78306071],[-61.2183217,14.78833756],[-61.22681239,14.80549581],[-61.22895843,14.81256255],[-61.22861113,14.82294407],[-61.22310395,14.83637029],[-61.21120219,14.85651658],[-61.20774932,14.86036222],[-61.20404482,14.86169884],[-61.20220893,14.85752634],[-61.19876083,14.85259561],[-61.18968151,14.84432099],[-61.19099679,14.83385608],[-61.17997616,14.82355509],[-61.16652142,14.81738334]]]]}},{"type":"Feature","properties":{"code":"97220","nom":"Rivière-Pilote","departement":"972","region":"02"},"geometry":{"type":"MultiPolygon","coordinates":[[[[-60.91326518,14.48795896],[-60.91649213,14.49774958],[-60.91957849,14.50295298],[-60.92495183,14.5066151],[-60.92409215,14.51684662],[-60.92944855,14.51828468],[-60.92890766,14.52258123],[-60.92679644,14.52646177],[-60.92446221,14.52570194],[-60.92119067,14.52280571],[-60.92034905,14.52779716],[-60.92647872,14.52959639],[-60.92621709,14.53139051],[-60.92522696,14.53788703],[-60.9168746,14.53676017],[-60.90825437,14.53434204],[-60.90342668,14.53672693],[-60.89534854,14.54310906],[-60.89545159,14.5450591],[-60.89106703,14.54773231],[-60.88274878,14.53864365],[-60.87521206,14.53297119],[-60.86938212,14.53150319],[-60.86519597,14.52220853],[-60.86545576,14.51794677],[-60.86672271,14.51689114],[-60.86666838,14.51578553],[-60.86453628,14.51526824],[-60.86474352,14.51232527],[-60.8732711,14.50272594],[-60.87316596,14.50071987],[-60.87751381,14.49577578],[-60.88243377,14.49248403],[-60.8902512,14.48122114],[-60.89102396,14.47844943],[-60.89520601,14.47211363],[-60.89751206,14.47136166],[-60.90092846,14.46890177],[-60.89904215,14.46555415],[-60.90009512,14.46156228],[-60.90139851,14.45953622],[-60.90352223,14.45784186],[-60.9074698,14.45745137],[-60.91084751,14.46891417],[-60.91326518,14.48795896]]]]}},{"type":"Feature","properties":{"code":"97221","nom":"Rivière-Salée","departement":"972","region":"02"},"geometry":{"type":"MultiPolygon","coordinates":[[[[-61.00140566,14.52853042],[-61.00121967,14.53219323],[-61.00015883,14.53152631],[-60.99224471,14.53092094],[-60.98837259,14.53307461],[-60.98496231,14.54045628],[-60.98475402,14.54368058],[-60.98642572,14.546143],[-60.98328319,14.55015985],[-60.98017839,14.55144429],[-60.97661908,14.55190062],[-60.97750794,14.54822678],[-60.9753391,14.54738841],[-60.96698883,14.5491857],[-60.95573592,14.5538653],[-60.95387807,14.55532834],[-60.95261334,14.55605375],[-60.94795949,14.55457166],[-60.94512338,14.54995805],[-60.93245258,14.54835455],[-60.92507496,14.53916434],[-60.92522696,14.53788703],[-60.92621709,14.53139051],[-60.92647872,14.52959639],[-60.92034905,14.52779716],[-60.92119067,14.52280571],[-60.92446221,14.52570194],[-60.92679644,14.52646177],[-60.92890766,14.52258123],[-60.92944855,14.51828468],[-60.93026288,14.51250856],[-60.93141211,14.51181205],[-60.93209312,14.50859656],[-60.9337019,14.50575251],[-60.94702049,14.50071949],[-60.95204152,14.49644478],[-60.95554405,14.49672019],[-60.96048231,14.49710653],[-60.96451286,14.49928769],[-60.96982303,14.50040089],[-60.98308986,14.50129691],[-60.98523858,14.50328988],[-60.99125638,14.50567654],[-60.99725845,14.50260745],[-61.0045328,14.50297484],[-61.00383045,14.50889519],[-61.00334568,14.50885492],[-61.00140566,14.52853042]]]]}},{"type":"Feature","properties":{"code":"97222","nom":"Le Robert","departement":"972","region":"02"},"geometry":{"type":"MultiPolygon","coordinates":[[[[-60.92146825,14.65297277],[-60.91884443,14.65591501],[-60.91591307,14.66359215],[-60.91309873,14.66487263],[-60.91065156,14.66540817],[-60.90168912,14.66314518],[-60.89134745,14.66487777],[-60.8825695,14.66334585],[-60.88564119,14.65276544],[-60.89399979,14.64996599],[-60.89493742,14.65344165],[-60.9034717,14.65558533],[-60.91263905,14.65362924],[-60.92704448,14.63432009],[-60.93324487,14.63254536],[-60.93875144,14.63330624],[-60.94278794,14.63456999],[-60.9486068,14.63439542],[-60.94922226,14.63378185],[-60.95065702,14.63358755],[-60.95126875,14.63697437],[-60.95583574,14.6485116],[-60.95890221,14.65243596],[-60.9699332,14.66163861],[-60.97533746,14.66646427],[-60.97924592,14.67216422],[-60.98569638,14.6785585],[-60.98859428,14.68406522],[-60.98933676,14.68367766],[-60.98951701,14.68833126],[-60.98900322,14.68908859],[-60.98729278,14.69075908],[-60.97967911,14.69221014],[-60.97722626,14.69807697],[-60.970761,14.69647976],[-60.96866215,14.69897172],[-60.95924079,14.704],[-60.94917901,14.70747515],[-60.94878064,14.70599418],[-60.944498,14.70777707],[-60.93552875,14.7104489],[-60.93143484,14.71622543],[-60.92909599,14.71702864],[-60.92836539,14.71652873],[-60.92844673,14.71528878],[-60.93051059,14.71401052],[-60.93054609,14.71004842],[-60.92819696,14.70634063],[-60.91532952,14.70528006],[-60.90529907,14.70074475],[-60.91053328,14.69359826],[-60.92376347,14.68929833],[-60.93661661,14.68269358],[-60.94171277,14.67258557],[-60.9376981,14.66505611],[-60.93582595,14.66485334],[-60.93339144,14.65869964],[-60.92630551,14.65112647],[-60.92146825,14.65297277]]]]}},{"type":"Feature","properties":{"code":"97223","nom":"Saint-Esprit","departement":"972","region":"02"},"geometry":{"type":"MultiPolygon","coordinates":[[[[-60.90114785,14.5705355],[-60.90111448,14.56984574],[-60.89949585,14.56637936],[-60.8964737,14.56309373],[-60.89693611,14.56050811],[-60.89510893,14.5596748],[-60.89280938,14.55602606],[-60.89140327,14.55188927],[-60.89106703,14.54773231],[-60.89545159,14.5450591],[-60.89534854,14.54310906],[-60.90342668,14.53672693],[-60.90825437,14.53434204],[-60.9168746,14.53676017],[-60.92522696,14.53788703],[-60.92507496,14.53916434],[-60.93245258,14.54835455],[-60.94512338,14.54995805],[-60.94795949,14.55457166],[-60.95261334,14.55605375],[-60.95387807,14.55532834],[-60.95615546,14.55767334],[-60.95270953,14.56624053],[-60.94983398,14.57008656],[-60.94708021,14.57149015],[-60.94297884,14.57153451],[-60.94250488,14.57561571],[-60.94405329,14.57543235],[-60.94007526,14.58136406],[-60.93670785,14.58905595],[-60.93594477,14.58809948],[-60.93048581,14.58067477],[-60.92345019,14.57945839],[-60.91753092,14.57971745],[-60.9103659,14.57590612],[-60.90609857,14.57151606],[-60.90528159,14.57068735],[-60.90114785,14.5705355]]]]}},{"type":"Feature","properties":{"code":"97224","nom":"Saint-Joseph","departement":"972","region":"02"},"geometry":{"type":"MultiPolygon","coordinates":[[[[-61.01634842,14.64891804],[-61.01944526,14.65104096],[-61.02265096,14.6503471],[-61.02439385,14.64902898],[-61.02459038,14.64967769],[-61.03623382,14.64569434],[-61.03942565,14.64362561],[-61.03945197,14.64264895],[-61.04101315,14.64254371],[-61.04284335,14.64339683],[-61.0442422,14.64705045],[-61.04916953,14.64625862],[-61.04933735,14.64575396],[-61.05169243,14.64624814],[-61.05262012,14.64725087],[-61.05217899,14.64780294],[-61.05252069,14.6487348],[-61.05557868,14.6502569],[-61.05872693,14.65081005],[-61.05935901,14.6514461],[-61.0580556,14.65441832],[-61.05964735,14.65612332],[-61.0698652,14.6652544],[-61.0745325,14.6701469],[-61.07940149,14.67279981],[-61.0822168,14.67347012],[-61.08217713,14.6772771],[-61.07988043,14.68227638],[-61.08266405,14.68627568],[-61.08483869,14.69273163],[-61.08154828,14.69700516],[-61.0749564,14.70147084],[-61.07417474,14.70315607],[-61.07651036,14.70255733],[-61.08368588,14.70717684],[-61.08384032,14.70799235],[-61.08684566,14.72014668],[-61.08600989,14.72366964],[-61.08464802,14.72491362],[-61.08432735,14.72303759],[-61.07836604,14.71584807],[-61.06840202,14.70850491],[-61.04468479,14.69670814],[-61.03662906,14.69380343],[-61.03539486,14.69488462],[-61.03046902,14.69579894],[-61.02480449,14.69357653],[-61.02042931,14.69056072],[-61.0165171,14.68501491],[-61.01572302,14.68515723],[-61.01149194,14.68358749],[-60.9982439,14.67735942],[-60.99509902,14.6747939],[-60.99447456,14.67303179],[-60.99624734,14.66469272],[-60.99594884,14.65801659],[-61.00351233,14.65438476],[-61.01477508,14.65335882],[-61.01634842,14.64891804]]]]}},{"type":"Feature","properties":{"code":"97225","nom":"Saint-Pierre","departement":"972","region":"02"},"geometry":{"type":"MultiPolygon","coordinates":[[[[-61.15589179,14.73345665],[-61.16221913,14.72882654],[-61.17898085,14.73266436],[-61.17688317,14.73756873],[-61.17648626,14.74397494],[-61.17711286,14.74623471],[-61.17940201,14.74970053],[-61.1846141,14.75638223],[-61.19704192,14.76644518],[-61.20262744,14.77582989],[-61.21383229,14.78200276],[-61.20863859,14.79090332],[-61.20453813,14.79355195],[-61.18412162,14.80267438],[-61.1701255,14.81233303],[-61.16385105,14.81248372],[-61.16232521,14.80890904],[-61.16031993,14.80799472],[-61.15377975,14.80542823],[-61.14857799,14.80595945],[-61.14551995,14.79482356],[-61.14522587,14.79040741],[-61.1460387,14.78273951],[-61.14758398,14.77882704],[-61.15171959,14.77458195],[-61.1556168,14.76852198],[-61.15854175,14.76010356],[-61.15777129,14.75807396],[-61.15487873,14.7570387],[-61.15010351,14.75767651],[-61.13326278,14.74641986],[-61.14111312,14.74461692],[-61.15749764,14.7458994],[-61.16047293,14.74447802],[-61.16110131,14.74164077],[-61.15982831,14.73542831],[-61.15589179,14.73345665]]]]}},{"type":"Feature","properties":{"code":"97226","nom":"Sainte-Anne","departement":"972","region":"02"},"geometry":{"type":"MultiPolygon","coordinates":[[[[-60.82448108,14.47132999],[-60.82233105,14.47061704],[-60.81598559,14.4602501],[-60.82049992,14.45679777],[-60.82197549,14.45419915],[-60.82391635,14.44961601],[-60.82361227,14.44503651],[-60.82625041,14.43623638],[-60.8313638,14.43232031],[-60.83389225,14.42877073],[-60.83457542,14.42389486],[-60.84085317,14.42235212],[-60.84233151,14.42355479],[-60.83970365,14.42368435],[-60.83966105,14.42838992],[-60.84029206,14.4297764],[-60.84954355,14.43632896],[-60.84944926,14.41108676],[-60.8558263,14.39998246],[-60.8565685,14.39720607],[-60.87039377,14.39582203],[-60.87637996,14.39815122],[-60.88135114,14.40480134],[-60.89145164,14.42148596],[-60.8860771,14.42696444],[-60.87988316,14.43865411],[-60.88023301,14.44097415],[-60.8709093,14.45415969],[-60.868259,14.45514233],[-60.86484352,14.45215928],[-60.86312476,14.45240664],[-60.86155167,14.45477789],[-60.85990157,14.4661547],[-60.85615607,14.46837691],[-60.84726838,14.47194177],[-60.83949943,14.47257173],[-60.82448108,14.47132999]]]]}},{"type":"Feature","properties":{"code":"97227","nom":"Sainte-Luce","departement":"972","region":"02"},"geometry":{"type":"MultiPolygon","coordinates":[[[[-60.91803453,14.46902939],[-60.92413583,14.46642751],[-60.93177489,14.46298955],[-60.93466177,14.46258748],[-60.93808559,14.46489831],[-60.94573603,14.46695778],[-60.95120492,14.46684643],[-60.96199307,14.47001528],[-60.97184095,14.47412803],[-60.98269845,14.48407233],[-60.98350432,14.486136],[-60.98042082,14.48681167],[-60.97955022,14.49138397],[-60.98092312,14.49505021],[-60.9834657,14.49573987],[-60.98308986,14.50129691],[-60.96982303,14.50040089],[-60.96451286,14.49928769],[-60.96048231,14.49710653],[-60.95554405,14.49672019],[-60.95204152,14.49644478],[-60.94702049,14.50071949],[-60.9337019,14.50575251],[-60.93209312,14.50859656],[-60.93141211,14.51181205],[-60.93026288,14.51250856],[-60.92944855,14.51828468],[-60.92409215,14.51684662],[-60.92495183,14.5066151],[-60.91957849,14.50295298],[-60.91649213,14.49774958],[-60.91326518,14.48795896],[-60.91084751,14.46891417],[-60.91105471,14.46887173],[-60.91103399,14.4676173],[-60.91217798,14.46378791],[-60.91145372,14.46904425],[-60.91576277,14.46889632],[-60.91852998,14.47328269],[-60.91803453,14.46902939]]]]}},{"type":"Feature","properties":{"code":"97228","nom":"Sainte-Marie","departement":"972","region":"02"},"geometry":{"type":"MultiPolygon","coordinates":[[[[-60.97992398,14.77031487],[-60.97283068,14.76301088],[-61.00142212,14.74326657],[-61.00341176,14.74197435],[-61.00564185,14.74252133],[-61.00584955,14.74408375],[-61.00716724,14.74346706],[-61.02187559,14.73528138],[-61.03166021,14.73667696],[-61.03996616,14.74041732],[-61.04863745,14.74216878],[-61.0523918,14.74383429],[-61.05303883,14.74479674],[-61.05425243,14.75682146],[-61.05023672,14.76819932],[-61.04365101,14.77549414],[-61.04594798,14.78637041],[-61.03530459,14.79705901],[-61.01857688,14.80970901],[-61.01534093,14.80723674],[-61.01153596,14.80677016],[-60.99843072,14.78967878],[-60.98961319,14.77997456],[-60.98306366,14.77486328],[-60.97992398,14.77031487]]]]}},{"type":"Feature","properties":{"code":"97229","nom":"Schœlcher","departement":"972","region":"02"},"geometry":{"type":"MultiPolygon","coordinates":[[[[-61.09600511,14.6066808],[-61.10032357,14.61399365],[-61.10659793,14.62129343],[-61.10970133,14.62294442],[-61.11122038,14.62460422],[-61.11097897,14.62548429],[-61.11273951,14.62658483],[-61.1178756,14.62802445],[-61.11749505,14.62878773],[-61.11845437,14.63101141],[-61.11719981,14.63880944],[-61.11557184,14.6427139],[-61.11175877,14.64792005],[-61.10885385,14.65717582],[-61.10757503,14.66578326],[-61.10662645,14.66987027],[-61.10648293,14.67554624],[-61.10914817,14.68149],[-61.11137955,14.68316016],[-61.11586272,14.69062968],[-61.11570237,14.69557985],[-61.11409114,14.69768416],[-61.11316231,14.70010851],[-61.11325248,14.70268936],[-61.10674617,14.69974714],[-61.1006358,14.69570187],[-61.10163296,14.68666749],[-61.09859145,14.67647946],[-61.09850901,14.67054772],[-61.09737304,14.66428383],[-61.09425094,14.6561601],[-61.09286215,14.6547805],[-61.08863046,14.65593865],[-61.08908165,14.65164793],[-61.0869496,14.64404197],[-61.08401086,14.64084487],[-61.08250721,14.63828133],[-61.08195876,14.63453185],[-61.08292546,14.6274204],[-61.08187352,14.62179972],[-61.08397262,14.61701378],[-61.08644111,14.61264203],[-61.08770568,14.61064797],[-61.08769965,14.60941345],[-61.08800138,14.60725335],[-61.08949558,14.60520603],[-61.09059991,14.60026273],[-61.09185172,14.60059469],[-61.09560326,14.60484931],[-61.09600511,14.6066808]]]]}},{"type":"Feature","properties":{"code":"97230","nom":"La Trinité","departement":"972","region":"02"},"geometry":{"type":"MultiPolygon","coordinates":[[[[-60.96383815,14.74749667],[-60.96331118,14.74604982],[-60.96249745,14.74209102],[-60.96274916,14.74038535],[-60.96078398,14.73753421],[-60.95707909,14.73614697],[-60.95455104,14.7376057],[-60.95324833,14.74068552],[-60.95281084,14.74427722],[-60.94497115,14.75524917],[-60.94340521,14.75686539],[-60.93411694,14.76084253],[-60.92504549,14.761804],[-60.91942102,14.75876423],[-60.89622943,14.77150561],[-60.88950413,14.77814986],[-60.88541905,14.7779462],[-60.88071618,14.7763326],[-60.87295104,14.77144319],[-60.87357278,14.76098528],[-60.87470418,14.75836532],[-60.87921328,14.75884952],[-60.88115074,14.76081727],[-60.88217433,14.76375974],[-60.88136285,14.76719773],[-60.88329514,14.76778924],[-60.88942227,14.76739443],[-60.89338503,14.76581768],[-60.89667219,14.76119677],[-60.89691988,14.75861471],[-60.89524548,14.75718441],[-60.89156265,14.74813375],[-60.89058675,14.73965083],[-60.89310524,14.73700362],[-60.8964842,14.73563106],[-60.90721569,14.73592357],[-60.91105659,14.73906944],[-60.91175555,14.74366883],[-60.91630741,14.74667286],[-60.92861233,14.75052083],[-60.93530167,14.75062767],[-60.93778239,14.74929256],[-60.94474099,14.7311915],[-60.94567403,14.72922082],[-60.94574054,14.72588791],[-60.94132007,14.71391887],[-60.93528391,14.7136781],[-60.93084959,14.72098684],[-60.92714578,14.72238868],[-60.92517411,14.72166529],[-60.92510325,14.72071494],[-60.92617391,14.72000976],[-60.92804634,14.72023074],[-60.92948421,14.71760411],[-60.92909599,14.71702864],[-60.93143484,14.71622543],[-60.93552875,14.7104489],[-60.944498,14.70777707],[-60.94878064,14.70599418],[-60.94917901,14.70747515],[-60.95924079,14.704],[-60.96866215,14.69897172],[-60.970761,14.69647976],[-60.97722626,14.69807697],[-60.97654739,14.70011782],[-60.97815611,14.70578329],[-60.98083554,14.70870467],[-60.98517054,14.71747984],[-60.9907494,14.72176374],[-60.99369223,14.72292878],[-60.99880401,14.72796393],[-61.00317605,14.72932284],[-61.01246442,14.73009771],[-61.01370553,14.72962039],[-61.01529138,14.73096148],[-61.01777762,14.73326004],[-61.02045127,14.73383416],[-61.02187559,14.73528138],[-61.00716724,14.74346706],[-61.00584955,14.74408375],[-61.00564185,14.74252133],[-61.00341176,14.74197435],[-61.00142212,14.74326657],[-60.97283068,14.76301088],[-60.96666101,14.75559376],[-60.96775039,14.75318068],[-60.96559273,14.74884138],[-60.96383815,14.74749667]]]]}},{"type":"Feature","properties":{"code":"97231","nom":"Les Trois-Îlets","departement":"972","region":"02"},"geometry":{"type":"MultiPolygon","coordinates":[[[[-61.00121967,14.53219323],[-61.00140566,14.52853042],[-61.00334568,14.50885492],[-61.00383045,14.50889519],[-61.01136433,14.50723313],[-61.01646638,14.50688411],[-61.04116747,14.50896585],[-61.04957498,14.50804994],[-61.05642605,14.50627136],[-61.05894321,14.50652445],[-61.06630764,14.52284655],[-61.07154468,14.53201444],[-61.07388955,14.54073284],[-61.07292524,14.54066887],[-61.0608958,14.54717655],[-61.05379026,14.55794028],[-61.04510147,14.55475732],[-61.04025002,14.55055162],[-61.04287018,14.54748652],[-61.03696125,14.54108048],[-61.02540962,14.53632215],[-61.0138555,14.53595246],[-61.00121967,14.53219323]]]]}},{"type":"Feature","properties":{"code":"97232","nom":"Le Vauclin","departement":"972","region":"02"},"geometry":{"type":"MultiPolygon","coordinates":[[[[-60.88274878,14.53864365],[-60.89106703,14.54773231],[-60.89140327,14.55188927],[-60.89280938,14.55602606],[-60.89510893,14.5596748],[-60.89693611,14.56050811],[-60.8964737,14.56309373],[-60.89092974,14.56491338],[-60.8914712,14.56885443],[-60.8814921,14.5739916],[-60.8662224,14.5780463],[-60.86102782,14.58052437],[-60.85630541,14.58117866],[-60.84999419,14.58541002],[-60.84577858,14.58421999],[-60.84457899,14.57906205],[-60.85346347,14.57639511],[-60.85435683,14.57563888],[-60.85458341,14.57379761],[-60.85437698,14.57173642],[-60.85272819,14.56878097],[-60.848103,14.56470117],[-60.84600861,14.5650379],[-60.84538702,14.56188585],[-60.84649659,14.56159879],[-60.84717689,14.56042315],[-60.84678409,14.55730665],[-60.84591405,14.55709985],[-60.83927589,14.56038192],[-60.83805556,14.56299196],[-60.83222208,14.56687669],[-60.83234588,14.56787901],[-60.83350909,14.5676133],[-60.83177411,14.5680969],[-60.83058006,14.56942855],[-60.82587053,14.56794267],[-60.82728218,14.56760249],[-60.82972191,14.56544571],[-60.83013946,14.56183433],[-60.83545614,14.5555666],[-60.83946482,14.55212483],[-60.83993217,14.55090658],[-60.83971223,14.54957988],[-60.83562415,14.54556451],[-60.83368186,14.54535227],[-60.83333649,14.5462373],[-60.83457793,14.54630752],[-60.83420555,14.54672786],[-60.83210604,14.54561057],[-60.82661391,14.53721502],[-60.82756441,14.53648741],[-60.83114649,14.53633447],[-60.83578238,14.53808243],[-60.83328624,14.52569913],[-60.8348643,14.51919159],[-60.82596721,14.51350612],[-60.82356432,14.50550335],[-60.82360904,14.49864735],[-60.8313787,14.50118062],[-60.84497923,14.50299108],[-60.85422277,14.50758836],[-60.85961497,14.51611253],[-60.86445151,14.51646655],[-60.86453628,14.51526824],[-60.86666838,14.51578553],[-60.86672271,14.51689114],[-60.86545576,14.51794677],[-60.86519597,14.52220853],[-60.86938212,14.53150319],[-60.87521206,14.53297119],[-60.88274878,14.53864365]]]]}},{"type":"Feature","properties":{"code":"97233","nom":"Le Morne-Vert","departement":"972","region":"02"},"geometry":{"type":"MultiPolygon","coordinates":[[[[-61.11586272,14.69062968],[-61.12415044,14.69021425],[-61.14404824,14.68954645],[-61.15105718,14.6912725],[-61.1542811,14.69365421],[-61.1586465,14.70286364],[-61.15794675,14.71179061],[-61.1569371,14.71393438],[-61.1334691,14.71913993],[-61.12572272,14.71974883],[-61.1239001,14.71887012],[-61.12201472,14.71870754],[-61.12167123,14.71924246],[-61.11851557,14.71627073],[-61.1133965,14.70440578],[-61.11325248,14.70268936],[-61.11316231,14.70010851],[-61.11409114,14.69768416],[-61.11570237,14.69557985],[-61.11586272,14.69062968]]]]}},{"type":"Feature","properties":{"code":"97234","nom":"Bellefontaine","departement":"972","region":"02"},"geometry":{"type":"MultiPolygon","coordinates":[[[[-61.15397494,14.65577437],[-61.16186859,14.66683995],[-61.16555981,14.67327846],[-61.16778548,14.67523726],[-61.16621853,14.6763365],[-61.15837809,14.68957838],[-61.1542811,14.69365421],[-61.15105718,14.6912725],[-61.14404824,14.68954645],[-61.12415044,14.69021425],[-61.12758421,14.68262992],[-61.12923518,14.67320201],[-61.13186811,14.66727577],[-61.143511,14.6597931],[-61.15397494,14.65577437]]]]}}]}