{"type":"FeatureCollection","features":[{"type":"Feature","properties":{"code":"97401","nom":"Les Avirons","departement":"974","region":"04"},"geometry":{"type":"MultiPolygon","coordinates":[[[[55.35260987,-21.22769402],[55.35240358,-21.23082724],[55.35257222,-21.23143046],[55.35556802,-21.23128897],[55.35774634,-21.23536946],[55.35622438,-21.24716299],[55.35285839,-21.2531007],[55.34795748,-21.25313403],[55.3443716,-21.25180538],[55.3394616,-21.2516234],[55.3344796,-21.2504768],[55.32516009,-21.24676514],[55.32228054,-21.25286506],[55.3207543,-21.25142183],[55.32057306,-21.2490508],[55.32344502,-21.24609052],[55.32396285,-21.24102482],[55.32662907,-21.23587204],[55.33136976,-21.23007404],[55.33550065,-21.22312724],[55.33642028,-21.21645671],[55.33748402,-21.21178831],[55.33963385,-21.21077072],[55.34097393,-21.20902976],[55.34454075,-21.20402547],[55.34778581,-21.20125532],[55.34799442,-21.20025203],[55.34830733,-21.19931118],[55.37322447,-21.17657009],[55.38405612,-21.16546428],[55.39195473,-21.15608129],[55.40380641,-21.14574699],[55.4054774,-21.14498682],[55.40554959,-21.14741734],[55.40287105,-21.15243063],[55.39937158,-21.16428028],[55.39749871,-21.16641507],[55.39422747,-21.16846521],[55.38929251,-21.17945456],[55.38843785,-21.18357982],[55.38734064,-21.18564509],[55.38593238,-21.18575088],[55.38703426,-21.17686591],[55.38513547,-21.17701128],[55.38435161,-21.17806875],[55.38014514,-21.18874858],[55.37798922,-21.202464],[55.36946739,-21.21257716],[55.36808245,-21.21299193],[55.36625828,-21.21506716],[55.35968777,-21.21784693],[55.35547516,-21.22219851],[55.35440079,-21.22447962],[55.35260987,-21.22769402]]]]}},{"type":"Feature","properties":{"code":"97402","nom":"Bras-Panon","departement":"974","region":"04"},"geometry":{"type":"MultiPolygon","coordinates":[[[[55.6692631,-21.02040362],[55.67236426,-21.02961614],[55.67113374,-21.0312299],[55.66368321,-21.03373258],[55.6537028,-21.03472975],[55.64685831,-21.03454171],[55.63557634,-21.03675784],[55.62134077,-21.04066837],[55.61878006,-21.04235584],[55.61591221,-21.04582671],[55.60566585,-21.06142707],[55.59348026,-21.07452458],[55.58737638,-21.08348482],[55.58564389,-21.08490491],[55.58037193,-21.08452303],[55.57718869,-21.08332924],[55.56245261,-21.07502976],[55.55705599,-21.07334982],[55.55221984,-21.07304035],[55.55286904,-21.07159512],[55.55712695,-21.06898818],[55.55959159,-21.06629998],[55.56078933,-21.06434536],[55.56171476,-21.05917884],[55.56141935,-21.04525667],[55.55930559,-21.04072202],[55.55463274,-21.03765704],[55.55954002,-21.02324152],[55.56170403,-21.01910804],[55.56977155,-21.01412723],[55.58506205,-21.00133345],[55.58922676,-21.00294258],[55.59744886,-21.0024387],[55.60201181,-21.00179872],[55.6091613,-20.99879398],[55.61177031,-20.99721993],[55.61322767,-20.99441059],[55.61828026,-20.99091408],[55.62757502,-20.98748236],[55.64019897,-20.97836286],[55.64542877,-20.97770169],[55.65400989,-20.97851409],[55.65609917,-20.97925329],[55.66030579,-20.98244826],[55.6645839,-20.98367974],[55.6727444,-20.9852314],[55.68422895,-20.98069516],[55.68712491,-20.97984573],[55.69110115,-20.98008591],[55.70065669,-20.97861697],[55.70069123,-20.99786491],[55.70081607,-21.00489244],[55.68176683,-21.00892953],[55.67827355,-21.01013465],[55.67461866,-21.01285522],[55.67215757,-21.01797085],[55.67083229,-21.01791262],[55.66958791,-21.01871232],[55.6692631,-21.02040362]]]]}},{"type":"Feature","properties":{"code":"97403","nom":"Entre-Deux","departement":"974","region":"04"},"geometry":{"type":"MultiPolygon","coordinates":[[[[55.47173345,-21.2572907],[55.47066298,-21.26567805],[55.46651804,-21.27546824],[55.46137562,-21.28260433],[55.45549089,-21.28583301],[55.45699833,-21.2708558],[55.45963714,-21.27037049],[55.46107002,-21.26917769],[55.4641735,-21.25687241],[55.46429743,-21.25439941],[55.46192433,-21.24853254],[55.45915811,-21.23619445],[55.46058381,-21.22210698],[55.46235648,-21.21801042],[55.46341951,-21.2156399],[55.46236466,-21.20885012],[55.46204822,-21.19494272],[55.46922541,-21.19013458],[55.47408848,-21.19031858],[55.48089378,-21.18772507],[55.48592643,-21.1852509],[55.49133843,-21.18134821],[55.49533217,-21.17690518],[55.49766981,-21.16658391],[55.49944099,-21.16245973],[55.50160359,-21.15875723],[55.50133214,-21.15118864],[55.50191267,-21.14775394],[55.50670669,-21.13971248],[55.50775037,-21.14019774],[55.52368764,-21.13601504],[55.52694986,-21.13580678],[55.52262991,-21.14209062],[55.52561869,-21.15862406],[55.5282283,-21.1673964],[55.53052426,-21.17226451],[55.53112542,-21.17916753],[55.53040167,-21.18350081],[55.52323747,-21.18285662],[55.51944285,-21.18361654],[55.51570775,-21.18603268],[55.51560946,-21.2010793],[55.51461983,-21.20275439],[55.51090162,-21.2055418],[55.50905699,-21.20467279],[55.51065347,-21.20886562],[55.51401375,-21.21403419],[55.51280115,-21.21756813],[55.5116698,-21.22711251],[55.50818547,-21.22966341],[55.50095883,-21.23156135],[55.49977192,-21.23393644],[55.49979682,-21.23461776],[55.49172316,-21.23905237],[55.49145073,-21.24395218],[55.49216252,-21.24445084],[55.48872177,-21.24756806],[55.47944075,-21.25453127],[55.47550884,-21.2564496],[55.4722732,-21.25709055],[55.47173345,-21.2572907]]]]}},{"type":"Feature","properties":{"code":"97404","nom":"L'Étang-Salé","departement":"974","region":"04"},"geometry":{"type":"MultiPolygon","coordinates":[[[[55.3344796,-21.2504768],[55.3394616,-21.2516234],[55.3443716,-21.25180538],[55.34795748,-21.25313403],[55.35285839,-21.2531007],[55.35622438,-21.24716299],[55.35774634,-21.23536946],[55.35556802,-21.23128897],[55.35257222,-21.23143046],[55.35240358,-21.23082724],[55.35260987,-21.22769402],[55.35440079,-21.22447962],[55.35547516,-21.22219851],[55.35968777,-21.21784693],[55.36625828,-21.21506716],[55.36808245,-21.21299193],[55.36946739,-21.21257716],[55.37798922,-21.202464],[55.38014514,-21.18874858],[55.38435161,-21.17806875],[55.38513547,-21.17701128],[55.38703426,-21.17686591],[55.38593238,-21.18575088],[55.38221979,-21.19581944],[55.38388474,-21.20240581],[55.38755933,-21.20516431],[55.38929652,-21.20556478],[55.39034198,-21.20961963],[55.39072219,-21.21488845],[55.38796463,-21.22850973],[55.38765279,-21.23052015],[55.38913236,-21.24286579],[55.39285616,-21.25779361],[55.39214925,-21.2607785],[55.38880486,-21.26411938],[55.38895097,-21.26672039],[55.38906695,-21.26969868],[55.38741062,-21.27233484],[55.38342127,-21.27778034],[55.38294143,-21.28491246],[55.39163588,-21.29143154],[55.39118146,-21.29262584],[55.38820073,-21.29082872],[55.37780228,-21.28714738],[55.35660442,-21.28340913],[55.34179839,-21.28119371],[55.33317054,-21.2710752],[55.3331357,-21.26672479],[55.3304311,-21.25858229],[55.32228054,-21.25286506],[55.32516009,-21.24676514],[55.3344796,-21.2504768]]]]}},{"type":"Feature","properties":{"code":"97405","nom":"Petite-Île","departement":"974","region":"04"},"geometry":{"type":"MultiPolygon","coordinates":[[[[55.58967143,-21.35855045],[55.58706709,-21.36325112],[55.58308207,-21.3642943],[55.58260775,-21.3650825],[55.58225997,-21.3686522],[55.58316692,-21.37241497],[55.56784982,-21.37486301],[55.54804882,-21.36967315],[55.53638042,-21.36332813],[55.53637407,-21.36057028],[55.53831404,-21.35573099],[55.53875808,-21.34955531],[55.54328014,-21.33922818],[55.5443488,-21.33626013],[55.54395403,-21.33542476],[55.54370521,-21.33474873],[55.54504724,-21.33201609],[55.54369758,-21.32673085],[55.54687013,-21.32244678],[55.5585921,-21.31691549],[55.57296542,-21.31215471],[55.57901396,-21.31080666],[55.58063776,-21.30945635],[55.58118561,-21.30550982],[55.58251436,-21.30355719],[55.58447071,-21.30430806],[55.59402273,-21.29070269],[55.59802738,-21.28889419],[55.60439676,-21.28784595],[55.60389732,-21.29072164],[55.60545722,-21.29742647],[55.60545405,-21.29745626],[55.59931018,-21.30690558],[55.58983515,-21.31389407],[55.58728392,-21.3202899],[55.58783909,-21.32463596],[55.58674365,-21.3276818],[55.58622121,-21.32807397],[55.58694502,-21.33413776],[55.58941632,-21.33915753],[55.5890858,-21.3570713],[55.58967143,-21.35855045]]]]}},{"type":"Feature","properties":{"code":"97406","nom":"La Plaine-des-Palmistes","departement":"974","region":"04"},"geometry":{"type":"MultiPolygon","coordinates":[[[[55.65585524,-21.10573645],[55.65592197,-21.10580925],[55.66227427,-21.11283893],[55.69189187,-21.14585813],[55.71569873,-21.17245071],[55.70712739,-21.17549843],[55.70402186,-21.1773067],[55.6950747,-21.18591566],[55.68821929,-21.18681745],[55.68614468,-21.18603799],[55.68019914,-21.18827809],[55.674547,-21.19173168],[55.66067019,-21.20352855],[55.65368493,-21.19431206],[55.63822728,-21.16700801],[55.63425252,-21.16786667],[55.62988877,-21.17006988],[55.62717736,-21.17532258],[55.61629101,-21.18248864],[55.60601025,-21.18084047],[55.60571371,-21.18062303],[55.60026167,-21.17680108],[55.59122405,-21.17331138],[55.58853211,-21.16326905],[55.5895788,-21.16135185],[55.5886993,-21.15609699],[55.57270676,-21.13351393],[55.57616561,-21.12924403],[55.57994963,-21.12659558],[55.58456268,-21.12483834],[55.58963864,-21.12543081],[55.59220729,-21.12727333],[55.60053516,-21.1279259],[55.60793248,-21.12595883],[55.61362839,-21.12357642],[55.62642174,-21.1179434],[55.63342835,-21.11145701],[55.63645125,-21.10661133],[55.64480503,-21.10272609],[55.64934192,-21.1028454],[55.65585524,-21.10573645]]]]}},{"type":"Feature","properties":{"code":"97407","nom":"Le Port","departement":"974","region":"04"},"geometry":{"type":"MultiPolygon","coordinates":[[[[55.29758606,-20.95691303],[55.28513738,-20.95613611],[55.28038633,-20.95771865],[55.27732038,-20.95783493],[55.28217049,-20.9420171],[55.28414385,-20.93852687],[55.28558012,-20.93871202],[55.2853089,-20.94040744],[55.28645038,-20.94047582],[55.28671286,-20.93887063],[55.28692124,-20.94041461],[55.28780538,-20.94053729],[55.28800214,-20.93938399],[55.28776565,-20.93523742],[55.28586492,-20.93337205],[55.2863815,-20.935798],[55.28323676,-20.93561103],[55.28386395,-20.93035219],[55.28382714,-20.92910982],[55.28780369,-20.92613916],[55.291506,-20.9244483],[55.29979977,-20.92795813],[55.30841305,-20.9293354],[55.31525573,-20.92992247],[55.31453319,-20.93314636],[55.32422499,-20.93528052],[55.32505854,-20.93502585],[55.32683744,-20.93094149],[55.32927401,-20.92788426],[55.33025211,-20.92759485],[55.32946478,-20.93252901],[55.32620575,-20.9373459],[55.32946368,-20.94016897],[55.330154,-20.94078003],[55.32897874,-20.94314506],[55.32017204,-20.96304903],[55.32095747,-20.96462124],[55.31885573,-20.96905278],[55.31616399,-20.96673278],[55.3132913,-20.96323309],[55.30975285,-20.96062912],[55.30056718,-20.95792192],[55.29758606,-20.95691303]]]]}},{"type":"Feature","properties":{"code":"97408","nom":"La Possession","departement":"974","region":"04"},"geometry":{"type":"MultiPolygon","coordinates":[[[[55.31885573,-20.96905278],[55.32095747,-20.96462124],[55.32017204,-20.96304903],[55.32897874,-20.94314506],[55.330154,-20.94078003],[55.32946368,-20.94016897],[55.32620575,-20.9373459],[55.32946478,-20.93252901],[55.33025211,-20.92759485],[55.33171302,-20.92737608],[55.33784286,-20.92486874],[55.34555665,-20.92124561],[55.34487186,-20.92074578],[55.35194259,-20.9117144],[55.35683143,-20.90937951],[55.37567197,-20.89603005],[55.37777727,-20.90647417],[55.38189414,-20.91502505],[55.38866038,-20.92571371],[55.39085277,-20.93207559],[55.39092534,-20.93212234],[55.39170083,-20.93252259],[55.39618183,-20.94330959],[55.40342239,-20.95091742],[55.40707197,-20.95679414],[55.4052708,-20.9642332],[55.40504163,-20.97604449],[55.40849161,-20.97948312],[55.41342396,-20.98264283],[55.42296665,-20.98542965],[55.43324382,-20.99050176],[55.44002782,-20.99254502],[55.44408168,-20.99639681],[55.44414922,-20.9964697],[55.45570015,-21.00644364],[55.46109154,-21.01502524],[55.45853109,-21.02845336],[55.45431806,-21.03954396],[55.45398474,-21.04312528],[55.45412925,-21.0555029],[55.45342926,-21.05870781],[55.45250493,-21.06089715],[55.44795841,-21.06558358],[55.44645932,-21.06935745],[55.45855328,-21.08179882],[55.46478597,-21.0856628],[55.46393911,-21.08574366],[55.45496522,-21.0856161],[55.44867151,-21.08700847],[55.44237699,-21.08948457],[55.43769507,-21.09273406],[55.43155195,-21.09211912],[55.42217124,-21.09667597],[55.42075237,-21.09659231],[55.41723102,-21.09471856],[55.41269061,-21.09047579],[55.40397407,-21.08427057],[55.40474553,-21.08124546],[55.41739105,-21.0677909],[55.41746216,-21.06561732],[55.41587985,-21.0628204],[55.40900332,-21.05763982],[55.40173934,-21.04967771],[55.4029999,-21.03722315],[55.40066317,-21.03232336],[55.40358398,-21.01833973],[55.40117442,-21.01181063],[55.39881395,-21.00818155],[55.39251113,-21.00468056],[55.39024845,-21.00424998],[55.38907121,-21.00288931],[55.38113798,-20.99925144],[55.37592494,-20.9984954],[55.37318183,-20.99527968],[55.37282641,-20.9928392],[55.37280849,-20.99103154],[55.37120972,-20.98865324],[55.35605971,-20.97619222],[55.35178216,-20.97476164],[55.33031009,-20.97081569],[55.31885573,-20.96905278]]]]}},{"type":"Feature","properties":{"code":"97409","nom":"Saint-André","departement":"974","region":"04"},"geometry":{"type":"MultiPolygon","coordinates":[[[[55.61322767,-20.99441059],[55.61177031,-20.99721993],[55.6091613,-20.99879398],[55.60201181,-21.00179872],[55.59744886,-21.0024387],[55.58922676,-21.00294258],[55.58506205,-21.00133345],[55.58345028,-20.99964793],[55.58154677,-20.99972422],[55.57783397,-20.99714126],[55.57404902,-20.99345823],[55.57830815,-20.99125533],[55.5809198,-20.98636465],[55.59358404,-20.97095083],[55.59952927,-20.96770973],[55.61089626,-20.9633636],[55.62129245,-20.95437813],[55.62877693,-20.95590014],[55.6322877,-20.95372591],[55.6344782,-20.95110379],[55.6371603,-20.94972591],[55.63716227,-20.94972051],[55.63833025,-20.94775053],[55.6382181,-20.94696641],[55.64095388,-20.94442353],[55.64493963,-20.94178033],[55.6453049,-20.94136948],[55.64624648,-20.93685914],[55.6458471,-20.93539701],[55.64125088,-20.9298381],[55.63806157,-20.92865364],[55.63634147,-20.92906902],[55.62977912,-20.92577424],[55.63076469,-20.91254131],[55.62868984,-20.91064653],[55.63999898,-20.91289152],[55.64992269,-20.91646455],[55.66387533,-20.92461444],[55.67126557,-20.93377378],[55.68287937,-20.94423836],[55.68859065,-20.95339579],[55.6968974,-20.9654457],[55.70065669,-20.97861697],[55.69110115,-20.98008591],[55.68712491,-20.97984573],[55.68422895,-20.98069516],[55.6727444,-20.9852314],[55.6645839,-20.98367974],[55.66030579,-20.98244826],[55.65609917,-20.97925329],[55.65400989,-20.97851409],[55.64542877,-20.97770169],[55.64019897,-20.97836286],[55.62757502,-20.98748236],[55.61828026,-20.99091408],[55.61322767,-20.99441059]]]]}},{"type":"Feature","properties":{"code":"97410","nom":"Saint-Benoît","departement":"974","region":"04"},"geometry":{"type":"MultiPolygon","coordinates":[[[[55.54227842,-21.13637575],[55.52694986,-21.13580678],[55.52368764,-21.13601504],[55.50775037,-21.14019774],[55.50670669,-21.13971248],[55.50734421,-21.13383658],[55.5041584,-21.12230647],[55.50092664,-21.11663847],[55.49522733,-21.11140109],[55.50264796,-21.10013281],[55.50922127,-21.09591709],[55.51319211,-21.09434583],[55.5213046,-21.08432746],[55.52258998,-21.0810704],[55.524144,-21.07935404],[55.53404691,-21.08042813],[55.55071062,-21.07543577],[55.55221984,-21.07304035],[55.55705599,-21.07334982],[55.56245261,-21.07502976],[55.57718869,-21.08332924],[55.58037193,-21.08452303],[55.58564389,-21.08490491],[55.58737638,-21.08348482],[55.59348026,-21.07452458],[55.60566585,-21.06142707],[55.61591221,-21.04582671],[55.61878006,-21.04235584],[55.62134077,-21.04066837],[55.63557634,-21.03675784],[55.64685831,-21.03454171],[55.6537028,-21.03472975],[55.66368321,-21.03373258],[55.67113374,-21.0312299],[55.67236426,-21.02961614],[55.6692631,-21.02040362],[55.66958791,-21.01871232],[55.67083229,-21.01791262],[55.67215757,-21.01797085],[55.67461866,-21.01285522],[55.67827355,-21.01013465],[55.68176683,-21.00892953],[55.70081607,-21.00489244],[55.70245677,-21.01663548],[55.7073323,-21.02740668],[55.71555909,-21.03065619],[55.72266929,-21.03884933],[55.72276652,-21.03895756],[55.72596613,-21.04370181],[55.7266011,-21.04541669],[55.72854641,-21.04694715],[55.73203358,-21.04936721],[55.73184957,-21.05143551],[55.73084844,-21.05635063],[55.73147935,-21.06060038],[55.73664379,-21.0687893],[55.74391538,-21.07759264],[55.75142562,-21.08397092],[55.75703407,-21.0905021],[55.76176277,-21.09951646],[55.76733278,-21.10359794],[55.75436807,-21.11433849],[55.7502978,-21.11867191],[55.74638574,-21.12591893],[55.74557816,-21.12600419],[55.74429422,-21.12651864],[55.74148006,-21.13037239],[55.73973891,-21.1370129],[55.74229325,-21.14833598],[55.74148034,-21.15371141],[55.73604197,-21.16088621],[55.72823115,-21.16792283],[55.71569873,-21.17245071],[55.69189187,-21.14585813],[55.66227427,-21.11283893],[55.65592197,-21.10580925],[55.65585524,-21.10573645],[55.64934192,-21.1028454],[55.64480503,-21.10272609],[55.63645125,-21.10661133],[55.63342835,-21.11145701],[55.62642174,-21.1179434],[55.61362839,-21.12357642],[55.60793248,-21.12595883],[55.60053516,-21.1279259],[55.59220729,-21.12727333],[55.58963864,-21.12543081],[55.58456268,-21.12483834],[55.57994963,-21.12659558],[55.57616561,-21.12924403],[55.57270676,-21.13351393],[55.56656446,-21.13705914],[55.55531869,-21.13861216],[55.54227842,-21.13637575]]]]}},{"type":"Feature","properties":{"code":"97411","nom":"Saint-Denis","departement":"974","region":"04"},"geometry":{"type":"MultiPolygon","coordinates":[[[[55.43324382,-20.99050176],[55.42296665,-20.98542965],[55.41342396,-20.98264283],[55.40849161,-20.97948312],[55.40504163,-20.97604449],[55.4052708,-20.9642332],[55.40707197,-20.95679414],[55.40342239,-20.95091742],[55.39618183,-20.94330959],[55.39170083,-20.93252259],[55.39092534,-20.93212234],[55.39085277,-20.93207559],[55.38866038,-20.92571371],[55.38189414,-20.91502505],[55.37777727,-20.90647417],[55.37567197,-20.89603005],[55.39294754,-20.88437628],[55.4046478,-20.87938575],[55.41070299,-20.8780194],[55.42150706,-20.87435262],[55.42784069,-20.87381386],[55.43435363,-20.87433339],[55.43654016,-20.87535789],[55.43970563,-20.87633709],[55.44209754,-20.87599937],[55.44534705,-20.87507503],[55.4465966,-20.87347845],[55.45121134,-20.87428542],[55.45597086,-20.87588489],[55.45708993,-20.87698441],[55.46207764,-20.88007085],[55.46754637,-20.88341983],[55.46776693,-20.88347059],[55.47084528,-20.88454963],[55.47329142,-20.8844667],[55.47929562,-20.88489238],[55.48426118,-20.88575851],[55.48898607,-20.8858988],[55.50208729,-20.88243052],[55.50485521,-20.8965388],[55.50585693,-20.90478426],[55.50782217,-20.91224138],[55.51312043,-20.92315574],[55.50957821,-20.92764699],[55.50454377,-20.93123891],[55.50259896,-20.93401137],[55.49952175,-20.94282532],[55.49484219,-20.95316343],[55.4944976,-20.95694356],[55.49501593,-20.95771327],[55.49468914,-20.96086663],[55.49345839,-20.96190092],[55.49050163,-20.97143294],[55.49046447,-20.98116511],[55.48509904,-20.99140641],[55.47772713,-21.00184093],[55.47183331,-21.00844651],[55.46891735,-21.00978161],[55.46757958,-21.01030975],[55.46541202,-21.0112658],[55.46109154,-21.01502524],[55.45570015,-21.00644364],[55.44414922,-20.9964697],[55.44408168,-20.99639681],[55.44002782,-20.99254502],[55.43324382,-20.99050176]]]]}},{"type":"Feature","properties":{"code":"97412","nom":"Saint-Joseph","departement":"974","region":"04"},"geometry":{"type":"MultiPolygon","coordinates":[[[[55.60302921,-21.383939],[55.58950316,-21.37430931],[55.58316692,-21.37241497],[55.58225997,-21.3686522],[55.58260775,-21.3650825],[55.58308207,-21.3642943],[55.58706709,-21.36325112],[55.58967143,-21.35855045],[55.5890858,-21.3570713],[55.58941632,-21.33915753],[55.58694502,-21.33413776],[55.58622121,-21.32807397],[55.58674365,-21.3276818],[55.58783909,-21.32463596],[55.58728392,-21.3202899],[55.58983515,-21.31389407],[55.59931018,-21.30690558],[55.60545405,-21.29745626],[55.60545722,-21.29742647],[55.60389732,-21.29072164],[55.60439676,-21.28784595],[55.60467677,-21.28595488],[55.60165681,-21.2726255],[55.60025964,-21.25292296],[55.60135788,-21.24631783],[55.60486302,-21.24164498],[55.60500188,-21.22975365],[55.60757972,-21.22291947],[55.61553201,-21.20947265],[55.62872829,-21.19878348],[55.63952354,-21.19596106],[55.64904885,-21.20172233],[55.65413671,-21.21227622],[55.65500066,-21.21697604],[55.65372297,-21.22379703],[55.64697318,-21.23435023],[55.64737794,-21.23645287],[55.6492835,-21.23722515],[55.67881275,-21.23994688],[55.67830386,-21.24579667],[55.68205906,-21.263877],[55.68593819,-21.27069605],[55.68941634,-21.273641],[55.69469506,-21.27537759],[55.69050207,-21.28839047],[55.68855523,-21.29945319],[55.68878128,-21.31264939],[55.69315024,-21.32147666],[55.69920621,-21.33706047],[55.69854756,-21.34482965],[55.69771159,-21.34580873],[55.69998521,-21.35544075],[55.70076288,-21.35757869],[55.70417713,-21.36102879],[55.70531841,-21.36624363],[55.70485847,-21.3728147],[55.70112763,-21.37559619],[55.70042901,-21.37640109],[55.68132523,-21.3745655],[55.67956211,-21.37501053],[55.6665893,-21.38344184],[55.65697831,-21.38363797],[55.64978891,-21.38711954],[55.64393601,-21.3855791],[55.6395254,-21.38317665],[55.63271353,-21.38252778],[55.62361294,-21.3833341],[55.61927931,-21.38531382],[55.61240367,-21.38641876],[55.61233318,-21.38642721],[55.60302921,-21.383939]]]]}},{"type":"Feature","properties":{"code":"97413","nom":"Saint-Leu","departement":"974","region":"04"},"geometry":{"type":"MultiPolygon","coordinates":[[[[55.29224009,-21.2246731],[55.28752662,-21.21515033],[55.28303046,-21.19995911],[55.28480261,-21.19379261],[55.28686105,-21.18508183],[55.28695645,-21.18081497],[55.2863002,-21.16940032],[55.28530322,-21.16850865],[55.28526108,-21.16773685],[55.28610894,-21.16861617],[55.28593702,-21.16556778],[55.28741474,-21.1630085],[55.28621231,-21.15997496],[55.28147057,-21.15341987],[55.27415884,-21.1506574],[55.27220527,-21.14833148],[55.2711183,-21.14210426],[55.27148877,-21.13556495],[55.28110848,-21.13331443],[55.2903351,-21.12930437],[55.29292553,-21.12764142],[55.29864201,-21.12705492],[55.30179677,-21.12671715],[55.30552807,-21.12401584],[55.3255207,-21.11727758],[55.32698744,-21.11756486],[55.33021071,-21.11667532],[55.33238706,-21.11755396],[55.33420243,-21.11739748],[55.34311669,-21.11504696],[55.35098197,-21.11421499],[55.36791585,-21.11499587],[55.37544401,-21.11727041],[55.39351468,-21.11838844],[55.41603185,-21.12273302],[55.4086808,-21.13128333],[55.4038989,-21.14016915],[55.40406313,-21.14110651],[55.4054774,-21.14498682],[55.40380641,-21.14574699],[55.39195473,-21.15608129],[55.38405612,-21.16546428],[55.37322447,-21.17657009],[55.34830733,-21.19931118],[55.34799442,-21.20025203],[55.34778581,-21.20125532],[55.34454075,-21.20402547],[55.34097393,-21.20902976],[55.33963385,-21.21077072],[55.33748402,-21.21178831],[55.33642028,-21.21645671],[55.33550065,-21.22312724],[55.33136976,-21.23007404],[55.32662907,-21.23587204],[55.32396285,-21.24102482],[55.32344502,-21.24609052],[55.32057306,-21.2490508],[55.31036953,-21.23984863],[55.29741116,-21.23340824],[55.29358379,-21.23021274],[55.29323531,-21.22859963],[55.29224009,-21.2246731]]]]}},{"type":"Feature","properties":{"code":"97414","nom":"Saint-Louis","departement":"974","region":"04"},"geometry":{"type":"MultiPolygon","coordinates":[[[[55.42002774,-21.29466771],[55.40526221,-21.30187387],[55.40420609,-21.30327567],[55.39732005,-21.29599489],[55.39118146,-21.29262584],[55.39163588,-21.29143154],[55.38294143,-21.28491246],[55.38342127,-21.27778034],[55.38741062,-21.27233484],[55.38906695,-21.26969868],[55.38895097,-21.26672039],[55.38880486,-21.26411938],[55.39214925,-21.2607785],[55.39285616,-21.25779361],[55.38913236,-21.24286579],[55.38765279,-21.23052015],[55.38796463,-21.22850973],[55.39072219,-21.21488845],[55.39034198,-21.20961963],[55.38929652,-21.20556478],[55.38755933,-21.20516431],[55.38388474,-21.20240581],[55.38221979,-21.19581944],[55.38593238,-21.18575088],[55.38734064,-21.18564509],[55.38843785,-21.18357982],[55.38929251,-21.17945456],[55.39422747,-21.16846521],[55.39749871,-21.16641507],[55.39937158,-21.16428028],[55.40287105,-21.15243063],[55.40554959,-21.14741734],[55.41131485,-21.15891715],[55.41806,-21.16899966],[55.4240127,-21.17406129],[55.43054507,-21.18227247],[55.43238105,-21.18498403],[55.43723206,-21.18638029],[55.4375935,-21.18956233],[55.43755144,-21.1899901],[55.45424256,-21.1919737],[55.46204822,-21.19494272],[55.46236466,-21.20885012],[55.46341951,-21.2156399],[55.46235648,-21.21801042],[55.46058381,-21.22210698],[55.45915811,-21.23619445],[55.46192433,-21.24853254],[55.46429743,-21.25439941],[55.4641735,-21.25687241],[55.46107002,-21.26917769],[55.45963714,-21.27037049],[55.45699833,-21.2708558],[55.45549089,-21.28583301],[55.44999088,-21.28690797],[55.44908303,-21.28745513],[55.44392587,-21.28973621],[55.44081115,-21.29126104],[55.42417173,-21.29362805],[55.42002774,-21.29466771]]]]}},{"type":"Feature","properties":{"code":"97415","nom":"Saint-Paul","departement":"974","region":"04"},"geometry":{"type":"MultiPolygon","coordinates":[[[[55.26743638,-21.10848582],[55.25420551,-21.10967511],[55.23193861,-21.09227201],[55.22180717,-21.07931401],[55.22052646,-21.07549798],[55.22177533,-21.06054631],[55.22329616,-21.05596657],[55.22633463,-21.05411509],[55.22622709,-21.05352777],[55.22377339,-21.05499607],[55.22321513,-21.0550923],[55.22252978,-21.05487106],[55.22364998,-21.05501646],[55.22405539,-21.05361075],[55.21794835,-21.04391109],[55.21657187,-21.03943919],[55.21703162,-21.03686438],[55.22316615,-21.03124456],[55.23507608,-21.01819756],[55.24672209,-21.01997727],[55.25249161,-21.01770898],[55.25262813,-21.01763271],[55.2547527,-21.01667901],[55.25493503,-21.01663391],[55.26399721,-21.01177862],[55.27082299,-21.00661919],[55.27595834,-21.00120387],[55.27841082,-20.99737359],[55.27998026,-20.99303483],[55.28113274,-20.98528565],[55.28264237,-20.978166],[55.2823457,-20.97147435],[55.27732038,-20.95783493],[55.28038633,-20.95771865],[55.28513738,-20.95613611],[55.29758606,-20.95691303],[55.30056718,-20.95792192],[55.30975285,-20.96062912],[55.3132913,-20.96323309],[55.31616399,-20.96673278],[55.31885573,-20.96905278],[55.33031009,-20.97081569],[55.35178216,-20.97476164],[55.35605971,-20.97619222],[55.37120972,-20.98865324],[55.37280849,-20.99103154],[55.37282641,-20.9928392],[55.37318183,-20.99527968],[55.37592494,-20.9984954],[55.38113798,-20.99925144],[55.38907121,-21.00288931],[55.39024845,-21.00424998],[55.39251113,-21.00468056],[55.39881395,-21.00818155],[55.40117442,-21.01181063],[55.40358398,-21.01833973],[55.40066317,-21.03232336],[55.4029999,-21.03722315],[55.40173934,-21.04967771],[55.40900332,-21.05763982],[55.41587985,-21.0628204],[55.41746216,-21.06561732],[55.41739105,-21.0677909],[55.40474553,-21.08124546],[55.40397407,-21.08427057],[55.41269061,-21.09047579],[55.41723102,-21.09471856],[55.42075237,-21.09659231],[55.42217124,-21.09667597],[55.43155195,-21.09211912],[55.43769507,-21.09273406],[55.44237699,-21.08948457],[55.44867151,-21.08700847],[55.45496522,-21.0856161],[55.46393911,-21.08574366],[55.45972297,-21.0903611],[55.45360911,-21.10104672],[55.42595906,-21.11664879],[55.42394659,-21.11714948],[55.42256913,-21.11613491],[55.42088426,-21.11451587],[55.41596057,-21.1124917],[55.40917792,-21.10814294],[55.40279751,-21.10285378],[55.39976535,-21.09926532],[55.39965102,-21.09924527],[55.38871892,-21.09785365],[55.37855447,-21.09865372],[55.35599566,-21.0945235],[55.33228162,-21.0941655],[55.32533941,-21.09336815],[55.322477,-21.09199309],[55.32058226,-21.09213061],[55.30809845,-21.09268127],[55.29043904,-21.0988947],[55.28582371,-21.09999162],[55.27556576,-21.1029442],[55.26743638,-21.10848582]]]]}},{"type":"Feature","properties":{"code":"97416","nom":"Saint-Pierre","departement":"974","region":"04"},"geometry":{"type":"MultiPolygon","coordinates":[[[[55.47524912,-21.34431263],[55.47569463,-21.34589201],[55.47713683,-21.3456332],[55.47721583,-21.34479928],[55.47867035,-21.34586841],[55.47863858,-21.34605058],[55.47750345,-21.34505029],[55.47717775,-21.34596508],[55.47493068,-21.34638821],[55.47495109,-21.34460169],[55.47180375,-21.34453515],[55.47012221,-21.34463004],[55.46700808,-21.34341021],[55.46177878,-21.34180786],[55.45662787,-21.33825406],[55.45618184,-21.33812802],[55.45476011,-21.3352407],[55.45010827,-21.33157297],[55.44475973,-21.32835395],[55.43956975,-21.3275769],[55.42926387,-21.32605463],[55.42487829,-21.32435428],[55.41747025,-21.31999234],[55.4114593,-21.31438956],[55.40420609,-21.30327567],[55.40526221,-21.30187387],[55.42002774,-21.29466771],[55.42417173,-21.29362805],[55.44081115,-21.29126104],[55.44392587,-21.28973621],[55.44908303,-21.28745513],[55.44999088,-21.28690797],[55.45549089,-21.28583301],[55.46137562,-21.28260433],[55.46651804,-21.27546824],[55.47066298,-21.26567805],[55.47173345,-21.2572907],[55.4722732,-21.25709055],[55.47550884,-21.2564496],[55.47944075,-21.25453127],[55.4864354,-21.26000501],[55.49288953,-21.26835971],[55.49631505,-21.2715275],[55.49756411,-21.27389085],[55.50001945,-21.27942561],[55.50003269,-21.27945102],[55.50414362,-21.28369067],[55.50419918,-21.28372368],[55.51435614,-21.28952072],[55.51649874,-21.29172923],[55.5166221,-21.29326775],[55.51201282,-21.29759004],[55.5095674,-21.29788275],[55.50977335,-21.30078238],[55.51667782,-21.29991298],[55.52276155,-21.3041949],[55.53132812,-21.31242229],[55.5313472,-21.31244233],[55.53226493,-21.31341056],[55.53481829,-21.31654473],[55.54633134,-21.31127172],[55.55435048,-21.30548372],[55.56640829,-21.29904593],[55.57132462,-21.29750873],[55.57338861,-21.29608092],[55.5781467,-21.28913214],[55.57878699,-21.28719539],[55.58174875,-21.28429178],[55.59001932,-21.28034231],[55.59291337,-21.27793294],[55.5976638,-21.27386871],[55.60165681,-21.2726255],[55.60467677,-21.28595488],[55.60439676,-21.28784595],[55.59802738,-21.28889419],[55.59402273,-21.29070269],[55.58447071,-21.30430806],[55.58251436,-21.30355719],[55.58118561,-21.30550982],[55.58063776,-21.30945635],[55.57901396,-21.31080666],[55.57296542,-21.31215471],[55.5585921,-21.31691549],[55.54687013,-21.32244678],[55.54369758,-21.32673085],[55.54504724,-21.33201609],[55.54370521,-21.33474873],[55.54395403,-21.33542476],[55.5443488,-21.33626013],[55.54328014,-21.33922818],[55.53875808,-21.34955531],[55.53831404,-21.35573099],[55.53637407,-21.36057028],[55.53638042,-21.36332813],[55.53318113,-21.3634899],[55.52874471,-21.36248454],[55.51795501,-21.35808088],[55.51612613,-21.35814151],[55.50678869,-21.35303819],[55.50678386,-21.35303905],[55.50489617,-21.3532002],[55.50124347,-21.35065557],[55.4917208,-21.3503743],[55.48897057,-21.35040107],[55.48267127,-21.34900289],[55.48034738,-21.34677333],[55.47902167,-21.34377685],[55.47524912,-21.34431263]]]]}},{"type":"Feature","properties":{"code":"97417","nom":"Saint-Philippe","departement":"974","region":"04"},"geometry":{"type":"MultiPolygon","coordinates":[[[[55.73596386,-21.36860733],[55.72983046,-21.3693605],[55.71644794,-21.37492907],[55.70042901,-21.37640109],[55.70112763,-21.37559619],[55.70485847,-21.3728147],[55.70531841,-21.36624363],[55.70417713,-21.36102879],[55.70076288,-21.35757869],[55.69998521,-21.35544075],[55.69771159,-21.34580873],[55.69854756,-21.34482965],[55.69920621,-21.33706047],[55.69315024,-21.32147666],[55.68878128,-21.31264939],[55.68855523,-21.29945319],[55.69050207,-21.28839047],[55.69469506,-21.27537759],[55.68941634,-21.273641],[55.68593819,-21.27069605],[55.68205906,-21.263877],[55.67830386,-21.24579667],[55.67881275,-21.23994688],[55.80430268,-21.25201479],[55.80232542,-21.26391016],[55.80309228,-21.2752676],[55.80774932,-21.28688661],[55.80593753,-21.2924558],[55.80472833,-21.300734],[55.80428979,-21.31180278],[55.80595964,-21.32550094],[55.80855001,-21.33174725],[55.80664392,-21.33697878],[55.79961061,-21.34696255],[55.79582527,-21.35068538],[55.78779119,-21.35577865],[55.78033777,-21.36184053],[55.77523171,-21.36446922],[55.76994052,-21.36545586],[55.76311178,-21.36359804],[55.75897032,-21.3634148],[55.75337532,-21.36519635],[55.75251599,-21.36645558],[55.75005716,-21.3674319],[55.74348972,-21.36888154],[55.74011032,-21.3692302],[55.73596386,-21.36860733]]]]}},{"type":"Feature","properties":{"code":"97418","nom":"Sainte-Marie","departement":"974","region":"04"},"geometry":{"type":"MultiPolygon","coordinates":[[[[55.50499818,-21.00005647],[55.50098272,-21.00046831],[55.49034378,-21.00350432],[55.47224811,-21.01022346],[55.46891735,-21.00978161],[55.47183331,-21.00844651],[55.47772713,-21.00184093],[55.48509904,-20.99140641],[55.49046447,-20.98116511],[55.49050163,-20.97143294],[55.49345839,-20.96190092],[55.49468914,-20.96086663],[55.49501593,-20.95771327],[55.4944976,-20.95694356],[55.49484219,-20.95316343],[55.49952175,-20.94282532],[55.50259896,-20.93401137],[55.50454377,-20.93123891],[55.50957821,-20.92764699],[55.51312043,-20.92315574],[55.50782217,-20.91224138],[55.50585693,-20.90478426],[55.50485521,-20.8965388],[55.50208729,-20.88243052],[55.50404869,-20.88227786],[55.51095319,-20.88391447],[55.51450496,-20.88576199],[55.53475692,-20.89102806],[55.53645214,-20.89137231],[55.538352,-20.89321786],[55.54168922,-20.8945463],[55.54809351,-20.89522865],[55.55181858,-20.89482303],[55.55469868,-20.89300907],[55.55688385,-20.89178541],[55.55917868,-20.89155635],[55.57190176,-20.89302088],[55.5752603,-20.89467225],[55.57586216,-20.89812722],[55.57191472,-20.91602425],[55.57197384,-20.91688836],[55.57304299,-20.92663465],[55.57735528,-20.9370268],[55.57733812,-20.94006466],[55.56666734,-20.95339655],[55.55897272,-20.96908531],[55.54068784,-21.00410785],[55.52303072,-21.00643791],[55.51747863,-21.00842485],[55.5119215,-21.00178831],[55.50499818,-21.00005647]]]]}},{"type":"Feature","properties":{"code":"97419","nom":"Sainte-Rose","departement":"974","region":"04"},"geometry":{"type":"MultiPolygon","coordinates":[[[[55.8257929,-21.18608841],[55.82487934,-21.18991701],[55.82505848,-21.20173747],[55.82235274,-21.20716704],[55.81421182,-21.21396778],[55.81290974,-21.22077476],[55.80872801,-21.22693085],[55.80430268,-21.25201479],[55.67881275,-21.23994688],[55.6492835,-21.23722515],[55.64737794,-21.23645287],[55.64697318,-21.23435023],[55.65372297,-21.22379703],[55.65500066,-21.21697604],[55.65413671,-21.21227622],[55.65739502,-21.20586212],[55.66067019,-21.20352855],[55.674547,-21.19173168],[55.68019914,-21.18827809],[55.68614468,-21.18603799],[55.68821929,-21.18681745],[55.6950747,-21.18591566],[55.70402186,-21.1773067],[55.70712739,-21.17549843],[55.71569873,-21.17245071],[55.72823115,-21.16792283],[55.73604197,-21.16088621],[55.74148034,-21.15371141],[55.74229325,-21.14833598],[55.73973891,-21.1370129],[55.74148006,-21.13037239],[55.74429422,-21.12651864],[55.74557816,-21.12600419],[55.74638574,-21.12591893],[55.7502978,-21.11867191],[55.75436807,-21.11433849],[55.76733278,-21.10359794],[55.77004811,-21.10540458],[55.77241418,-21.10848064],[55.77908757,-21.12027935],[55.78179379,-21.12372723],[55.7852417,-21.12561661],[55.79189533,-21.12450151],[55.79803532,-21.12641703],[55.80408542,-21.13115756],[55.80822257,-21.13626205],[55.81297251,-21.13881953],[55.81830696,-21.13957505],[55.82212282,-21.14180414],[55.82679125,-21.14669599],[55.83068342,-21.15555826],[55.83346498,-21.16535505],[55.8345841,-21.17900602],[55.83189365,-21.1827131],[55.82664803,-21.18563],[55.8257929,-21.18608841]]]]}},{"type":"Feature","properties":{"code":"97420","nom":"Sainte-Suzanne","departement":"974","region":"04"},"geometry":{"type":"MultiPolygon","coordinates":[[[[55.63806157,-20.92865364],[55.64125088,-20.9298381],[55.6458471,-20.93539701],[55.64624648,-20.93685914],[55.6453049,-20.94136948],[55.64493963,-20.94178033],[55.64095388,-20.94442353],[55.6382181,-20.94696641],[55.63833025,-20.94775053],[55.63716227,-20.94972051],[55.6371603,-20.94972591],[55.6344782,-20.95110379],[55.6322877,-20.95372591],[55.62877693,-20.95590014],[55.62129245,-20.95437813],[55.61089626,-20.9633636],[55.59952927,-20.96770973],[55.59358404,-20.97095083],[55.5809198,-20.98636465],[55.57830815,-20.99125533],[55.57404902,-20.99345823],[55.55344154,-21.00664313],[55.54271387,-21.00568439],[55.54068784,-21.00410785],[55.55897272,-20.96908531],[55.56666734,-20.95339655],[55.57733812,-20.94006466],[55.57735528,-20.9370268],[55.57304299,-20.92663465],[55.57197384,-20.91688836],[55.57191472,-20.91602425],[55.57586216,-20.89812722],[55.5752603,-20.89467225],[55.58203647,-20.89754169],[55.58450287,-20.8975793],[55.59101068,-20.89586699],[55.59562855,-20.89755004],[55.61208976,-20.90639126],[55.62002713,-20.9101576],[55.62868984,-20.91064653],[55.63076469,-20.91254131],[55.62977912,-20.92577424],[55.63634147,-20.92906902],[55.63806157,-20.92865364]]]]}},{"type":"Feature","properties":{"code":"97421","nom":"Salazie","departement":"974","region":"04"},"geometry":{"type":"MultiPolygon","coordinates":[[[[55.5213046,-21.08432746],[55.51319211,-21.09434583],[55.50922127,-21.09591709],[55.50264796,-21.10013281],[55.49522733,-21.11140109],[55.49362154,-21.11035794],[55.49241305,-21.10801031],[55.48040604,-21.09978137],[55.47993074,-21.09541047],[55.47858398,-21.09353395],[55.46901782,-21.08737488],[55.46478597,-21.0856628],[55.45855328,-21.08179882],[55.44645932,-21.06935745],[55.44795841,-21.06558358],[55.45250493,-21.06089715],[55.45342926,-21.05870781],[55.45412925,-21.0555029],[55.45398474,-21.04312528],[55.45431806,-21.03954396],[55.45853109,-21.02845336],[55.46109154,-21.01502524],[55.46541202,-21.0112658],[55.46757958,-21.01030975],[55.46891735,-21.00978161],[55.47224811,-21.01022346],[55.49034378,-21.00350432],[55.50098272,-21.00046831],[55.50499818,-21.00005647],[55.5119215,-21.00178831],[55.51747863,-21.00842485],[55.52303072,-21.00643791],[55.54068784,-21.00410785],[55.54271387,-21.00568439],[55.55344154,-21.00664313],[55.57404902,-20.99345823],[55.57783397,-20.99714126],[55.58154677,-20.99972422],[55.58345028,-20.99964793],[55.58506205,-21.00133345],[55.56977155,-21.01412723],[55.56170403,-21.01910804],[55.55954002,-21.02324152],[55.55463274,-21.03765704],[55.55930559,-21.04072202],[55.56141935,-21.04525667],[55.56171476,-21.05917884],[55.56078933,-21.06434536],[55.55959159,-21.06629998],[55.55712695,-21.06898818],[55.55286904,-21.07159512],[55.55221984,-21.07304035],[55.55071062,-21.07543577],[55.53404691,-21.08042813],[55.524144,-21.07935404],[55.52258998,-21.0810704],[55.5213046,-21.08432746]]]]}},{"type":"Feature","properties":{"code":"97422","nom":"Le Tampon","departement":"974","region":"04"},"geometry":{"type":"MultiPolygon","coordinates":[[[[55.50001945,-21.27942561],[55.49756411,-21.27389085],[55.49631505,-21.2715275],[55.49288953,-21.26835971],[55.4864354,-21.26000501],[55.47944075,-21.25453127],[55.48872177,-21.24756806],[55.49216252,-21.24445084],[55.49145073,-21.24395218],[55.49172316,-21.23905237],[55.49979682,-21.23461776],[55.49977192,-21.23393644],[55.50095883,-21.23156135],[55.50818547,-21.22966341],[55.5116698,-21.22711251],[55.51280115,-21.21756813],[55.51401375,-21.21403419],[55.51065347,-21.20886562],[55.50905699,-21.20467279],[55.51090162,-21.2055418],[55.51461983,-21.20275439],[55.51560946,-21.2010793],[55.51570775,-21.18603268],[55.51944285,-21.18361654],[55.52323747,-21.18285662],[55.53040167,-21.18350081],[55.53112542,-21.17916753],[55.53052426,-21.17226451],[55.5282283,-21.1673964],[55.52561869,-21.15862406],[55.52262991,-21.14209062],[55.52694986,-21.13580678],[55.54227842,-21.13637575],[55.55531869,-21.13861216],[55.56656446,-21.13705914],[55.57270676,-21.13351393],[55.5886993,-21.15609699],[55.5895788,-21.16135185],[55.58853211,-21.16326905],[55.59122405,-21.17331138],[55.60026167,-21.17680108],[55.60571371,-21.18062303],[55.60601025,-21.18084047],[55.61629101,-21.18248864],[55.62717736,-21.17532258],[55.62988877,-21.17006988],[55.63425252,-21.16786667],[55.63822728,-21.16700801],[55.65368493,-21.19431206],[55.66067019,-21.20352855],[55.65739502,-21.20586212],[55.65413671,-21.21227622],[55.64904885,-21.20172233],[55.63952354,-21.19596106],[55.62872829,-21.19878348],[55.61553201,-21.20947265],[55.60757972,-21.22291947],[55.60500188,-21.22975365],[55.60486302,-21.24164498],[55.60135788,-21.24631783],[55.60025964,-21.25292296],[55.60165681,-21.2726255],[55.5976638,-21.27386871],[55.59291337,-21.27793294],[55.59001932,-21.28034231],[55.58174875,-21.28429178],[55.57878699,-21.28719539],[55.5781467,-21.28913214],[55.57338861,-21.29608092],[55.57132462,-21.29750873],[55.56640829,-21.29904593],[55.55435048,-21.30548372],[55.54633134,-21.31127172],[55.53481829,-21.31654473],[55.53226493,-21.31341056],[55.5313472,-21.31244233],[55.53132812,-21.31242229],[55.52276155,-21.3041949],[55.51667782,-21.29991298],[55.50977335,-21.30078238],[55.5095674,-21.29788275],[55.51201282,-21.29759004],[55.5166221,-21.29326775],[55.51649874,-21.29172923],[55.51435614,-21.28952072],[55.50419918,-21.28372368],[55.50414362,-21.28369067],[55.50003269,-21.27945102],[55.50001945,-21.27942561]]]]}},{"type":"Feature","properties":{"code":"97423","nom":"Les Trois-Bassins","departement":"974","region":"04"},"geometry":{"type":"MultiPolygon","coordinates":[[[[55.27148877,-21.13556495],[55.27067398,-21.13127706],[55.26519609,-21.1268963],[55.25651608,-21.11697179],[55.25420551,-21.10967511],[55.26743638,-21.10848582],[55.27556576,-21.1029442],[55.28582371,-21.09999162],[55.29043904,-21.0988947],[55.30809845,-21.09268127],[55.32058226,-21.09213061],[55.322477,-21.09199309],[55.32533941,-21.09336815],[55.33228162,-21.0941655],[55.35599566,-21.0945235],[55.37855447,-21.09865372],[55.38871892,-21.09785365],[55.39965102,-21.09924527],[55.39976535,-21.09926532],[55.40279751,-21.10285378],[55.40917792,-21.10814294],[55.41596057,-21.1124917],[55.42088426,-21.11451587],[55.42256913,-21.11613491],[55.41603185,-21.12273302],[55.39351468,-21.11838844],[55.37544401,-21.11727041],[55.36791585,-21.11499587],[55.35098197,-21.11421499],[55.34311669,-21.11504696],[55.33420243,-21.11739748],[55.33238706,-21.11755396],[55.33021071,-21.11667532],[55.32698744,-21.11756486],[55.3255207,-21.11727758],[55.30552807,-21.12401584],[55.30179677,-21.12671715],[55.29864201,-21.12705492],[55.29292553,-21.12764142],[55.2903351,-21.12930437],[55.28110848,-21.13331443],[55.27148877,-21.13556495]]]]}},{"type":"Feature","properties":{"code":"97424","nom":"Cilaos","departement":"974","region":"04"},"geometry":{"type":"MultiPolygon","coordinates":[[[[55.49766981,-21.16658391],[55.49533217,-21.17690518],[55.49133843,-21.18134821],[55.48592643,-21.1852509],[55.48089378,-21.18772507],[55.47408848,-21.19031858],[55.46922541,-21.19013458],[55.46204822,-21.19494272],[55.45424256,-21.1919737],[55.43755144,-21.1899901],[55.4375935,-21.18956233],[55.43723206,-21.18638029],[55.43238105,-21.18498403],[55.43054507,-21.18227247],[55.4240127,-21.17406129],[55.41806,-21.16899966],[55.41131485,-21.15891715],[55.40554959,-21.14741734],[55.4054774,-21.14498682],[55.40406313,-21.14110651],[55.4038989,-21.14016915],[55.4086808,-21.13128333],[55.41603185,-21.12273302],[55.42256913,-21.11613491],[55.42394659,-21.11714948],[55.42595906,-21.11664879],[55.45360911,-21.10104672],[55.45972297,-21.0903611],[55.46393911,-21.08574366],[55.46478597,-21.0856628],[55.46901782,-21.08737488],[55.47858398,-21.09353395],[55.47993074,-21.09541047],[55.48040604,-21.09978137],[55.49241305,-21.10801031],[55.49362154,-21.11035794],[55.49522733,-21.11140109],[55.50092664,-21.11663847],[55.5041584,-21.12230647],[55.50734421,-21.13383658],[55.50670669,-21.13971248],[55.50191267,-21.14775394],[55.50133214,-21.15118864],[55.50160359,-21.15875723],[55.49944099,-21.16245973],[55.49766981,-21.16658391]]]]}}]}