{"type":"FeatureCollection","features":[{"type":"Feature","properties":{"code":"97601","nom":"Acoua","departement":"976","region":"06"},"geometry":{"type":"MultiPolygon","coordinates":[[[[45.06824437,-12.71388538],[45.09577812,-12.71593231],[45.09511645,-12.7324295],[45.0821771,-12.73383548],[45.06927418,-12.73426781],[45.06507636,-12.73439457],[45.04319865,-12.74814786],[45.04982606,-12.73883523],[45.05470456,-12.73367167],[45.05801492,-12.72794139],[45.05525226,-12.72327675],[45.0499458,-12.71995363],[45.04724532,-12.71654043],[45.05117613,-12.7092285],[45.0514299,-12.70693879],[45.04965432,-12.70362309],[45.05157989,-12.70168392],[45.05935508,-12.7115237],[45.06414607,-12.71279673],[45.06824437,-12.71388538]]]]}},{"type":"Feature","properties":{"code":"97602","nom":"Bandraboua","departement":"976","region":"06"},"geometry":{"type":"MultiPolygon","coordinates":[[[[45.13751189,-12.73248684],[45.14637012,-12.72798507],[45.15039771,-12.74251109],[45.15434334,-12.75175605],[45.15886683,-12.76235521],[45.13986946,-12.75816012],[45.12576666,-12.75447591],[45.11513781,-12.74976128],[45.10060051,-12.74014016],[45.0983497,-12.73697509],[45.09511645,-12.7324295],[45.09577812,-12.71593231],[45.09763682,-12.71078622],[45.0941227,-12.70296809],[45.09351706,-12.70162001],[45.0908632,-12.69567974],[45.08865652,-12.69080544],[45.09053012,-12.68623362],[45.09190035,-12.68300934],[45.09624641,-12.67278839],[45.10146206,-12.67570732],[45.10360607,-12.67793015],[45.10096482,-12.68059521],[45.10226265,-12.68329041],[45.10630858,-12.68321648],[45.11141775,-12.68618679],[45.1134017,-12.69471433],[45.11701565,-12.69623197],[45.123379,-12.69969614],[45.12342036,-12.70524123],[45.12368802,-12.71017671],[45.12536357,-12.71221781],[45.12674543,-12.71262137],[45.12955924,-12.71591163],[45.13050904,-12.72156478],[45.12625443,-12.72369192],[45.12561606,-12.72740704],[45.12633006,-12.72762553],[45.13022441,-12.72879199],[45.13751189,-12.73248684]]]]}},{"type":"Feature","properties":{"code":"97603","nom":"Bandrele","departement":"976","region":"06"},"geometry":{"type":"MultiPolygon","coordinates":[[[[45.18512743,-12.97013999],[45.19899829,-12.97433822],[45.20360017,-12.97420806],[45.20434946,-12.97491281],[45.19500452,-12.98455496],[45.18939624,-12.98563699],[45.18594818,-12.98396477],[45.1811032,-12.98482182],[45.17913883,-12.98697896],[45.17752593,-12.99067671],[45.17758533,-12.99250782],[45.17216401,-12.97891488],[45.1672286,-12.97546831],[45.16087487,-12.97436549],[45.15684491,-12.97935228],[45.1451068,-12.97925963],[45.14465137,-12.97780039],[45.14089353,-12.96562282],[45.15629566,-12.96212445],[45.15706756,-12.95946272],[45.15936713,-12.95090058],[45.16071528,-12.94406255],[45.16273342,-12.93409893],[45.16407216,-12.92723918],[45.16530337,-12.92096546],[45.16686798,-12.91295983],[45.16666891,-12.91163881],[45.1663956,-12.90955734],[45.16448413,-12.89463078],[45.16358645,-12.88771996],[45.16268737,-12.87999439],[45.16908204,-12.8811026],[45.17800074,-12.88656846],[45.19397367,-12.8855814],[45.20081521,-12.88267262],[45.22196053,-12.87233598],[45.21380554,-12.88762319],[45.21019174,-12.89135082],[45.20750945,-12.89247606],[45.19964573,-12.89569778],[45.19795084,-12.89717755],[45.19630913,-12.90068828],[45.1953587,-12.90534962],[45.19473269,-12.90402623],[45.19402562,-12.90755071],[45.19610875,-12.90733213],[45.19672527,-12.91300778],[45.2011251,-12.91636923],[45.20356126,-12.91944368],[45.20510684,-12.92011796],[45.20018605,-12.92023029],[45.19507963,-12.91754485],[45.1876957,-12.91642082],[45.18512159,-12.91849435],[45.18400837,-12.92153168],[45.1850005,-12.92430891],[45.18165117,-12.92535931],[45.16978893,-12.9438244],[45.16874067,-12.94928779],[45.17035157,-12.95233414],[45.17764361,-12.9655063],[45.18512743,-12.97013999]]]]}},{"type":"Feature","properties":{"code":"97604","nom":"Bouéni","departement":"976","region":"06"},"geometry":{"type":"MultiPolygon","coordinates":[[[[45.07997052,-12.96291866],[45.07877814,-12.96226704],[45.08673333,-12.95701611],[45.09392753,-12.95414797],[45.10024033,-12.94710404],[45.10427548,-12.9331495],[45.10399186,-12.93171453],[45.10260406,-12.92863693],[45.1002891,-12.92611128],[45.09792031,-12.92490497],[45.09574474,-12.92507759],[45.09497078,-12.92619737],[45.09064431,-12.92856449],[45.08866579,-12.92818085],[45.08941683,-12.92732063],[45.08910094,-12.92563426],[45.08698689,-12.92246097],[45.08568044,-12.92200022],[45.08329001,-12.92191237],[45.08009483,-12.91329562],[45.07183254,-12.90089857],[45.07181647,-12.89947614],[45.07257503,-12.89922273],[45.07762525,-12.89844089],[45.07967911,-12.89885263],[45.09502479,-12.8983393],[45.09927472,-12.89964621],[45.10003133,-12.90151054],[45.10224887,-12.90306233],[45.10281629,-12.90430096],[45.10240673,-12.91722324],[45.10466991,-12.92173377],[45.11052694,-12.92473265],[45.1208301,-12.92907313],[45.124175,-12.93148145],[45.1252896,-12.93336723],[45.12640432,-12.93363436],[45.12364061,-12.93774471],[45.11946721,-12.94387944],[45.10564781,-12.94752872],[45.09342911,-12.96011455],[45.08357326,-12.96139292],[45.08253874,-12.96132995],[45.07997052,-12.96291866]]]]}},{"type":"Feature","properties":{"code":"97605","nom":"Chiconi","departement":"976","region":"06"},"geometry":{"type":"MultiPolygon","coordinates":[[[[45.11198032,-12.83662005],[45.10730423,-12.8363471],[45.10141024,-12.83474977],[45.10081717,-12.83347405],[45.10270093,-12.82693989],[45.10385,-12.8222869],[45.1044079,-12.81205834],[45.09983805,-12.80193575],[45.11599825,-12.80630496],[45.12190365,-12.80790106],[45.12430898,-12.82175264],[45.12584114,-12.83043754],[45.12192366,-12.83991716],[45.12129224,-12.83960095],[45.11198032,-12.83662005]]]]}},{"type":"Feature","properties":{"code":"97606","nom":"Chirongui","departement":"976","region":"06"},"geometry":{"type":"MultiPolygon","coordinates":[[[[45.13081402,-12.93578074],[45.13436372,-12.93636401],[45.14475248,-12.93573179],[45.15077644,-12.9313734],[45.15429318,-12.92487052],[45.14920127,-12.91179676],[45.14899687,-12.90910575],[45.14445155,-12.90298636],[45.1438655,-12.89851504],[45.14059468,-12.89460492],[45.14068159,-12.89674077],[45.14215205,-12.89876917],[45.14072932,-12.89802663],[45.14016526,-12.89484026],[45.13800622,-12.89098919],[45.13518009,-12.88922823],[45.13225798,-12.88889333],[45.1383594,-12.86943012],[45.14544317,-12.87063621],[45.15408796,-12.87423663],[45.16268737,-12.87999439],[45.16358645,-12.88771996],[45.16448413,-12.89463078],[45.1663956,-12.90955734],[45.16666891,-12.91163881],[45.16686798,-12.91295983],[45.16530337,-12.92096546],[45.16407216,-12.92723918],[45.16273342,-12.93409893],[45.16071528,-12.94406255],[45.15936713,-12.95090058],[45.15706756,-12.95946272],[45.15629566,-12.96212445],[45.14089353,-12.96562282],[45.13423538,-12.95668761],[45.12255331,-12.94645699],[45.11946721,-12.94387944],[45.12364061,-12.93774471],[45.12640432,-12.93363436],[45.13081402,-12.93578074]]]]}},{"type":"Feature","properties":{"code":"97607","nom":"Dembeni","departement":"976","region":"06"},"geometry":{"type":"MultiPolygon","coordinates":[[[[45.19397367,-12.8855814],[45.17800074,-12.88656846],[45.16908204,-12.8811026],[45.16268737,-12.87999439],[45.15408796,-12.87423663],[45.15227742,-12.861453],[45.15094462,-12.85204023],[45.14725997,-12.84087718],[45.14545907,-12.83580879],[45.13884233,-12.83415121],[45.1548195,-12.8195915],[45.1639791,-12.81953712],[45.17945182,-12.81944383],[45.19781838,-12.82221856],[45.1970492,-12.82256638],[45.1932184,-12.83086688],[45.18515873,-12.83850751],[45.18607603,-12.84023223],[45.18600411,-12.84143406],[45.18510289,-12.84153146],[45.18748764,-12.84364487],[45.18989936,-12.84234821],[45.19263122,-12.84276943],[45.19477682,-12.84657847],[45.1962393,-12.85122356],[45.20226666,-12.85818915],[45.20830236,-12.86370051],[45.21891803,-12.87124979],[45.2218629,-12.87136668],[45.22196053,-12.87233598],[45.20081521,-12.88267262],[45.19397367,-12.8855814]]]]}},{"type":"Feature","properties":{"code":"97608","nom":"Dzaoudzi","departement":"976","region":"06"},"geometry":{"type":"MultiPolygon","coordinates":[[[[45.27777283,-12.78997398],[45.27199531,-12.79210957],[45.27147489,-12.79312381],[45.27134609,-12.79330751],[45.25827222,-12.78400748],[45.25558254,-12.78377318],[45.25421716,-12.78293081],[45.25450741,-12.78111021],[45.25655854,-12.78040741],[45.25807676,-12.78206438],[45.25857264,-12.78406235],[45.26402967,-12.78743713],[45.27080383,-12.7859364],[45.27244663,-12.78595098],[45.27303627,-12.7859133],[45.27700117,-12.77348349],[45.27933971,-12.76697746],[45.28275117,-12.76191711],[45.28645997,-12.76086686],[45.29163907,-12.76704284],[45.29804377,-12.7834266],[45.29645333,-12.78406681],[45.28364079,-12.78805248],[45.28280816,-12.7883129],[45.27954734,-12.78907597],[45.27777283,-12.78997398]]]]}},{"type":"Feature","properties":{"code":"97609","nom":"Kani-Kéli","departement":"976","region":"06"},"geometry":{"type":"MultiPolygon","coordinates":[[[[45.15785496,-12.98870363],[45.1531299,-12.99598673],[45.14771929,-12.99995327],[45.14198232,-12.99952604],[45.13824954,-12.99135979],[45.13540754,-12.98962237],[45.12968572,-12.99478867],[45.1263305,-12.99383542],[45.12535207,-12.9918908],[45.12461376,-12.98142061],[45.1250427,-12.97991027],[45.11702281,-12.98072332],[45.1103096,-12.98809697],[45.10661999,-12.98537485],[45.10946178,-12.95977192],[45.10847599,-12.95725754],[45.10397624,-12.95853621],[45.10059681,-12.96238974],[45.09258692,-12.96651077],[45.08357326,-12.96139292],[45.09342911,-12.96011455],[45.10564781,-12.94752872],[45.11946721,-12.94387944],[45.12255331,-12.94645699],[45.13423538,-12.95668761],[45.14089353,-12.96562282],[45.14465137,-12.97780039],[45.1451068,-12.97925963],[45.15684491,-12.97935228],[45.15599356,-12.98039542],[45.15785496,-12.98870363]]]]}},{"type":"Feature","properties":{"code":"97610","nom":"Koungou","departement":"976","region":"06"},"geometry":{"type":"MultiPolygon","coordinates":[[[[45.19823607,-12.76587973],[45.18154549,-12.76537177],[45.17305485,-12.76404907],[45.15886683,-12.76235521],[45.15434334,-12.75175605],[45.15039771,-12.74251109],[45.14637012,-12.72798507],[45.14920028,-12.7285749],[45.15064991,-12.72966194],[45.14990341,-12.73219165],[45.15066019,-12.73459301],[45.15374559,-12.73670365],[45.15814882,-12.73510318],[45.16123738,-12.73190647],[45.16667009,-12.72849847],[45.17279228,-12.7273461],[45.18099632,-12.7289385],[45.19247142,-12.72915919],[45.20229837,-12.73028313],[45.20279864,-12.73038855],[45.2052817,-12.73101783],[45.20676598,-12.7324997],[45.20670135,-12.73345196],[45.20925533,-12.73515363],[45.20986313,-12.73493069],[45.21006639,-12.73565939],[45.21283354,-12.73996338],[45.21521566,-12.74201689],[45.21842867,-12.74182164],[45.2186335,-12.74327104],[45.22156586,-12.74448938],[45.22467708,-12.74375248],[45.22619827,-12.74508952],[45.2289075,-12.75012947],[45.22846136,-12.74983958],[45.23172312,-12.75250348],[45.2360035,-12.7527981],[45.22199232,-12.7581654],[45.21873856,-12.75941783],[45.21176676,-12.76210109],[45.20200346,-12.76498616],[45.19890863,-12.76590002],[45.19823607,-12.76587973]]]]}},{"type":"Feature","properties":{"code":"97611","nom":"Mamoudzou","departement":"976","region":"06"},"geometry":{"type":"MultiPolygon","coordinates":[[[[45.21583215,-12.79981083],[45.2139873,-12.80289051],[45.20944686,-12.80556449],[45.2060342,-12.80826917],[45.2051339,-12.80821019],[45.20307281,-12.80960981],[45.19781838,-12.82221856],[45.17945182,-12.81944383],[45.1639791,-12.81953712],[45.1548195,-12.8195915],[45.15345791,-12.80955658],[45.15257197,-12.80427157],[45.16300371,-12.79014766],[45.16764465,-12.78164992],[45.17175618,-12.77412183],[45.1725273,-12.77270974],[45.17305485,-12.76404907],[45.18154549,-12.76537177],[45.19823607,-12.76587973],[45.19890863,-12.76590002],[45.20200346,-12.76498616],[45.21176676,-12.76210109],[45.21873856,-12.75941783],[45.22199232,-12.7581654],[45.2360035,-12.7527981],[45.23790652,-12.76039507],[45.23761162,-12.76325468],[45.23673976,-12.76390021],[45.23140235,-12.76448006],[45.2270277,-12.77336299],[45.22909725,-12.77467332],[45.23230284,-12.77600795],[45.23283417,-12.77972407],[45.23476414,-12.78145134],[45.23543569,-12.78530479],[45.23023434,-12.78401987],[45.22900417,-12.78588919],[45.2274149,-12.78598822],[45.22632277,-12.78667642],[45.22564907,-12.78751707],[45.22294439,-12.79120431],[45.22209755,-12.79005207],[45.22052531,-12.78964013],[45.22262667,-12.7913791],[45.21820137,-12.7947413],[45.21681551,-12.79465835],[45.21621176,-12.7965515],[45.21597858,-12.79755815],[45.21583215,-12.79981083]]]]}},{"type":"Feature","properties":{"code":"97612","nom":"Mtsamboro","departement":"976","region":"06"},"geometry":{"type":"MultiPolygon","coordinates":[[[[45.0941227,-12.70296809],[45.09763682,-12.71078622],[45.09577812,-12.71593231],[45.06824437,-12.71388538],[45.06414607,-12.71279673],[45.05935508,-12.7115237],[45.05157989,-12.70168392],[45.06319817,-12.70131788],[45.06678802,-12.69951746],[45.07102524,-12.69407705],[45.07164293,-12.69290854],[45.07137797,-12.68407277],[45.07614866,-12.68367355],[45.07901919,-12.68287513],[45.08284859,-12.67964654],[45.08297311,-12.67740114],[45.08768481,-12.66649114],[45.09762049,-12.6582776],[45.10429179,-12.65426634],[45.1016042,-12.66252086],[45.09853891,-12.66377989],[45.09374524,-12.66823075],[45.09154753,-12.67247626],[45.09624641,-12.67278839],[45.09190035,-12.68300934],[45.09053012,-12.68623362],[45.08865652,-12.69080544],[45.0908632,-12.69567974],[45.09351706,-12.70162001],[45.0941227,-12.70296809]]],[[[45.02660111,-12.63659016],[45.0323226,-12.63928705],[45.03924189,-12.64566412],[45.03565694,-12.6522488],[45.02886845,-12.65519853],[45.02276855,-12.6465631],[45.02200753,-12.64210498],[45.02660111,-12.63659016]]]]}},{"type":"Feature","properties":{"code":"97613","nom":"M'Tsangamouji","departement":"976","region":"06"},"geometry":{"type":"MultiPolygon","coordinates":[[[[45.08110984,-12.76402095],[45.07894388,-12.76700666],[45.07518635,-12.76548041],[45.0647797,-12.75597278],[45.06025876,-12.75086191],[45.05039094,-12.75378301],[45.04319865,-12.74814786],[45.06507636,-12.73439457],[45.06927418,-12.73426781],[45.0821771,-12.73383548],[45.09511645,-12.7324295],[45.0983497,-12.73697509],[45.10060051,-12.74014016],[45.11513781,-12.74976128],[45.12576666,-12.75447591],[45.12115684,-12.75867576],[45.10169236,-12.7775944],[45.10336821,-12.77289779],[45.10208959,-12.76646249],[45.09945693,-12.76516222],[45.09579793,-12.76621888],[45.09191054,-12.77017109],[45.08746284,-12.7660174],[45.08708853,-12.76523712],[45.08110984,-12.76402095]]]]}},{"type":"Feature","properties":{"code":"97614","nom":"Ouangani","departement":"976","region":"06"},"geometry":{"type":"MultiPolygon","coordinates":[[[[45.15094462,-12.85204023],[45.15227742,-12.861453],[45.15408796,-12.87423663],[45.14544317,-12.87063621],[45.1383594,-12.86943012],[45.13073784,-12.86720679],[45.12819926,-12.85753859],[45.12349616,-12.8443067],[45.12192366,-12.83991716],[45.12584114,-12.83043754],[45.12430898,-12.82175264],[45.12190365,-12.80790106],[45.128055,-12.80921659],[45.13297613,-12.81026945],[45.1475888,-12.80579722],[45.15257197,-12.80427157],[45.15345791,-12.80955658],[45.1548195,-12.8195915],[45.13884233,-12.83415121],[45.14545907,-12.83580879],[45.14725997,-12.84087718],[45.15094462,-12.85204023]]]]}},{"type":"Feature","properties":{"code":"97615","nom":"Pamandzi","departement":"976","region":"06"},"geometry":{"type":"MultiPolygon","coordinates":[[[[45.28431043,-12.8109037],[45.27837836,-12.80442638],[45.27134609,-12.79330751],[45.27147489,-12.79312381],[45.27199531,-12.79210957],[45.27777283,-12.78997398],[45.27954734,-12.78907597],[45.28280816,-12.7883129],[45.28364079,-12.78805248],[45.29645333,-12.78406681],[45.28632183,-12.80099429],[45.28465164,-12.80376318],[45.28431043,-12.8109037]]]]}},{"type":"Feature","properties":{"code":"97616","nom":"Sada","departement":"976","region":"06"},"geometry":{"type":"MultiPolygon","coordinates":[[[[45.11709457,-12.87355676],[45.11454749,-12.86852105],[45.10655437,-12.8632796],[45.10388309,-12.86246772],[45.09973153,-12.85902312],[45.09631722,-12.85512695],[45.09630103,-12.85133892],[45.09817968,-12.85001074],[45.10129597,-12.84627307],[45.1018329,-12.84536948],[45.10478435,-12.84441431],[45.10634012,-12.84473108],[45.1082455,-12.84366506],[45.11160214,-12.84419809],[45.11740625,-12.84214736],[45.12129224,-12.83960095],[45.12192366,-12.83991716],[45.12349616,-12.8443067],[45.12819926,-12.85753859],[45.13073784,-12.86720679],[45.1383594,-12.86943012],[45.13225798,-12.88889333],[45.12338347,-12.88150881],[45.11709457,-12.87355676]]]]}},{"type":"Feature","properties":{"code":"97617","nom":"Tsingoni","departement":"976","region":"06"},"geometry":{"type":"MultiPolygon","coordinates":[[[[45.128055,-12.80921659],[45.12190365,-12.80790106],[45.11599825,-12.80630496],[45.09983805,-12.80193575],[45.09658574,-12.7907175],[45.09612857,-12.7854285],[45.0967387,-12.78349221],[45.09880756,-12.78215852],[45.10169236,-12.7775944],[45.12115684,-12.75867576],[45.12576666,-12.75447591],[45.13986946,-12.75816012],[45.15886683,-12.76235521],[45.17305485,-12.76404907],[45.1725273,-12.77270974],[45.17175618,-12.77412183],[45.16764465,-12.78164992],[45.16300371,-12.79014766],[45.15257197,-12.80427157],[45.1475888,-12.80579722],[45.13297613,-12.81026945],[45.128055,-12.80921659]]]]}}]}