{"type":"FeatureCollection","features":[{"type":"Feature","properties":{"code":"97501","nom":"Miquelon-Langlade","departement":"NR","region":"NR"},"geometry":{"type":"MultiPolygon","coordinates":[[[[-56.34928,46.78314],[-56.35024,46.78314],[-56.34966,46.78701],[-56.35085,46.79443],[-56.36216,46.79952],[-56.36872,46.79713],[-56.3742,46.79984],[-56.37311,46.80855],[-56.36986,46.82037],[-56.37042,46.82405],[-56.37786,46.82812],[-56.3812,46.82865],[-56.3881,46.82862],[-56.39795,46.82653],[-56.40061,46.82762],[-56.40475,46.8338],[-56.40506,46.8357],[-56.4046,46.83704],[-56.39162,46.84608],[-56.38299,46.85487],[-56.37504,46.85913],[-56.35972,46.86307],[-56.3501,46.86741],[-56.34654,46.87026],[-56.34336,46.87517],[-56.34144,46.88542],[-56.33575,46.89447],[-56.33263,46.895],[-56.33055,46.89695],[-56.32892,46.90191],[-56.32733,46.92073],[-56.32889,46.93471],[-56.33236,46.94937],[-56.33908,46.96853],[-56.35357,46.99684],[-56.35905,47.00497],[-56.36175,47.0073],[-56.36917,47.00993],[-56.37625,47.01349],[-56.38123,47.01794],[-56.38289,47.0214],[-56.38574,47.03241],[-56.38668,47.04609],[-56.3892,47.05344],[-56.38841,47.05736],[-56.38344,47.06523],[-56.3846,47.08124],[-56.38764,47.09292],[-56.39606,47.10247],[-56.39714,47.10821],[-56.39741,47.11462],[-56.39124,47.12567],[-56.37482,47.13179],[-56.37206,47.13145],[-56.36625,47.13306],[-56.35194,47.1404],[-56.35012,47.14222],[-56.34441,47.14425],[-56.34289,47.13411],[-56.34519,47.13236],[-56.35149,47.13002],[-56.36459,47.12113],[-56.37527,47.1178],[-56.38136,47.11339],[-56.38052,47.10698],[-56.36828,47.09516],[-56.38224,47.0938],[-56.38345,47.08454],[-56.3811,47.07151],[-56.36023,47.09576],[-56.35267,47.09828],[-56.34135,47.09539],[-56.33232,47.09087],[-56.32024,47.0821],[-56.30976,47.07676],[-56.29297,47.07102],[-56.26813,47.0657],[-56.25425,47.05988],[-56.2524,47.05136],[-56.25194,47.04118],[-56.25313,47.0345],[-56.26529,47.01187],[-56.27037,46.99904],[-56.28066,46.99063],[-56.28864,46.98801],[-56.29472,46.98831],[-56.29788,47.00169],[-56.30218,47.00215],[-56.30786,47.00155],[-56.31273,46.99892],[-56.31803,46.99792],[-56.32554,46.9988],[-56.33313,47.00111],[-56.35157,47.00367],[-56.35296,46.99755],[-56.34311,46.97908],[-56.33778,46.97364],[-56.33243,46.97175],[-56.32789,46.97272],[-56.32305,46.97586],[-56.31885,46.98007],[-56.31396,46.98281],[-56.30555,46.97584],[-56.31326,46.9671],[-56.31685,46.96151],[-56.32376,46.94117],[-56.32581,46.9263],[-56.32215,46.9104],[-56.31867,46.90436],[-56.31394,46.90025],[-56.2911,46.89352],[-56.28404,46.8921],[-56.27722,46.89408],[-56.27144,46.89461],[-56.26792,46.89274],[-56.24671,46.87884],[-56.23997,46.86963],[-56.23754,46.86435],[-56.23855,46.85487],[-56.24231,46.84545],[-56.24467,46.84273],[-56.25158,46.83845],[-56.25604,46.83443],[-56.26606,46.82947],[-56.27615,46.82272],[-56.28958,46.81894],[-56.29856,46.81248],[-56.31854,46.80276],[-56.32538,46.79707],[-56.32751,46.79387],[-56.34374,46.78528],[-56.34928,46.78314]]]]}},{"type":"Feature","properties":{"code":"97502","nom":"Saint-Pierre","departement":"NR","region":"NR"},"geometry":{"type":"MultiPolygon","coordinates":[[[[-56.16835,46.77466],[-56.16037,46.7711],[-56.15102,46.76817],[-56.15078,46.76472],[-56.15585,46.76222],[-56.16289,46.76036],[-56.16666,46.76082],[-56.1808,46.75842],[-56.18686,46.75918],[-56.19208,46.76134],[-56.19389,46.76462],[-56.21462,46.76138],[-56.21721,46.75949],[-56.21787,46.75731],[-56.22631,46.75876],[-56.23181,46.76335],[-56.23408,46.76692],[-56.21819,46.78861],[-56.20801,46.7967],[-56.2055,46.80038],[-56.1928,46.81042],[-56.17665,46.81389],[-56.16741,46.81479],[-56.1642,46.81465],[-56.16189,46.81341],[-56.15626,46.80978],[-56.15505,46.80698],[-56.15443,46.79858],[-56.16811,46.78501],[-56.16885,46.78122],[-56.17354,46.77797],[-56.16835,46.77466]]],[[[-56.14724,46.79097],[-56.13915,46.79211],[-56.13956,46.7906],[-56.14379,46.78867],[-56.1481,46.78397],[-56.1541,46.78447],[-56.15067,46.78649],[-56.14799,46.78838],[-56.14724,46.79097]]],[[[-56.16807,46.82513],[-56.16103,46.82521],[-56.15712,46.82312],[-56.16159,46.8209],[-56.16867,46.82029],[-56.17191,46.82069],[-56.174,46.8219],[-56.16807,46.82513]]]]}}]}