{"type":"FeatureCollection","features":[{"type":"Feature","properties":{"code":"75119","nom":"Paris 19e Arrondissement"},"geometry":{"type":"MultiPolygon","coordinates":[[[[2.37234136,48.87614877],[2.37057564,48.87773401],[2.37029029,48.87799062],[2.3702873,48.87846366],[2.37022044,48.8819635],[2.37016808,48.88268448],[2.37008365,48.88278746],[2.36871825,48.8839476],[2.36754674,48.88418333],[2.36471357,48.88436619],[2.36705983,48.887332],[2.36812752,48.88970106],[2.36954115,48.8929065],[2.37045718,48.8945274],[2.37179156,48.89539325],[2.37134411,48.89573804],[2.37031649,48.89871657],[2.3703018,48.90184791],[2.37977592,48.90204753],[2.38035008,48.90205859],[2.38487192,48.90207651],[2.3893324,48.90116135],[2.39083724,48.90090731],[2.39598519,48.89750701],[2.39823611,48.89264045],[2.39877232,48.89026085],[2.39894165,48.88953235],[2.39989362,48.88420414],[2.40365486,48.88167695],[2.40844012,48.88043623],[2.41082032,48.87843618],[2.40793408,48.87757207],[2.40658264,48.87711392],[2.40256232,48.87599853],[2.39920812,48.87553928],[2.39896599,48.8754913],[2.39792194,48.87546267],[2.39536794,48.87525464],[2.39522349,48.87524851],[2.39219285,48.87546249],[2.3920688,48.87546096],[2.38745208,48.8746649],[2.38569179,48.87409919],[2.3853856,48.87393484],[2.38308556,48.87347604],[2.38302841,48.87346675],[2.37983449,48.87285579],[2.37884759,48.87261325],[2.37690477,48.87204826],[2.37509244,48.8736774],[2.37453426,48.87417811],[2.37330071,48.87528504],[2.37234136,48.87614877]]]]}},{"type":"Feature","properties":{"code":"75118","nom":"Paris 18e Arrondissement"},"geometry":{"type":"MultiPolygon","coordinates":[[[[2.33230307,48.88386787],[2.32963779,48.88455895],[2.32742314,48.8835078],[2.32638169,48.88579794],[2.32559588,48.88750764],[2.32628372,48.88957546],[2.32663334,48.89059277],[2.32687601,48.89133788],[2.32744594,48.8930399],[2.32744988,48.89305162],[2.32829324,48.89555197],[2.32899205,48.89763242],[2.3290144,48.8976973],[2.32946655,48.89902273],[2.33014712,48.90104371],[2.33474291,48.90113857],[2.33517113,48.90114724],[2.34375595,48.90132049],[2.34412826,48.90132793],[2.34771495,48.90139967],[2.35198354,48.9014849],[2.35870284,48.90161819],[2.3656199,48.90175755],[2.3703018,48.90184791],[2.37031649,48.89871657],[2.37134411,48.89573804],[2.37179156,48.89539325],[2.37045718,48.8945274],[2.36954115,48.8929065],[2.36812752,48.88970106],[2.36705983,48.887332],[2.36471357,48.88436619],[2.3615003,48.88440665],[2.35934023,48.8844095],[2.35583024,48.88418382],[2.35124287,48.88385868],[2.34946499,48.88372492],[2.34690933,48.88341423],[2.34195931,48.88244463],[2.33955058,48.88206174],[2.33780046,48.88232547],[2.33777314,48.88232892],[2.33610946,48.88276307],[2.33274233,48.88374891],[2.33230307,48.88386787]]]]}},{"type":"Feature","properties":{"code":"75115","nom":"Paris 15e Arrondissement"},"geometry":{"type":"MultiPolygon","coordinates":[[[[2.27285261,48.82795732],[2.27109902,48.82789178],[2.26782645,48.82783582],[2.26733861,48.83153198],[2.26993076,48.83301113],[2.26778887,48.83458543],[2.26499275,48.83423731],[2.26279152,48.83392337],[2.28007306,48.85028925],[2.28807416,48.85595723],[2.28969568,48.85818288],[2.2910533,48.85747504],[2.29538134,48.8547072],[2.29930074,48.85219403],[2.30091162,48.85117638],[2.30365955,48.8495052],[2.30604152,48.84797934],[2.30735415,48.84713345],[2.31032513,48.84793306],[2.31123557,48.84750931],[2.31197212,48.84704408],[2.31371587,48.84594338],[2.31671255,48.84686349],[2.31914206,48.8455193],[2.3201205,48.84509677],[2.32319268,48.84409072],[2.32429836,48.84372913],[2.32464177,48.84362134],[2.32424446,48.84326205],[2.32154882,48.84109821],[2.32183282,48.84010962],[2.31987747,48.84053921],[2.31738577,48.83843308],[2.31290004,48.83485398],[2.31276926,48.83474981],[2.31066772,48.83305678],[2.30458755,48.82785826],[2.30131542,48.82512576],[2.29697096,48.82608422],[2.29229295,48.8271188],[2.29219184,48.82714158],[2.28940766,48.82833384],[2.28468371,48.8303068],[2.28039132,48.83197908],[2.27911085,48.83246512],[2.27285261,48.82795732]]]]}},{"type":"Feature","properties":{"code":"75114","nom":"Paris 14e Arrondissement"},"geometry":{"type":"MultiPolygon","coordinates":[[[[2.3141457,48.82229054],[2.30834832,48.82356305],[2.30695904,48.82386799],[2.3068634,48.82388992],[2.30406672,48.82452663],[2.30209958,48.82495316],[2.30131542,48.82512576],[2.30458755,48.82785826],[2.31066772,48.83305678],[2.31276926,48.83474981],[2.31290004,48.83485398],[2.31738577,48.83843308],[2.31987747,48.84053921],[2.32183282,48.84010962],[2.32154882,48.84109821],[2.32424446,48.84326205],[2.32464177,48.84362134],[2.32957485,48.84199426],[2.32983213,48.84190756],[2.33486206,48.84024663],[2.33665699,48.83967111],[2.33755248,48.83943054],[2.33969467,48.83886409],[2.34208557,48.83834304],[2.3416719,48.83538904],[2.3412636,48.8330925],[2.34107206,48.83197173],[2.34115748,48.83178783],[2.34128286,48.83027487],[2.34159221,48.82649021],[2.3417957,48.82644816],[2.34178521,48.82641572],[2.34154226,48.82462103],[2.34204661,48.82210914],[2.34250577,48.82144882],[2.34458682,48.81939887],[2.3439025,48.815767],[2.33727515,48.81655788],[2.33189806,48.81701093],[2.33246104,48.81824713],[2.3292964,48.81895073],[2.32550344,48.8197874],[2.32396413,48.82012407],[2.32103974,48.82076765],[2.3146156,48.8221871],[2.3141457,48.82229054]]]]}},{"type":"Feature","properties":{"code":"75111","nom":"Paris 11e Arrondissement"},"geometry":{"type":"MultiPolygon","coordinates":[[[[2.36822904,48.85694328],[2.36783452,48.85856812],[2.3676122,48.85947888],[2.36732784,48.86067171],[2.36725173,48.86099058],[2.36688886,48.86247348],[2.36542606,48.86528787],[2.36485819,48.86624806],[2.36387212,48.86751629],[2.364356,48.86774459],[2.36541979,48.86815314],[2.36706444,48.86866548],[2.36761059,48.86881946],[2.36783586,48.86890429],[2.36935839,48.8694852],[2.37104533,48.8700022],[2.37154371,48.8701631],[2.37289664,48.8705704],[2.3746635,48.87124875],[2.37588673,48.87167603],[2.37690477,48.87204826],[2.37829011,48.87077481],[2.37919565,48.87006274],[2.38057589,48.86898079],[2.38236681,48.86763384],[2.38306914,48.8670349],[2.38391313,48.86598343],[2.3872011,48.86308644],[2.38737779,48.86289848],[2.38887926,48.85981691],[2.38954644,48.85848029],[2.38981909,48.85835937],[2.39434509,48.85651982],[2.39601279,48.85433114],[2.39707906,48.85299109],[2.39839462,48.85130154],[2.39875597,48.85033835],[2.39924719,48.84886588],[2.39912113,48.8480981],[2.39751565,48.84823482],[2.39197313,48.84896853],[2.38949672,48.84934624],[2.38470753,48.85008436],[2.38445764,48.85012714],[2.38142625,48.85040829],[2.38011471,48.85045547],[2.37938717,48.85055512],[2.37855547,48.8507037],[2.37780508,48.85089046],[2.37381258,48.85187421],[2.37025513,48.85327112],[2.36912388,48.85316623],[2.36896567,48.8538516],[2.36849089,48.85580519],[2.36822904,48.85694328]]]]}},{"type":"Feature","properties":{"code":"75110","nom":"Paris 10e Arrondissement"},"geometry":{"type":"MultiPolygon","coordinates":[[[[2.35266135,48.86968475],[2.35204753,48.86982172],[2.34791823,48.87068785],[2.3478836,48.87247374],[2.34790107,48.8740189],[2.34866612,48.87662035],[2.34899555,48.87720761],[2.34909504,48.87742939],[2.34953039,48.87968998],[2.34983598,48.8810973],[2.34946499,48.88372492],[2.35124287,48.88385868],[2.35583024,48.88418382],[2.35934023,48.8844095],[2.3615003,48.88440665],[2.36471357,48.88436619],[2.36754674,48.88418333],[2.36871825,48.8839476],[2.37008365,48.88278746],[2.37016808,48.88268448],[2.37022044,48.8819635],[2.3702873,48.87846366],[2.37029029,48.87799062],[2.37057564,48.87773401],[2.37234136,48.87614877],[2.37330071,48.87528504],[2.37453426,48.87417811],[2.37509244,48.8736774],[2.37690477,48.87204826],[2.37588673,48.87167603],[2.3746635,48.87124875],[2.37289664,48.8705704],[2.37154371,48.8701631],[2.37104533,48.8700022],[2.36935839,48.8694852],[2.36783586,48.86890429],[2.36761059,48.86881946],[2.36706444,48.86866548],[2.36541979,48.86815314],[2.364356,48.86774459],[2.36387212,48.86751629],[2.35908683,48.86843507],[2.3557429,48.8689783],[2.35425267,48.86932371],[2.35266135,48.86968475]]]]}},{"type":"Feature","properties":{"code":"75109","nom":"Paris 9e Arrondissement"},"geometry":{"type":"MultiPolygon","coordinates":[[[[2.32666566,48.87554353],[2.32696447,48.87784751],[2.32700934,48.87965093],[2.32716473,48.88345509],[2.32742314,48.8835078],[2.32963779,48.88455895],[2.33230307,48.88386787],[2.33274233,48.88374891],[2.33610946,48.88276307],[2.33777314,48.88232892],[2.33780046,48.88232547],[2.33955058,48.88206174],[2.34195931,48.88244463],[2.34690933,48.88341423],[2.34946499,48.88372492],[2.34983598,48.8810973],[2.34953039,48.87968998],[2.34909504,48.87742939],[2.34899555,48.87720761],[2.34866612,48.87662035],[2.34790107,48.8740189],[2.3478836,48.87247374],[2.34791823,48.87068785],[2.34673662,48.87087566],[2.34305073,48.87148502],[2.34004116,48.8719721],[2.33712294,48.87149012],[2.33699644,48.87146783],[2.33415484,48.87096821],[2.33252241,48.87069202],[2.32997307,48.87026497],[2.32799937,48.86992115],[2.32588802,48.86957652],[2.32671324,48.87312817],[2.3270252,48.87378105],[2.32693689,48.87417896],[2.32666566,48.87554353]]]]}},{"type":"Feature","properties":{"code":"75108","nom":"Paris 8e Arrondissement"},"geometry":{"type":"MultiPolygon","coordinates":[[[[2.30166248,48.86419533],[2.30139555,48.86458409],[2.30099132,48.86474092],[2.29890644,48.86853477],[2.29750122,48.87093857],[2.2962096,48.87249405],[2.29554288,48.87330313],[2.29503207,48.87377318],[2.29790845,48.87774538],[2.30083725,48.87865827],[2.30314182,48.87915015],[2.30877852,48.88039244],[2.31255089,48.88085123],[2.31647973,48.88134138],[2.3204488,48.88209694],[2.32049368,48.88210618],[2.32427322,48.88287042],[2.32684646,48.88339124],[2.32716473,48.88345509],[2.32700934,48.87965093],[2.32696447,48.87784751],[2.32666566,48.87554353],[2.32693689,48.87417896],[2.3270252,48.87378105],[2.32671324,48.87312817],[2.32588802,48.86957652],[2.32516619,48.86941687],[2.32458401,48.86794945],[2.32347166,48.86637112],[2.3214678,48.86375256],[2.32140351,48.86366496],[2.32093347,48.86301926],[2.31867787,48.86372322],[2.31039024,48.8636083],[2.30173729,48.86349608],[2.30166248,48.86419533]]]]}},{"type":"Feature","properties":{"code":"75101","nom":"Paris 1er Arrondissement"},"geometry":{"type":"MultiPolygon","coordinates":[[[[2.34678883,48.85671035],[2.34647643,48.85618972],[2.3449185,48.85435641],[2.3446343,48.85408865],[2.33638841,48.8586254],[2.33291597,48.85933547],[2.32590433,48.86146811],[2.32093347,48.86301926],[2.32140351,48.86366496],[2.3214678,48.86375256],[2.32347166,48.86637112],[2.32458401,48.86794945],[2.32516619,48.86941687],[2.32588802,48.86957652],[2.32799937,48.86992115],[2.3302844,48.86831784],[2.33366062,48.86750659],[2.33587439,48.86697929],[2.33866894,48.86633644],[2.34120242,48.86574426],[2.34308257,48.86528513],[2.34497497,48.86482515],[2.3466826,48.86442168],[2.34901787,48.86385883],[2.35095511,48.86340169],[2.35016445,48.86198542],[2.34822321,48.85851687],[2.34732947,48.85718096],[2.34711474,48.85724095],[2.34678883,48.85671035]]]]}},{"type":"Feature","properties":{"code":"69389","nom":"Lyon 9e Arrondissement"},"geometry":{"type":"MultiPolygon","coordinates":[[[[4.79526018,45.76368739],[4.78673295,45.76416056],[4.7871293,45.7654333],[4.79056675,45.7678954],[4.79107394,45.77099574],[4.79260047,45.77349621],[4.7924439,45.77347078],[4.79515314,45.775802],[4.7948864,45.77670427],[4.79184245,45.77988896],[4.79105993,45.78219642],[4.79210276,45.78652405],[4.7842987,45.7872548],[4.78434103,45.7878477],[4.78834556,45.7897713],[4.78971196,45.78990096],[4.79052586,45.79089956],[4.79342538,45.78939165],[4.79747038,45.78985512],[4.79663522,45.79149152],[4.80130652,45.79133419],[4.80244657,45.79198252],[4.81109681,45.79301228],[4.81535137,45.79580284],[4.81842721,45.79934903],[4.81961241,45.79955872],[4.82028122,45.80215104],[4.82414189,45.80467832],[4.82714297,45.80457123],[4.83215445,45.80698774],[4.83604477,45.80681644],[4.83706537,45.80842026],[4.83881928,45.80392496],[4.84146771,45.80355572],[4.83883537,45.80011549],[4.82793443,45.79564478],[4.81900601,45.78978928],[4.81540276,45.78647677],[4.80944871,45.77827582],[4.80892657,45.77652147],[4.80970307,45.77480214],[4.81287186,45.77130329],[4.8143339,45.76804707],[4.81751556,45.76703388],[4.81969445,45.76715098],[4.81988884,45.76496447],[4.81496991,45.76570306],[4.81331189,45.7639652],[4.81343862,45.7628859],[4.81269365,45.76277267],[4.81291518,45.76391573],[4.81181019,45.76479368],[4.80935503,45.76433229],[4.81036178,45.76018],[4.81164044,45.75914525],[4.80567407,45.76014796],[4.8045785,45.76064558],[4.80088297,45.76326089],[4.79526018,45.76368739]]]]}},{"type":"Feature","properties":{"code":"69387","nom":"Lyon 7e Arrondissement"},"geometry":{"type":"MultiPolygon","coordinates":[[[[4.82140153,45.73538628],[4.8305549,45.74650526],[4.8320603,45.74833452],[4.83548692,45.75249422],[4.83856044,45.75673884],[4.84083724,45.75601985],[4.84270532,45.75539396],[4.84286822,45.75533995],[4.84301955,45.75528614],[4.84538522,45.75445751],[4.84901694,45.75320636],[4.85030894,45.75275011],[4.85359863,45.75162691],[4.85990938,45.7495531],[4.85924276,45.74717714],[4.8586422,45.74496582],[4.85622941,45.74061898],[4.85189587,45.73920853],[4.84937393,45.73845818],[4.84845549,45.7369582],[4.84765983,45.72935464],[4.84923353,45.71884069],[4.83755731,45.71852095],[4.83813817,45.7135971],[4.84050453,45.70777939],[4.83763667,45.70748121],[4.82683716,45.7121046],[4.82337889,45.71457185],[4.82079148,45.71916775],[4.81871901,45.72656915],[4.8207741,45.73332475],[4.82140153,45.73538628]]]]}},{"type":"Feature","properties":{"code":"75103","nom":"Paris 3e Arrondissement"},"geometry":{"type":"MultiPolygon","coordinates":[[[[2.35095511,48.86340169],[2.35151076,48.86442726],[2.35425267,48.86932371],[2.3557429,48.8689783],[2.35908683,48.86843507],[2.36387212,48.86751629],[2.36485819,48.86624806],[2.36542606,48.86528787],[2.36688886,48.86247348],[2.36725173,48.86099058],[2.36732784,48.86067171],[2.3676122,48.85947888],[2.36783452,48.85856812],[2.36822904,48.85694328],[2.36849089,48.85580519],[2.36431379,48.85645758],[2.36176776,48.85724355],[2.35934459,48.8583395],[2.35686426,48.86008352],[2.35514637,48.86067234],[2.35349993,48.86121296],[2.35165174,48.86164274],[2.35016445,48.86198542],[2.35095511,48.86340169]]]]}},{"type":"Feature","properties":{"code":"69385","nom":"Lyon 5e Arrondissement"},"geometry":{"type":"MultiPolygon","coordinates":[[[[4.80742396,45.75003002],[4.80238732,45.7516995],[4.80118596,45.75123681],[4.79568268,45.74960149],[4.79313716,45.74858996],[4.78834195,45.74647646],[4.78356642,45.74420392],[4.77757861,45.74718437],[4.77284906,45.75070496],[4.77191245,45.75078633],[4.77323865,45.75306321],[4.77792507,45.75427565],[4.78214091,45.75445501],[4.78213773,45.75667082],[4.78515941,45.7588343],[4.78578104,45.76066913],[4.78634063,45.76237524],[4.78673295,45.76416056],[4.79526018,45.76368739],[4.80088297,45.76326089],[4.8045785,45.76064558],[4.80567407,45.76014796],[4.81164044,45.75914525],[4.81036178,45.76018],[4.80935503,45.76433229],[4.81181019,45.76479368],[4.81291518,45.76391573],[4.81269365,45.76277267],[4.81343862,45.7628859],[4.81331189,45.7639652],[4.81496991,45.76570306],[4.81988884,45.76496447],[4.81969445,45.76715098],[4.82349245,45.76785436],[4.82788517,45.76750765],[4.82934557,45.76648596],[4.83048499,45.76471196],[4.83036109,45.76326379],[4.82843762,45.75954435],[4.82630207,45.75707041],[4.82228976,45.75144631],[4.82108408,45.75066234],[4.81821443,45.74896574],[4.81464278,45.74966819],[4.81345519,45.74809751],[4.81266013,45.74837331],[4.81057765,45.74925164],[4.80902902,45.74953951],[4.80742396,45.75003002]]]]}},{"type":"Feature","properties":{"code":"69386","nom":"Lyon 6e Arrondissement"},"geometry":{"type":"MultiPolygon","coordinates":[[[[4.84498986,45.76358211],[4.84386524,45.76358699],[4.83994672,45.7635537],[4.83975783,45.76626799],[4.83962863,45.7686111],[4.8395739,45.77245632],[4.83987406,45.77331433],[4.84291479,45.7785376],[4.84306442,45.77877836],[4.84580263,45.7822888],[4.85096037,45.7854938],[4.85469877,45.78678713],[4.85990159,45.78694379],[4.85965689,45.78464734],[4.85911818,45.77965801],[4.85861692,45.7747077],[4.85843904,45.77282539],[4.85884874,45.77233944],[4.8596488,45.77217043],[4.86111471,45.77186072],[4.86215708,45.77040324],[4.86309031,45.76929884],[4.86542328,45.76787404],[4.86886102,45.7652122],[4.86995742,45.76372582],[4.86886187,45.76371515],[4.86703421,45.76370939],[4.86124336,45.76368259],[4.86025729,45.76367454],[4.85751839,45.76366563],[4.85522437,45.76364484],[4.85163203,45.76363],[4.85146605,45.76363093],[4.84830445,45.76360441],[4.84498986,45.76358211]]]]}},{"type":"Feature","properties":{"code":"69384","nom":"Lyon 4e Arrondissement"},"geometry":{"type":"MultiPolygon","coordinates":[[[[4.82401976,45.7842175],[4.82927608,45.78292993],[4.82926897,45.78259858],[4.82939936,45.78268744],[4.83171835,45.78297228],[4.83272447,45.7816733],[4.83309778,45.78163391],[4.8331853,45.78174958],[4.83775331,45.78261564],[4.84131608,45.77946714],[4.84306442,45.77877836],[4.84291479,45.7785376],[4.83987406,45.77331433],[4.83488596,45.77547356],[4.83468798,45.77455083],[4.83313119,45.77445543],[4.83114011,45.77430582],[4.83091686,45.77428873],[4.82354962,45.77368116],[4.82135403,45.77302667],[4.82061792,45.77279625],[4.81626912,45.77147833],[4.81287186,45.77130329],[4.80970307,45.77480214],[4.80892657,45.77652147],[4.80944871,45.77827582],[4.81540276,45.78647677],[4.81900601,45.78978928],[4.82240694,45.78777712],[4.82361703,45.78430237],[4.82401976,45.7842175]]]]}},{"type":"Feature","properties":{"code":"69381","nom":"Lyon 1er Arrondissement"},"geometry":{"type":"MultiPolygon","coordinates":[[[[4.82788517,45.76750765],[4.82349245,45.76785436],[4.81969445,45.76715098],[4.81751556,45.76703388],[4.8143339,45.76804707],[4.81287186,45.77130329],[4.81626912,45.77147833],[4.82061792,45.77279625],[4.82135403,45.77302667],[4.82354962,45.77368116],[4.83091686,45.77428873],[4.83114011,45.77430582],[4.83313119,45.77445543],[4.83468798,45.77455083],[4.83488596,45.77547356],[4.83987406,45.77331433],[4.8395739,45.77245632],[4.83962863,45.7686111],[4.83975783,45.76626799],[4.83048499,45.76471196],[4.82934557,45.76648596],[4.82788517,45.76750765]]]]}},{"type":"Feature","properties":{"code":"13216","nom":"Marseille 16e Arrondissement"},"geometry":{"type":"MultiPolygon","coordinates":[[[[5.31801736,43.35856693],[5.31273984,43.36051137],[5.31066769,43.36079054],[5.3098808,43.36020795],[5.30632042,43.3610561],[5.30273446,43.36071129],[5.28225317,43.35372132],[5.27811869,43.36350396],[5.27814452,43.36630867],[5.27993172,43.37072687],[5.27878315,43.38045389],[5.28119529,43.38029507],[5.2815467,43.38193916],[5.28551572,43.38419542],[5.29724088,43.38895573],[5.30312395,43.38590658],[5.30407622,43.3847559],[5.30396976,43.38107804],[5.32922116,43.37157164],[5.32977959,43.37128601],[5.33030746,43.37210535],[5.33225108,43.37147757],[5.33351382,43.36969714],[5.33978862,43.36921783],[5.33920414,43.36822246],[5.34024178,43.36276128],[5.34177909,43.36346692],[5.34291914,43.36544386],[5.34420071,43.3654404],[5.3441476,43.36607516],[5.34898638,43.36620962],[5.34709276,43.36091187],[5.34920947,43.35686],[5.35347473,43.35405468],[5.35414676,43.35091255],[5.35222838,43.35122969],[5.34599812,43.34887649],[5.34522147,43.34661184],[5.34724193,43.34356653],[5.34810089,43.342071],[5.34340255,43.33988242],[5.33779214,43.33954754],[5.328471,43.34468955],[5.32929625,43.34558077],[5.33924157,43.34117218],[5.34367978,43.34236309],[5.34337504,43.34335968],[5.33202182,43.350157],[5.33022618,43.34844971],[5.32859479,43.35110832],[5.3234123,43.35333474],[5.31744312,43.35502426],[5.31603414,43.35311046],[5.31257624,43.35514641],[5.31735276,43.35645719],[5.32236108,43.3543338],[5.32663931,43.35460187],[5.32667928,43.35589701],[5.32373018,43.35745438],[5.31801736,43.35856693]]]]}},{"type":"Feature","properties":{"code":"69383","nom":"Lyon 3e Arrondissement"},"geometry":{"type":"MultiPolygon","coordinates":[[[[4.85359863,45.75162691],[4.85030894,45.75275011],[4.84901694,45.75320636],[4.84538522,45.75445751],[4.84301955,45.75528614],[4.84286822,45.75533995],[4.84270532,45.75539396],[4.84083724,45.75601985],[4.83856044,45.75673884],[4.83930405,45.76005943],[4.83994672,45.7635537],[4.84386524,45.76358699],[4.84498986,45.76358211],[4.84830445,45.76360441],[4.85146605,45.76363093],[4.85163203,45.76363],[4.85522437,45.76364484],[4.85751839,45.76366563],[4.86025729,45.76367454],[4.86124336,45.76368259],[4.86703421,45.76370939],[4.86886187,45.76371515],[4.86995742,45.76372582],[4.87248451,45.76105373],[4.87448,45.7605468],[4.87378467,45.75875056],[4.87657404,45.75816824],[4.87635083,45.75690011],[4.87619879,45.75568123],[4.87505656,45.7548211],[4.88437626,45.75425052],[4.8848147,45.7542405],[4.88601224,45.75426641],[4.89391345,45.75391062],[4.89839571,45.75291649],[4.89829458,45.75274435],[4.89486328,45.74378467],[4.89188037,45.73909954],[4.8851934,45.74131388],[4.8800118,45.7424903],[4.87922309,45.74271422],[4.87839783,45.74311169],[4.87698215,45.74358744],[4.87124409,45.74555275],[4.86976494,45.74605738],[4.86711581,45.74696688],[4.86522119,45.74762876],[4.86012828,45.74948193],[4.85990938,45.7495531],[4.85359863,45.75162691]]]]}},{"type":"Feature","properties":{"code":"75107","nom":"Paris 7e Arrondissement"},"geometry":{"type":"MultiPolygon","coordinates":[[[[2.30735415,48.84713345],[2.30604152,48.84797934],[2.30365955,48.8495052],[2.30091162,48.85117638],[2.29930074,48.85219403],[2.29538134,48.8547072],[2.2910533,48.85747504],[2.28969568,48.85818288],[2.29183856,48.85996821],[2.29687051,48.86261949],[2.30173729,48.86349608],[2.31039024,48.8636083],[2.31867787,48.86372322],[2.32093347,48.86301926],[2.32590433,48.86146811],[2.33291597,48.85933547],[2.33245196,48.85853066],[2.33327009,48.8582906],[2.33046371,48.85447336],[2.32865739,48.8518677],[2.32681448,48.85158124],[2.32686731,48.85139537],[2.32416221,48.85023524],[2.32328726,48.84981929],[2.32055539,48.84842508],[2.31671255,48.84686349],[2.31371587,48.84594338],[2.31197212,48.84704408],[2.31123557,48.84750931],[2.31032513,48.84793306],[2.30735415,48.84713345]]]]}},{"type":"Feature","properties":{"code":"13212","nom":"Marseille 12e Arrondissement"},"geometry":{"type":"MultiPolygon","coordinates":[[[[5.42845959,43.2937699],[5.42530023,43.29382285],[5.42487397,43.29268134],[5.42637954,43.29083587],[5.42638107,43.29052084],[5.42579707,43.29013976],[5.41491822,43.2916974],[5.41340007,43.29416396],[5.40874931,43.2956492],[5.40938251,43.29620657],[5.40904677,43.29731293],[5.40773379,43.29847617],[5.40775076,43.30106595],[5.40963774,43.30393535],[5.40970108,43.30403564],[5.41102274,43.30926571],[5.4086027,43.30968956],[5.40876607,43.30988302],[5.40968736,43.31125477],[5.40914363,43.31340258],[5.41053216,43.31498171],[5.4133719,43.31586335],[5.41463791,43.31724988],[5.41341129,43.31812867],[5.41744249,43.31867041],[5.4177685,43.31983042],[5.41894372,43.32092913],[5.42136049,43.32027113],[5.42397792,43.32072188],[5.42432757,43.32179585],[5.42656346,43.3230786],[5.43061533,43.32278329],[5.43056734,43.32301927],[5.43091058,43.32373336],[5.4323015,43.32356707],[5.43383174,43.32331394],[5.43696364,43.32438101],[5.44006116,43.3207606],[5.44122388,43.32094226],[5.44103891,43.31907801],[5.44474446,43.3203902],[5.44839676,43.32172147],[5.44909668,43.3204969],[5.45350753,43.31818736],[5.45548644,43.31970395],[5.45724637,43.31992767],[5.46019715,43.31764023],[5.46475367,43.32033729],[5.46389917,43.3217158],[5.46661309,43.32299945],[5.46862839,43.32123801],[5.47511938,43.31468236],[5.47117749,43.31456464],[5.47616274,43.30643322],[5.47683566,43.30026712],[5.47669369,43.30014618],[5.46977603,43.29969247],[5.46276177,43.30144554],[5.4575754,43.3014241],[5.45828129,43.29977184],[5.45670859,43.2997347],[5.4493884,43.29760225],[5.44930725,43.29754829],[5.44515115,43.29560391],[5.44225857,43.29471443],[5.44081647,43.29662349],[5.43817464,43.29659313],[5.43341154,43.2947358],[5.43322497,43.2946068],[5.43074867,43.29397044],[5.42845959,43.2937699]]]]}},{"type":"Feature","properties":{"code":"69382","nom":"Lyon 2e Arrondissement"},"geometry":{"type":"MultiPolygon","coordinates":[[[[4.8207741,45.73332475],[4.81871901,45.72656915],[4.8178516,45.72647235],[4.814282,45.73295473],[4.81304078,45.73871952],[4.81415324,45.7447491],[4.81821443,45.74896574],[4.82108408,45.75066234],[4.82228976,45.75144631],[4.82630207,45.75707041],[4.82843762,45.75954435],[4.83036109,45.76326379],[4.83048499,45.76471196],[4.83975783,45.76626799],[4.83994672,45.7635537],[4.83930405,45.76005943],[4.83856044,45.75673884],[4.83548692,45.75249422],[4.8320603,45.74833452],[4.8305549,45.74650526],[4.82140153,45.73538628],[4.8207741,45.73332475]]]]}},{"type":"Feature","properties":{"code":"13211","nom":"Marseille 11e Arrondissement"},"geometry":{"type":"MultiPolygon","coordinates":[[[[5.45282671,43.27534039],[5.45112403,43.27411276],[5.44658922,43.27536843],[5.44443301,43.27700841],[5.44490141,43.27928286],[5.44416284,43.27990526],[5.44259055,43.281028],[5.44221313,43.28127863],[5.44453428,43.28233312],[5.44204288,43.2856654],[5.43718279,43.28464295],[5.43603752,43.28421519],[5.43631349,43.28511975],[5.43393574,43.28578802],[5.42933136,43.28618234],[5.42606553,43.28586152],[5.42549043,43.28589603],[5.42579707,43.29013976],[5.42638107,43.29052084],[5.42637954,43.29083587],[5.42487397,43.29268134],[5.42530023,43.29382285],[5.42845959,43.2937699],[5.43074867,43.29397044],[5.43322497,43.2946068],[5.43341154,43.2947358],[5.43817464,43.29659313],[5.44081647,43.29662349],[5.44225857,43.29471443],[5.44515115,43.29560391],[5.44930725,43.29754829],[5.4493884,43.29760225],[5.45670859,43.2997347],[5.45828129,43.29977184],[5.4575754,43.3014241],[5.46276177,43.30144554],[5.46977603,43.29969247],[5.47669369,43.30014618],[5.47683566,43.30026712],[5.47616274,43.30643322],[5.47117749,43.31456464],[5.47511938,43.31468236],[5.47974524,43.31413804],[5.488814,43.31524006],[5.49746672,43.31543652],[5.49783899,43.31495361],[5.51252516,43.3205472],[5.52281742,43.32077824],[5.5213153,43.31695931],[5.52302274,43.31420497],[5.52960778,43.31427339],[5.53073047,43.31367918],[5.53070204,43.30101638],[5.52188025,43.29231866],[5.51852,43.28915336],[5.51839841,43.28794927],[5.5145472,43.28846017],[5.51237639,43.28718855],[5.50764036,43.28276431],[5.50533563,43.28316518],[5.50519487,43.27728781],[5.50706577,43.2737128],[5.5093224,43.2709694],[5.51439471,43.26769965],[5.51315967,43.26332381],[5.49154617,43.26795279],[5.48604266,43.25836154],[5.46906166,43.25354832],[5.4588125,43.25481712],[5.45223869,43.25678813],[5.45223906,43.2574631],[5.45939127,43.25889162],[5.45947601,43.25975277],[5.45829692,43.26277203],[5.45608571,43.2640274],[5.45515055,43.26473984],[5.45601623,43.27604822],[5.45282671,43.27534039]]]]}},{"type":"Feature","properties":{"code":"13208","nom":"Marseille 8e Arrondissement"},"geometry":{"type":"MultiPolygon","coordinates":[[[[5.34220977,43.21654716],[5.3469257,43.2254393],[5.3467128,43.2266804],[5.3484417,43.22831034],[5.35326518,43.23272919],[5.35952307,43.23548495],[5.36235956,43.24007193],[5.36239656,43.2416073],[5.36187059,43.24226045],[5.36378716,43.24637619],[5.36354584,43.24484259],[5.36615059,43.24456956],[5.37099391,43.24464061],[5.37309972,43.24549699],[5.37354726,43.24925428],[5.37280188,43.25214506],[5.37075905,43.25156897],[5.37398747,43.25277236],[5.37430826,43.25410532],[5.37529958,43.25629288],[5.37564456,43.25833176],[5.37402541,43.25982888],[5.36855482,43.2645756],[5.36801866,43.26831403],[5.36849748,43.268848],[5.37196387,43.26763981],[5.37261536,43.26781989],[5.37267308,43.27248667],[5.37279631,43.27404539],[5.37381745,43.279195],[5.3785481,43.27998732],[5.37839687,43.28095001],[5.38177286,43.28162621],[5.38198436,43.28114007],[5.38595697,43.28200368],[5.38826445,43.28236668],[5.38691595,43.28326855],[5.38873909,43.28314906],[5.39051566,43.2822035],[5.39591247,43.27927067],[5.39901612,43.27760166],[5.39983206,43.27462445],[5.39916961,43.27303003],[5.4015368,43.26968627],[5.39739895,43.26755888],[5.3939308,43.26788149],[5.39402624,43.26771828],[5.39548173,43.26513374],[5.39721502,43.26206603],[5.39911133,43.2587184],[5.39694756,43.25808878],[5.39935451,43.25464702],[5.39455753,43.25337116],[5.3948231,43.25134489],[5.39695925,43.24903414],[5.39692635,43.24741227],[5.39489345,43.24627665],[5.39613297,43.24461216],[5.39003611,43.2415327],[5.39131323,43.2403885],[5.39117353,43.23683865],[5.39086443,43.23419069],[5.38954998,43.23303278],[5.3833963,43.23178742],[5.38146301,43.23200197],[5.37843184,43.22343492],[5.38362549,43.22338966],[5.38155839,43.20973495],[5.36314137,43.20745989],[5.34537058,43.21242446],[5.34220977,43.21654716]]]]}},{"type":"Feature","properties":{"code":"13209","nom":"Marseille 9e Arrondissement"},"geometry":{"type":"MultiPolygon","coordinates":[[[[5.39131323,43.2403885],[5.39003611,43.2415327],[5.39613297,43.24461216],[5.39489345,43.24627665],[5.39692635,43.24741227],[5.39695925,43.24903414],[5.3948231,43.25134489],[5.39455753,43.25337116],[5.39935451,43.25464702],[5.39694756,43.25808878],[5.39911133,43.2587184],[5.39721502,43.26206603],[5.39548173,43.26513374],[5.39402624,43.26771828],[5.3939308,43.26788149],[5.39739895,43.26755888],[5.4015368,43.26968627],[5.39916961,43.27303003],[5.39983206,43.27462445],[5.40389742,43.27550063],[5.40657105,43.27419195],[5.41123562,43.27611197],[5.4130346,43.2733899],[5.41385666,43.27375582],[5.41471623,43.27239926],[5.41147585,43.26989684],[5.41285772,43.26836664],[5.41497981,43.26825172],[5.41577143,43.26818632],[5.42695156,43.26646067],[5.42925047,43.26577991],[5.42918829,43.26132018],[5.44105892,43.25843364],[5.44861571,43.25802589],[5.45223906,43.2574631],[5.45223869,43.25678813],[5.4588125,43.25481712],[5.46906166,43.25354832],[5.48604266,43.25836154],[5.49154617,43.26795279],[5.51315967,43.26332381],[5.51957062,43.24431422],[5.51921403,43.24164509],[5.51594452,43.2382879],[5.50846269,43.2344355],[5.50634252,43.23011357],[5.50849718,43.22548718],[5.51796301,43.21551294],[5.51752113,43.21359103],[5.51152423,43.2044891],[5.50992689,43.19771364],[5.50175419,43.19768656],[5.48392331,43.20541956],[5.47848906,43.20443938],[5.46004559,43.21033035],[5.45873093,43.21147084],[5.45533256,43.2115842],[5.45396783,43.2093492],[5.44513553,43.21132795],[5.44098334,43.20580458],[5.4254043,43.21003724],[5.40110239,43.21309594],[5.39303339,43.21234825],[5.38748591,43.21038871],[5.38155839,43.20973495],[5.38362549,43.22338966],[5.37843184,43.22343492],[5.38146301,43.23200197],[5.3833963,43.23178742],[5.38954998,43.23303278],[5.39086443,43.23419069],[5.39117353,43.23683865],[5.39131323,43.2403885]]]]}},{"type":"Feature","properties":{"code":"13206","nom":"Marseille 6e Arrondissement"},"geometry":{"type":"MultiPolygon","coordinates":[[[[5.37022983,43.28613146],[5.37097333,43.28923352],[5.37214227,43.2909655],[5.37326744,43.29127288],[5.37728823,43.29221587],[5.378829,43.29259145],[5.3798516,43.29282992],[5.38231546,43.29347941],[5.38159998,43.29572531],[5.38149177,43.29608859],[5.38555986,43.29429162],[5.38666411,43.29397115],[5.38742949,43.29373915],[5.38871452,43.29329226],[5.38905229,43.2931777],[5.38910376,43.29049464],[5.38911053,43.28997431],[5.3891524,43.28813024],[5.39006813,43.28760421],[5.39137271,43.28629559],[5.3907177,43.28487823],[5.39194574,43.28475566],[5.39274005,43.28311633],[5.38873909,43.28314906],[5.38691595,43.28326855],[5.38826445,43.28236668],[5.38595697,43.28200368],[5.38198436,43.28114007],[5.38177286,43.28162621],[5.37839687,43.28095001],[5.3785481,43.27998732],[5.37381745,43.279195],[5.37215312,43.2804177],[5.37039133,43.28403641],[5.37022983,43.28613146]]]]}},{"type":"Feature","properties":{"code":"13210","nom":"Marseille 10e Arrondissement"},"geometry":{"type":"MultiPolygon","coordinates":[[[[5.41147585,43.26989684],[5.41471623,43.27239926],[5.41385666,43.27375582],[5.4130346,43.2733899],[5.41123562,43.27611197],[5.40657105,43.27419195],[5.40389742,43.27550063],[5.39983206,43.27462445],[5.39901612,43.27760166],[5.39591247,43.27927067],[5.39051566,43.2822035],[5.38873909,43.28314906],[5.39274005,43.28311633],[5.39194574,43.28475566],[5.39633169,43.28503197],[5.39619919,43.28569728],[5.39867799,43.28596808],[5.39895409,43.28683042],[5.39965696,43.28684631],[5.40304205,43.28657309],[5.40637235,43.28764464],[5.40598634,43.29038107],[5.40679162,43.29001574],[5.40718457,43.29143076],[5.40781081,43.29090832],[5.41491822,43.2916974],[5.42579707,43.29013976],[5.42549043,43.28589603],[5.42606553,43.28586152],[5.42933136,43.28618234],[5.43393574,43.28578802],[5.43631349,43.28511975],[5.43603752,43.28421519],[5.43718279,43.28464295],[5.44204288,43.2856654],[5.44453428,43.28233312],[5.44221313,43.28127863],[5.44259055,43.281028],[5.44416284,43.27990526],[5.44490141,43.27928286],[5.44443301,43.27700841],[5.44658922,43.27536843],[5.45112403,43.27411276],[5.45282671,43.27534039],[5.45601623,43.27604822],[5.45515055,43.26473984],[5.45608571,43.2640274],[5.45829692,43.26277203],[5.45947601,43.25975277],[5.45939127,43.25889162],[5.45223906,43.2574631],[5.44861571,43.25802589],[5.44105892,43.25843364],[5.42918829,43.26132018],[5.42925047,43.26577991],[5.42695156,43.26646067],[5.41577143,43.26818632],[5.41497981,43.26825172],[5.41285772,43.26836664],[5.41147585,43.26989684]]]]}},{"type":"Feature","properties":{"code":"13204","nom":"Marseille 4e Arrondissement"},"geometry":{"type":"MultiPolygon","coordinates":[[[[5.39547481,43.29889438],[5.39543258,43.29942],[5.39124911,43.29882326],[5.38905169,43.29890246],[5.38907919,43.30030941],[5.39444607,43.30204281],[5.39354979,43.30304184],[5.3932027,43.3044472],[5.39343872,43.30594674],[5.39179159,43.30878125],[5.39050082,43.3093948],[5.39269024,43.31172592],[5.39318417,43.31640933],[5.39364003,43.31646404],[5.39917811,43.31694067],[5.39898947,43.31658396],[5.40343349,43.31485357],[5.40482064,43.31696381],[5.40720421,43.31610166],[5.40735441,43.31497602],[5.40739104,43.31452521],[5.41053216,43.31498171],[5.40914363,43.31340258],[5.40968736,43.31125477],[5.40876607,43.30988302],[5.4086027,43.30968956],[5.41102274,43.30926571],[5.40970108,43.30403564],[5.40963774,43.30393535],[5.40775076,43.30106595],[5.40773379,43.29847617],[5.40904677,43.29731293],[5.40938251,43.29620657],[5.40874931,43.2956492],[5.40674117,43.29550764],[5.40620844,43.29623499],[5.40595771,43.29616137],[5.40031437,43.29580357],[5.40081908,43.29750862],[5.40009428,43.29762012],[5.39547481,43.29889438]]]]}},{"type":"Feature","properties":{"code":"75113","nom":"Paris 13e Arrondissement"},"geometry":{"type":"MultiPolygon","coordinates":[[[[2.35337771,48.81779636],[2.35239184,48.81855101],[2.34860054,48.81678021],[2.34434444,48.81560394],[2.3439025,48.815767],[2.34458682,48.81939887],[2.34250577,48.82144882],[2.34204661,48.82210914],[2.34154226,48.82462103],[2.34178521,48.82641572],[2.3417957,48.82644816],[2.34159221,48.82649021],[2.34128286,48.83027487],[2.34115748,48.83178783],[2.34107206,48.83197173],[2.3412636,48.8330925],[2.3416719,48.83538904],[2.34208557,48.83834304],[2.34552106,48.8376325],[2.34906903,48.83707267],[2.35187077,48.83680459],[2.35304338,48.83716888],[2.35705221,48.83844691],[2.36174529,48.83994071],[2.36196641,48.84024227],[2.3641582,48.84318496],[2.36490176,48.84411256],[2.36608773,48.84496784],[2.37245162,48.84017902],[2.37486284,48.83805386],[2.39007201,48.82569233],[2.38879986,48.82510574],[2.38330363,48.82304493],[2.37908332,48.82115779],[2.37576097,48.82005584],[2.36692725,48.8172483],[2.36420428,48.81639832],[2.36067829,48.81607193],[2.36052582,48.81606752],[2.35842375,48.81601399],[2.35623202,48.81594285],[2.35337771,48.81779636]]]]}},{"type":"Feature","properties":{"code":"13202","nom":"Marseille 2e Arrondissement"},"geometry":{"type":"MultiPolygon","coordinates":[[[[5.37432591,43.29525629],[5.37374626,43.29503323],[5.37267677,43.29611058],[5.36355904,43.29478853],[5.36115884,43.29535847],[5.35862459,43.29807411],[5.36272964,43.30560809],[5.36465718,43.31207187],[5.36378222,43.31387746],[5.34982862,43.32955782],[5.3417818,43.33632027],[5.34486592,43.33636144],[5.3539997,43.33608652],[5.35570563,43.33191211],[5.35909346,43.33046308],[5.35994929,43.32778944],[5.36027302,43.32741607],[5.3679209,43.31711592],[5.36914448,43.31665712],[5.37056812,43.31452985],[5.36802992,43.3137692],[5.36878714,43.31240084],[5.37083347,43.30875516],[5.37230199,43.30619761],[5.37281289,43.30525672],[5.37444726,43.3024516],[5.3741321,43.30168095],[5.37399548,43.30147515],[5.37489076,43.30161118],[5.37432844,43.29965619],[5.37312553,43.29929023],[5.37160657,43.29938836],[5.37298503,43.29773276],[5.37442405,43.29527573],[5.37432591,43.29525629]]]]}},{"type":"Feature","properties":{"code":"75106","nom":"Paris 6e Arrondissement"},"geometry":{"type":"MultiPolygon","coordinates":[[[[2.32957485,48.84199426],[2.32464177,48.84362134],[2.32429836,48.84372913],[2.32319268,48.84409072],[2.3201205,48.84509677],[2.31914206,48.8455193],[2.31671255,48.84686349],[2.32055539,48.84842508],[2.32328726,48.84981929],[2.32416221,48.85023524],[2.32686731,48.85139537],[2.32681448,48.85158124],[2.32865739,48.8518677],[2.33046371,48.85447336],[2.33327009,48.8582906],[2.33245196,48.85853066],[2.33291597,48.85933547],[2.33638841,48.8586254],[2.3446343,48.85408865],[2.3442814,48.85375665],[2.34382102,48.85276214],[2.34263174,48.85034803],[2.34084916,48.84733707],[2.34063439,48.84697164],[2.33898332,48.84392449],[2.33775593,48.84175473],[2.33725617,48.84087508],[2.33665699,48.83967111],[2.33486206,48.84024663],[2.32983213,48.84190756],[2.32957485,48.84199426]]]]}},{"type":"Feature","properties":{"code":"75104","nom":"Paris 4e Arrondissement"},"geometry":{"type":"MultiPolygon","coordinates":[[[[2.35159798,48.85161469],[2.3499337,48.85207602],[2.3446343,48.85408865],[2.3449185,48.85435641],[2.34647643,48.85618972],[2.34678883,48.85671035],[2.34711474,48.85724095],[2.34732947,48.85718096],[2.34822321,48.85851687],[2.35016445,48.86198542],[2.35165174,48.86164274],[2.35349993,48.86121296],[2.35514637,48.86067234],[2.35686426,48.86008352],[2.35934459,48.8583395],[2.36176776,48.85724355],[2.36431379,48.85645758],[2.36849089,48.85580519],[2.36896567,48.8538516],[2.36912388,48.85316623],[2.36904148,48.85299312],[2.3689724,48.85284526],[2.36604156,48.84708289],[2.36537976,48.84670885],[2.36445544,48.84618591],[2.36249175,48.84764231],[2.36105789,48.84855561],[2.35159798,48.85161469]]]]}},{"type":"Feature","properties":{"code":"75102","nom":"Paris 2e Arrondissement"},"geometry":{"type":"MultiPolygon","coordinates":[[[[2.34120242,48.86574426],[2.33866894,48.86633644],[2.33587439,48.86697929],[2.33366062,48.86750659],[2.3302844,48.86831784],[2.32799937,48.86992115],[2.32997307,48.87026497],[2.33252241,48.87069202],[2.33415484,48.87096821],[2.33699644,48.87146783],[2.33712294,48.87149012],[2.34004116,48.8719721],[2.34305073,48.87148502],[2.34673662,48.87087566],[2.34791823,48.87068785],[2.35204753,48.86982172],[2.35266135,48.86968475],[2.35425267,48.86932371],[2.35151076,48.86442726],[2.35095511,48.86340169],[2.34901787,48.86385883],[2.3466826,48.86442168],[2.34497497,48.86482515],[2.34308257,48.86528513],[2.34120242,48.86574426]]]]}},{"type":"Feature","properties":{"code":"13213","nom":"Marseille 13e Arrondissement"},"geometry":{"type":"MultiPolygon","coordinates":[[[[5.40343349,43.31485357],[5.39898947,43.31658396],[5.39917811,43.31694067],[5.39364003,43.31646404],[5.39356347,43.31847902],[5.39604999,43.31955433],[5.3981016,43.32232133],[5.39844525,43.3230553],[5.40062909,43.32265764],[5.40069545,43.32543446],[5.40285288,43.32451984],[5.40178363,43.3274668],[5.40368328,43.32911929],[5.4033545,43.3295424],[5.40483842,43.33071361],[5.40610047,43.33111664],[5.40749338,43.33509427],[5.4111425,43.33923673],[5.41091461,43.34112824],[5.41046661,43.34226864],[5.41181627,43.34419789],[5.41456718,43.34630915],[5.41198865,43.34952305],[5.41491919,43.35158802],[5.41657057,43.35249796],[5.41251098,43.36016949],[5.41352883,43.37085986],[5.41537559,43.378739],[5.42464961,43.38342426],[5.42605118,43.38338835],[5.43529168,43.3878548],[5.4417355,43.38987336],[5.44750842,43.386987],[5.45164883,43.38110322],[5.46021455,43.36901731],[5.46329103,43.36248856],[5.46352662,43.35885421],[5.46251812,43.35745241],[5.45279875,43.34712298],[5.45259289,43.34660383],[5.45023185,43.3391088],[5.45225508,43.33681377],[5.45503427,43.33571209],[5.45704278,43.33302129],[5.46661309,43.32299945],[5.46389917,43.3217158],[5.46475367,43.32033729],[5.46019715,43.31764023],[5.45724637,43.31992767],[5.45548644,43.31970395],[5.45350753,43.31818736],[5.44909668,43.3204969],[5.44839676,43.32172147],[5.44474446,43.3203902],[5.44103891,43.31907801],[5.44122388,43.32094226],[5.44006116,43.3207606],[5.43696364,43.32438101],[5.43383174,43.32331394],[5.4323015,43.32356707],[5.43091058,43.32373336],[5.43056734,43.32301927],[5.43061533,43.32278329],[5.42656346,43.3230786],[5.42432757,43.32179585],[5.42397792,43.32072188],[5.42136049,43.32027113],[5.41894372,43.32092913],[5.4177685,43.31983042],[5.41744249,43.31867041],[5.41341129,43.31812867],[5.41463791,43.31724988],[5.4133719,43.31586335],[5.41053216,43.31498171],[5.40739104,43.31452521],[5.40735441,43.31497602],[5.40720421,43.31610166],[5.40482064,43.31696381],[5.40343349,43.31485357]]]]}},{"type":"Feature","properties":{"code":"13207","nom":"Marseille 7e Arrondissement"},"geometry":{"type":"MultiPolygon","coordinates":[[[[5.3027772,43.27937714],[5.29720786,43.27898993],[5.29465746,43.27977667],[5.29459841,43.28049067],[5.30275627,43.28181461],[5.30356022,43.28242113],[5.30237329,43.28397722],[5.31074691,43.28464262],[5.31317748,43.28658038],[5.31868885,43.28519784],[5.3227557,43.28572876],[5.32001405,43.28341451],[5.31601829,43.28366762],[5.3153349,43.2815269],[5.31165673,43.27836048],[5.31030393,43.28025769],[5.30473115,43.27858583],[5.30453092,43.27696572],[5.30939365,43.27635073],[5.31029095,43.27492135],[5.30116047,43.27148769],[5.30017572,43.27007958],[5.30180248,43.26949057],[5.29346009,43.2651225],[5.28991122,43.26180599],[5.28847654,43.26229895],[5.28593451,43.26604695],[5.29573083,43.26970167],[5.30279966,43.27623769],[5.3034219,43.2780018],[5.3027772,43.27937714]]],[[[5.34935688,43.28012743],[5.34620104,43.28270057],[5.35052811,43.28390066],[5.35090573,43.28524687],[5.35136846,43.2854168],[5.35105248,43.28552267],[5.35014499,43.2856234],[5.35025061,43.28618988],[5.35284157,43.28852108],[5.35441003,43.29413777],[5.35784772,43.29519677],[5.36143794,43.29275688],[5.36300102,43.29391966],[5.36400643,43.29289871],[5.3660854,43.29252023],[5.37107877,43.29344575],[5.371475,43.29247499],[5.37214227,43.2909655],[5.37097333,43.28923352],[5.37022983,43.28613146],[5.37039133,43.28403641],[5.37215312,43.2804177],[5.37381745,43.279195],[5.37279631,43.27404539],[5.37267308,43.27248667],[5.37261536,43.26781989],[5.37196387,43.26763981],[5.36849748,43.268848],[5.36801866,43.26831403],[5.3679976,43.26882117],[5.36450721,43.27007835],[5.3599286,43.27520469],[5.35456768,43.2782357],[5.34935688,43.28012743]]]]}},{"type":"Feature","properties":{"code":"13205","nom":"Marseille 5e Arrondissement"},"geometry":{"type":"MultiPolygon","coordinates":[[[[5.3907177,43.28487823],[5.39137271,43.28629559],[5.39006813,43.28760421],[5.3891524,43.28813024],[5.38911053,43.28997431],[5.38910376,43.29049464],[5.38905229,43.2931777],[5.38871452,43.29329226],[5.38742949,43.29373915],[5.38666411,43.29397115],[5.38555986,43.29429162],[5.3859034,43.29509041],[5.38714405,43.29687376],[5.38875467,43.30020949],[5.38907919,43.30030941],[5.38905169,43.29890246],[5.39124911,43.29882326],[5.39543258,43.29942],[5.39547481,43.29889438],[5.40009428,43.29762012],[5.40081908,43.29750862],[5.40031437,43.29580357],[5.40595771,43.29616137],[5.40620844,43.29623499],[5.40674117,43.29550764],[5.40874931,43.2956492],[5.41340007,43.29416396],[5.41491822,43.2916974],[5.40781081,43.29090832],[5.40718457,43.29143076],[5.40679162,43.29001574],[5.40598634,43.29038107],[5.40637235,43.28764464],[5.40304205,43.28657309],[5.39965696,43.28684631],[5.39895409,43.28683042],[5.39867799,43.28596808],[5.39619919,43.28569728],[5.39633169,43.28503197],[5.39194574,43.28475566],[5.3907177,43.28487823]]]]}},{"type":"Feature","properties":{"code":"69388","nom":"Lyon 8e Arrondissement"},"geometry":{"type":"MultiPolygon","coordinates":[[[[4.87136921,45.72443462],[4.86247134,45.72692121],[4.86195711,45.72746204],[4.8598149,45.73072474],[4.85371359,45.72977408],[4.85401562,45.72466645],[4.85448496,45.7189895],[4.84971491,45.71885441],[4.84923353,45.71884069],[4.84765983,45.72935464],[4.84845549,45.7369582],[4.84937393,45.73845818],[4.85189587,45.73920853],[4.85622941,45.74061898],[4.8586422,45.74496582],[4.85924276,45.74717714],[4.85990938,45.7495531],[4.86012828,45.74948193],[4.86522119,45.74762876],[4.86711581,45.74696688],[4.86976494,45.74605738],[4.87124409,45.74555275],[4.87698215,45.74358744],[4.87839783,45.74311169],[4.87922309,45.74271422],[4.8800118,45.7424903],[4.8851934,45.74131388],[4.89188037,45.73909954],[4.89185058,45.73852987],[4.88977897,45.7351643],[4.88973283,45.73509391],[4.8877598,45.73061514],[4.88675701,45.7287809],[4.88699795,45.72611787],[4.88755987,45.7203509],[4.88605471,45.72150203],[4.88508285,45.72147415],[4.88087273,45.72174265],[4.87606427,45.72310094],[4.87246078,45.72412285],[4.87136921,45.72443462]]]]}},{"type":"Feature","properties":{"code":"75105","nom":"Paris 5e Arrondissement"},"geometry":{"type":"MultiPolygon","coordinates":[[[[2.34906903,48.83707267],[2.34552106,48.8376325],[2.34208557,48.83834304],[2.33969467,48.83886409],[2.33755248,48.83943054],[2.33665699,48.83967111],[2.33725617,48.84087508],[2.33775593,48.84175473],[2.33898332,48.84392449],[2.34063439,48.84697164],[2.34084916,48.84733707],[2.34263174,48.85034803],[2.34382102,48.85276214],[2.3442814,48.85375665],[2.3446343,48.85408865],[2.3499337,48.85207602],[2.35159798,48.85161469],[2.36105789,48.84855561],[2.36249175,48.84764231],[2.36445544,48.84618591],[2.36608773,48.84496784],[2.36490176,48.84411256],[2.3641582,48.84318496],[2.36196641,48.84024227],[2.36174529,48.83994071],[2.35705221,48.83844691],[2.35304338,48.83716888],[2.35187077,48.83680459],[2.34906903,48.83707267]]]]}},{"type":"Feature","properties":{"code":"13203","nom":"Marseille 3e Arrondissement"},"geometry":{"type":"MultiPolygon","coordinates":[[[[5.37489076,43.30161118],[5.37399548,43.30147515],[5.3741321,43.30168095],[5.37444726,43.3024516],[5.37281289,43.30525672],[5.37230199,43.30619761],[5.37083347,43.30875516],[5.36878714,43.31240084],[5.36802992,43.3137692],[5.37056812,43.31452985],[5.36914448,43.31665712],[5.37002361,43.3194224],[5.37157687,43.32008493],[5.37476584,43.32092572],[5.37609395,43.32099824],[5.37771086,43.31988451],[5.37907531,43.3188672],[5.37962796,43.31851935],[5.38224103,43.31675812],[5.38237262,43.31669132],[5.38406093,43.31614741],[5.38793978,43.31495662],[5.38835261,43.31546049],[5.39318417,43.31640933],[5.39269024,43.31172592],[5.39050082,43.3093948],[5.38607115,43.30688542],[5.38388819,43.30565291],[5.37911601,43.30333981],[5.37896194,43.3032793],[5.37641349,43.3021114],[5.37489076,43.30161118]]]]}},{"type":"Feature","properties":{"code":"13201","nom":"Marseille 1er Arrondissement"},"geometry":{"type":"MultiPolygon","coordinates":[[[[5.37442405,43.29527573],[5.37298503,43.29773276],[5.37160657,43.29938836],[5.37312553,43.29929023],[5.37432844,43.29965619],[5.37489076,43.30161118],[5.37641349,43.3021114],[5.37896194,43.3032793],[5.37911601,43.30333981],[5.38388819,43.30565291],[5.38607115,43.30688542],[5.39050082,43.3093948],[5.39179159,43.30878125],[5.39343872,43.30594674],[5.3932027,43.3044472],[5.39354979,43.30304184],[5.39444607,43.30204281],[5.38907919,43.30030941],[5.38875467,43.30020949],[5.38714405,43.29687376],[5.3859034,43.29509041],[5.38555986,43.29429162],[5.38149177,43.29608859],[5.38159998,43.29572531],[5.38231546,43.29347941],[5.3798516,43.29282992],[5.378829,43.29259145],[5.37728823,43.29221587],[5.37326744,43.29127288],[5.37214227,43.2909655],[5.371475,43.29247499],[5.37107877,43.29344575],[5.37371667,43.29413481],[5.37374626,43.29503323],[5.37432591,43.29525629],[5.37442405,43.29527573]]]]}},{"type":"Feature","properties":{"code":"13214","nom":"Marseille 14e Arrondissement"},"geometry":{"type":"MultiPolygon","coordinates":[[[[5.37962796,43.31851935],[5.37907531,43.3188672],[5.37771086,43.31988451],[5.37609395,43.32099824],[5.37476584,43.32092572],[5.37157687,43.32008493],[5.36764668,43.32976404],[5.36702675,43.32958862],[5.36804268,43.33340034],[5.36680578,43.3381965],[5.37281167,43.33941939],[5.37556822,43.33901688],[5.37538585,43.34084429],[5.37628415,43.34133755],[5.37734329,43.34100648],[5.37759365,43.34154548],[5.37826468,43.34665895],[5.37546125,43.34880407],[5.37523491,43.34917714],[5.37551356,43.34929522],[5.3793076,43.35133766],[5.37639632,43.35209916],[5.37670027,43.3537863],[5.37607075,43.35443194],[5.38199715,43.3599798],[5.38640345,43.36376628],[5.39243095,43.36662215],[5.39532816,43.36678486],[5.39669563,43.36789581],[5.39155604,43.37211186],[5.39443354,43.37419749],[5.39991603,43.37412464],[5.40905584,43.37600514],[5.41526731,43.37868741],[5.41537559,43.378739],[5.41352883,43.37085986],[5.41251098,43.36016949],[5.41657057,43.35249796],[5.41491919,43.35158802],[5.41198865,43.34952305],[5.41456718,43.34630915],[5.41181627,43.34419789],[5.41046661,43.34226864],[5.41091461,43.34112824],[5.4111425,43.33923673],[5.40749338,43.33509427],[5.40610047,43.33111664],[5.40483842,43.33071361],[5.4033545,43.3295424],[5.40368328,43.32911929],[5.40178363,43.3274668],[5.40285288,43.32451984],[5.40069545,43.32543446],[5.40062909,43.32265764],[5.39844525,43.3230553],[5.3981016,43.32232133],[5.39604999,43.31955433],[5.39356347,43.31847902],[5.39364003,43.31646404],[5.39318417,43.31640933],[5.38835261,43.31546049],[5.38793978,43.31495662],[5.38406093,43.31614741],[5.38237262,43.31669132],[5.38224103,43.31675812],[5.37962796,43.31851935]]]]}},{"type":"Feature","properties":{"code":"13215","nom":"Marseille 15e Arrondissement"},"geometry":{"type":"MultiPolygon","coordinates":[[[[5.35909346,43.33046308],[5.35570563,43.33191211],[5.3539997,43.33608652],[5.34486592,43.33636144],[5.33779214,43.33954754],[5.34340255,43.33988242],[5.34810089,43.342071],[5.34724193,43.34356653],[5.34522147,43.34661184],[5.34599812,43.34887649],[5.35222838,43.35122969],[5.35414676,43.35091255],[5.35347473,43.35405468],[5.34920947,43.35686],[5.34709276,43.36091187],[5.34898638,43.36620962],[5.3441476,43.36607516],[5.34420071,43.3654404],[5.34291914,43.36544386],[5.34177909,43.36346692],[5.34024178,43.36276128],[5.33920414,43.36822246],[5.33978862,43.36921783],[5.33351382,43.36969714],[5.33225108,43.37147757],[5.33639244,43.3767928],[5.3392075,43.3771433],[5.35256594,43.37435347],[5.35522638,43.37484552],[5.35366533,43.37689102],[5.35346425,43.377043],[5.35078439,43.38142674],[5.35039131,43.3824982],[5.3504289,43.38284479],[5.35894581,43.38585638],[5.36070517,43.38596743],[5.36082604,43.38719963],[5.36323702,43.38721992],[5.36848506,43.3896379],[5.37125713,43.38931349],[5.37498221,43.38833809],[5.37684475,43.38622263],[5.37759492,43.38421708],[5.3768445,43.38349644],[5.37698839,43.38216933],[5.37452416,43.37810039],[5.37621021,43.37709766],[5.37458077,43.37226249],[5.37330355,43.3718666],[5.37797703,43.37022406],[5.3796817,43.36973837],[5.39155604,43.37211186],[5.39669563,43.36789581],[5.39532816,43.36678486],[5.39243095,43.36662215],[5.38640345,43.36376628],[5.38199715,43.3599798],[5.37607075,43.35443194],[5.37670027,43.3537863],[5.37639632,43.35209916],[5.3793076,43.35133766],[5.37551356,43.34929522],[5.37523491,43.34917714],[5.37546125,43.34880407],[5.37826468,43.34665895],[5.37759365,43.34154548],[5.37734329,43.34100648],[5.37628415,43.34133755],[5.37538585,43.34084429],[5.37556822,43.33901688],[5.37281167,43.33941939],[5.36680578,43.3381965],[5.36804268,43.33340034],[5.36702675,43.32958862],[5.36764668,43.32976404],[5.37157687,43.32008493],[5.37002361,43.3194224],[5.36914448,43.31665712],[5.3679209,43.31711592],[5.36027302,43.32741607],[5.35994929,43.32778944],[5.35909346,43.33046308]]]]}},{"type":"Feature","properties":{"code":"75117","nom":"Paris 17e Arrondissement"},"geometry":{"type":"MultiPolygon","coordinates":[[[[2.28361825,48.87740621],[2.28113396,48.87819712],[2.27994933,48.87857312],[2.27995964,48.87861635],[2.28066877,48.8817683],[2.28089735,48.88279222],[2.28110801,48.88304081],[2.28445957,48.88563928],[2.28711408,48.88727841],[2.28868818,48.8880522],[2.29052922,48.88895616],[2.29177959,48.88947348],[2.29274762,48.88959342],[2.29557954,48.89014971],[2.29732666,48.89105391],[2.29960832,48.89217255],[2.30058827,48.89262884],[2.30377436,48.89415378],[2.30867536,48.89638102],[2.30953449,48.89670344],[2.31510605,48.89859433],[2.31988717,48.90045978],[2.32583637,48.90095387],[2.32973799,48.90103602],[2.33014712,48.90104371],[2.32946655,48.89902273],[2.3290144,48.8976973],[2.32899205,48.89763242],[2.32829324,48.89555197],[2.32744988,48.89305162],[2.32744594,48.8930399],[2.32687601,48.89133788],[2.32663334,48.89059277],[2.32628372,48.88957546],[2.32559588,48.88750764],[2.32638169,48.88579794],[2.32742314,48.8835078],[2.32716473,48.88345509],[2.32684646,48.88339124],[2.32427322,48.88287042],[2.32049368,48.88210618],[2.3204488,48.88209694],[2.31647973,48.88134138],[2.31255089,48.88085123],[2.30877852,48.88039244],[2.30314182,48.87915015],[2.30083725,48.87865827],[2.29790845,48.87774538],[2.29503207,48.87377318],[2.29424865,48.87403567],[2.28893987,48.875713],[2.28720346,48.87626566],[2.28546293,48.87681827],[2.28361825,48.87740621]]]]}},{"type":"Feature","properties":{"code":"75116","nom":"Paris 16e Arrondissement"},"geometry":{"type":"MultiPolygon","coordinates":[[[[2.25354669,48.83667569],[2.2534968,48.83673474],[2.25230493,48.83814202],[2.25193026,48.83861634],[2.25130855,48.84205975],[2.25247755,48.84548558],[2.24551498,48.84685568],[2.24195692,48.84798438],[2.23977005,48.8498322],[2.23777829,48.85034925],[2.22421911,48.85351692],[2.22567029,48.85940456],[2.22961513,48.86685423],[2.23173636,48.86906858],[2.2409453,48.87234162],[2.24570379,48.87645923],[2.24639778,48.87617761],[2.25541034,48.87426354],[2.25605716,48.87555992],[2.25846717,48.88038726],[2.26154203,48.88000157],[2.27075012,48.87883401],[2.27748703,48.87796832],[2.27994933,48.87857312],[2.28113396,48.87819712],[2.28361825,48.87740621],[2.28546293,48.87681827],[2.28720346,48.87626566],[2.28893987,48.875713],[2.29424865,48.87403567],[2.29503207,48.87377318],[2.29554288,48.87330313],[2.2962096,48.87249405],[2.29750122,48.87093857],[2.29890644,48.86853477],[2.30099132,48.86474092],[2.30139555,48.86458409],[2.30166248,48.86419533],[2.30173729,48.86349608],[2.29687051,48.86261949],[2.29183856,48.85996821],[2.28969568,48.85818288],[2.28807416,48.85595723],[2.28007306,48.85028925],[2.26279152,48.83392337],[2.26149249,48.83407005],[2.2550721,48.83489994],[2.25354669,48.83667569]]]]}},{"type":"Feature","properties":{"code":"75112","nom":"Paris 12e Arrondissement"},"geometry":{"type":"MultiPolygon","coordinates":[[[[2.37245162,48.84017902],[2.36608773,48.84496784],[2.36445544,48.84618591],[2.36537976,48.84670885],[2.36604156,48.84708289],[2.3689724,48.85284526],[2.36904148,48.85299312],[2.36912388,48.85316623],[2.37025513,48.85327112],[2.37381258,48.85187421],[2.37780508,48.85089046],[2.37855547,48.8507037],[2.37938717,48.85055512],[2.38011471,48.85045547],[2.38142625,48.85040829],[2.38445764,48.85012714],[2.38470753,48.85008436],[2.38949672,48.84934624],[2.39197313,48.84896853],[2.39751565,48.84823482],[2.39912113,48.8480981],[2.40345763,48.84770789],[2.40629627,48.8474549],[2.41106891,48.8470468],[2.41597111,48.84662296],[2.41529909,48.84384966],[2.4148496,48.84237881],[2.41404653,48.83975955],[2.41285203,48.83621651],[2.41147187,48.83392894],[2.41547047,48.83379386],[2.41979624,48.83498319],[2.42213864,48.83579766],[2.42147574,48.83709583],[2.41953895,48.84144924],[2.41985997,48.84345636],[2.42184799,48.84443729],[2.42434723,48.84195003],[2.42757516,48.84157071],[2.43153295,48.84122804],[2.4371842,48.84089322],[2.43795832,48.84466425],[2.44051971,48.84443973],[2.44075815,48.84596435],[2.44664649,48.84580197],[2.44649728,48.84496758],[2.44785283,48.84486322],[2.46179392,48.84273053],[2.46525852,48.841174],[2.4673194,48.83909939],[2.46980324,48.83654726],[2.46949603,48.83447108],[2.46558161,48.83145608],[2.46523224,48.8276673],[2.46617832,48.82732797],[2.46573057,48.82622605],[2.46571204,48.8261738],[2.46269606,48.81905977],[2.46120521,48.81835515],[2.45871708,48.81703442],[2.45420294,48.81711643],[2.43985374,48.81829121],[2.43428775,48.82015819],[2.43062808,48.82315731],[2.42287816,48.82413015],[2.41996252,48.82408007],[2.41787247,48.82450251],[2.40995515,48.82518321],[2.40381405,48.82905961],[2.40150845,48.82936198],[2.40102665,48.82920667],[2.39933693,48.82866577],[2.39095145,48.82608444],[2.39007201,48.82569233],[2.37486284,48.83805386],[2.37245162,48.84017902]]]]}},{"type":"Feature","properties":{"code":"75120","nom":"Paris 20e Arrondissement"},"geometry":{"type":"MultiPolygon","coordinates":[[[[2.38887926,48.85981691],[2.38737779,48.86289848],[2.3872011,48.86308644],[2.38391313,48.86598343],[2.38306914,48.8670349],[2.38236681,48.86763384],[2.38057589,48.86898079],[2.37919565,48.87006274],[2.37829011,48.87077481],[2.37690477,48.87204826],[2.37884759,48.87261325],[2.37983449,48.87285579],[2.38302841,48.87346675],[2.38308556,48.87347604],[2.3853856,48.87393484],[2.38569179,48.87409919],[2.38745208,48.8746649],[2.3920688,48.87546096],[2.39219285,48.87546249],[2.39522349,48.87524851],[2.39536794,48.87525464],[2.39792194,48.87546267],[2.39896599,48.8754913],[2.39920812,48.87553928],[2.40256232,48.87599853],[2.40658264,48.87711392],[2.40793408,48.87757207],[2.41082032,48.87843618],[2.41220838,48.87674237],[2.41343106,48.87314025],[2.41364931,48.87240387],[2.41393246,48.86953368],[2.41397734,48.86518111],[2.41411748,48.86350723],[2.41470169,48.858704],[2.41477761,48.8582547],[2.41528646,48.85517783],[2.41543708,48.85438624],[2.41634113,48.84923378],[2.41598393,48.84669497],[2.41597111,48.84662296],[2.41106891,48.8470468],[2.40629627,48.8474549],[2.40345763,48.84770789],[2.39912113,48.8480981],[2.39924719,48.84886588],[2.39875597,48.85033835],[2.39839462,48.85130154],[2.39707906,48.85299109],[2.39601279,48.85433114],[2.39434509,48.85651982],[2.38981909,48.85835937],[2.38954644,48.85848029],[2.38887926,48.85981691]]]]}}]}